{"type":"FeatureCollection","features":[{"type":"Feature","properties":{"cls":"경작지"},"geometry":{"type":"Polygon","coordinates":[[[127.37041,35.40173],[127.37047,35.40159],[127.37051,35.40158],[127.37015,35.40143],[127.36959,35.40142],[127.36962,35.40164],[127.3697,35.40173],[127.36983,35.40169],[127.37004,35.40168],[127.37036,35.4018],[127.37041,35.40173]]]}},{"type":"Feature","properties":{"cls":"경작지"},"geometry":{"type":"MultiPolygon","coordinates":[[[[127.37153,35.40283],[127.3713,35.40281],[127.37128,35.40277],[127.37128,35.40282],[127.37153,35.40283]]],[[[127.37129,35.4026],[127.37136,35.40249],[127.37127,35.40247],[127.37127,35.4027],[127.37129,35.4026]]],[[[127.37124,35.40254],[127.37123,35.40252],[127.37117,35.40255],[127.37055,35.40252],[127.3705,35.40269],[127.37051,35.40281],[127.37126,35.40282],[127.37124,35.40254]]],[[[127.3712,35.40252],[127.37124,35.40247],[127.37122,35.40245],[127.37121,35.40247],[127.37084,35.40233],[127.37073,35.40225],[127.37055,35.40203],[127.3704,35.40203],[127.37051,35.40224],[127.37057,35.40229],[127.37055,35.40249],[127.37106,35.40254],[127.3712,35.40252]]]]}},{"type":"Feature","properties":{"cls":"경작지"},"geometry":{"type":"Polygon","coordinates":[[[127.37022,35.40321],[127.37057,35.40317],[127.37047,35.40313],[127.37041,35.40295],[127.37045,35.40285],[127.37053,35.40232],[127.37048,35.40227],[127.3703,35.40222],[127.37024,35.40226],[127.37024,35.40241],[127.37017,35.40254],[127.37011,35.40284],[127.37011,35.40309],[127.37014,35.40316],[127.37022,35.40321]]]}},{"type":"Feature","properties":{"cls":"경작지"},"geometry":{"type":"MultiPolygon","coordinates":[[[[127.36749,35.40107],[127.36751,35.40109],[127.36753,35.4011],[127.36759,35.40114],[127.36756,35.40104],[127.36738,35.40104],[127.36749,35.40107]]],[[[127.36737,35.40103],[127.36694,35.40101],[127.36697,35.40121],[127.36707,35.40129],[127.36724,35.40135],[127.36761,35.40138],[127.36762,35.40123],[127.36758,35.40115],[127.36748,35.40107],[127.36738,35.40104],[127.36737,35.40103]]]]}},{"type":"Feature","properties":{"cls":"경작지"},"geometry":{"type":"Polygon","coordinates":[[[127.36359,35.40042],[127.36358,35.40033],[127.36337,35.40009],[127.36318,35.39997],[127.36304,35.40006],[127.36278,35.39997],[127.36263,35.39999],[127.36262,35.40007],[127.36267,35.40017],[127.36277,35.40025],[127.36318,35.40045],[127.36344,35.40047],[127.36359,35.40042]]]}},{"type":"Feature","properties":{"cls":"비경작지"},"geometry":{"type":"Polygon","coordinates":[[[127.37148,35.39932],[127.37133,35.39929],[127.37128,35.39942],[127.37144,35.39945],[127.37148,35.39932]]]}},{"type":"Feature","properties":{"cls":"경작지"},"geometry":{"type":"MultiPolygon","coordinates":[[[[127.36142,35.39871],[127.36142,35.39875],[127.36149,35.39876],[127.36208,35.39868],[127.36213,35.39857],[127.36171,35.39862],[127.36142,35.39871]]],[[[127.36126,35.3988],[127.36119,35.39895],[127.36174,35.39911],[127.36182,35.3991],[127.36169,35.39905],[127.36159,35.39884],[127.36146,35.39878],[127.36126,35.3988]]],[[[127.36182,35.39909],[127.36186,35.39909],[127.36191,35.39903],[127.36208,35.3987],[127.36147,35.39878],[127.36159,35.39884],[127.36169,35.39905],[127.36182,35.39909]]]]}},{"type":"Feature","properties":{"cls":"비경작지"},"geometry":{"type":"MultiPolygon","coordinates":[[[[127.36314,35.39622],[127.36316,35.39626],[127.36331,35.39624],[127.36355,35.3963],[127.36363,35.39628],[127.36371,35.39635],[127.36369,35.3964],[127.3638,35.39648],[127.36383,35.39646],[127.36387,35.39654],[127.36391,35.39654],[127.36387,35.39645],[127.36391,35.39647],[127.36406,35.39643],[127.36419,35.39646],[127.36415,35.39638],[127.36407,35.3964],[127.36404,35.39636],[127.36402,35.39639],[127.36396,35.39631],[127.36394,35.39619],[127.36403,35.39622],[127.36401,35.39617],[127.36391,35.39616],[127.364,35.39612],[127.36395,35.39608],[127.36401,35.39608],[127.36396,35.39604],[127.36396,35.39592],[127.36388,35.39594],[127.36387,35.39591],[127.36357,35.39577],[127.36352,35.3957],[127.36337,35.39566],[127.36327,35.39558],[127.3632,35.39546],[127.36306,35.39552],[127.3631,35.3956],[127.36289,35.39563],[127.36289,35.39559],[127.36279,35.39553],[127.3624,35.39575],[127.36285,35.396],[127.36302,35.39616],[127.36308,35.39618],[127.36311,35.39626],[127.36314,35.39622]]],[[[127.36402,35.39635],[127.36405,35.39632],[127.36404,35.39629],[127.36402,35.39629],[127.36402,35.39635]]],[[[127.36398,35.3965],[127.36396,35.39654],[127.364,35.39654],[127.364,35.3965],[127.36398,35.3965]]]]}},{"type":"Feature","properties":{"cls":"경작지"},"geometry":{"type":"Polygon","coordinates":[[[127.363,35.39545],[127.36305,35.3955],[127.36321,35.39541],[127.36295,35.39536],[127.36292,35.3954],[127.363,35.39545]]]}},{"type":"Feature","properties":{"cls":"비경작지"},"geometry":{"type":"Polygon","coordinates":[[[127.36305,35.39552],[127.36296,35.39544],[127.36271,35.39534],[127.36256,35.39513],[127.3624,35.39507],[127.36232,35.395],[127.36226,35.39502],[127.36219,35.39515],[127.36239,35.3953],[127.36289,35.39559],[127.36289,35.39563],[127.3631,35.39559],[127.36305,35.39552]]]}},{"type":"Feature","properties":{"cls":"경작지"},"geometry":{"type":"Polygon","coordinates":[[[127.36381,35.39534],[127.36385,35.39529],[127.36359,35.39523],[127.36311,35.39503],[127.36284,35.395],[127.36268,35.39493],[127.36264,35.39496],[127.36234,35.39495],[127.36247,35.39509],[127.36262,35.39509],[127.36325,35.39526],[127.36381,35.39534]]]}},{"type":"Feature","properties":{"cls":"경작지"},"geometry":{"type":"Polygon","coordinates":[[[127.36259,35.39449],[127.3626,35.39448],[127.36231,35.39446],[127.36259,35.39449]]]}},{"type":"Feature","properties":{"cls":"경작지"},"geometry":{"type":"Polygon","coordinates":[[[127.36364,35.39369],[127.36366,35.39363],[127.36301,35.39327],[127.36301,35.39336],[127.36364,35.39369]]]}},{"type":"Feature","properties":{"cls":"경작지"},"geometry":{"type":"Polygon","coordinates":[[[127.36414,35.40405],[127.36425,35.40405],[127.36415,35.40407],[127.36391,35.40405],[127.36379,35.4042],[127.36378,35.40426],[127.36382,35.40431],[127.36391,35.4042],[127.36394,35.4042],[127.36402,35.40429],[127.36418,35.40433],[127.36485,35.40412],[127.36454,35.40397],[127.36436,35.40402],[127.36455,35.40396],[127.36453,35.40395],[127.36428,35.40403],[127.36399,35.40404],[127.36414,35.40405]]]}},{"type":"Feature","properties":{"cls":"비경작지"},"geometry":{"type":"Polygon","coordinates":[[[127.35994,35.40068],[127.35994,35.40058],[127.3599,35.40098],[127.35994,35.40068]]]}},{"type":"Feature","properties":{"cls":"비경작지"},"geometry":{"type":"Polygon","coordinates":[[[127.36158,35.40053],[127.36176,35.4005],[127.36175,35.40045],[127.36189,35.40035],[127.36139,35.39995],[127.36134,35.40004],[127.36116,35.40008],[127.36119,35.40019],[127.36138,35.40046],[127.36144,35.40051],[127.36158,35.40053]]]}},{"type":"Feature","properties":{"cls":"경작지"},"geometry":{"type":"Polygon","coordinates":[[[127.35569,35.4011],[127.35571,35.40101],[127.35567,35.401],[127.35564,35.40117],[127.35569,35.4011]]]}},{"type":"Feature","properties":{"cls":"경작지"},"geometry":{"type":"MultiPolygon","coordinates":[[[[127.35571,35.40098],[127.35574,35.40076],[127.35574,35.40075],[127.3557,35.40075],[127.35567,35.40098],[127.35568,35.40098],[127.35571,35.40098]]],[[[127.35567,35.40099],[127.35567,35.401],[127.35571,35.40101],[127.35571,35.40099],[127.35567,35.40099]]]]}},{"type":"Feature","properties":{"cls":"경작지"},"geometry":{"type":"MultiPolygon","coordinates":[[[[127.35573,35.40051],[127.35577,35.40052],[127.35579,35.40041],[127.35575,35.40035],[127.35573,35.40051]]],[[[127.35577,35.40054],[127.35573,35.40052],[127.3557,35.40071],[127.35574,35.40072],[127.35577,35.40054]]]]}},{"type":"Feature","properties":{"cls":"비경작지"},"geometry":{"type":"Polygon","coordinates":[[[127.35565,35.40131],[127.35563,35.40126],[127.35559,35.40158],[127.35565,35.40131]]]}},{"type":"Feature","properties":{"cls":"경작지"},"geometry":{"type":"Polygon","coordinates":[[[127.35664,35.40276],[127.35695,35.4029],[127.35699,35.40259],[127.35668,35.40239],[127.3564,35.40233],[127.35632,35.40237],[127.35664,35.40276]]]}},{"type":"Feature","properties":{"cls":"비경작지"},"geometry":{"type":"Polygon","coordinates":[[[127.35552,35.4027],[127.35549,35.40252],[127.35546,35.40254],[127.35549,35.40269],[127.35552,35.4027]]]}},{"type":"Feature","properties":{"cls":"경작지"},"geometry":{"type":"Polygon","coordinates":[[[127.35539,35.40329],[127.35543,35.40309],[127.35535,35.40329],[127.35539,35.40329]]]}},{"type":"Feature","properties":{"cls":"경작지"},"geometry":{"type":"Polygon","coordinates":[[[127.35535,35.40329],[127.35537,35.40318],[127.35543,35.40309],[127.3554,35.40307],[127.35533,35.40329],[127.35535,35.40329]]]}},{"type":"Feature","properties":{"cls":"비경작지"},"geometry":{"type":"Polygon","coordinates":[[[127.35548,35.40295],[127.3555,35.40289],[127.35552,35.4027],[127.35549,35.4027],[127.35544,35.40292],[127.35548,35.40295]]]}},{"type":"Feature","properties":{"cls":"비경작지"},"geometry":{"type":"Polygon","coordinates":[[[127.3555,35.40251],[127.35548,35.40243],[127.35544,35.4024],[127.35546,35.40254],[127.3555,35.40251]]]}},{"type":"Feature","properties":{"cls":"비경작지"},"geometry":{"type":"Polygon","coordinates":[[[127.35553,35.40188],[127.35551,35.40187],[127.35545,35.40206],[127.35545,35.40238],[127.35553,35.40188]]]}},{"type":"Feature","properties":{"cls":"경작지"},"geometry":{"type":"Polygon","coordinates":[[[127.35528,35.40368],[127.35537,35.40333],[127.35536,35.40331],[127.35532,35.40332],[127.3553,35.40338],[127.35524,35.40368],[127.35528,35.40368]]]}},{"type":"Feature","properties":{"cls":"비경작지"},"geometry":{"type":"MultiPolygon","coordinates":[[[[127.35536,35.41042],[127.35534,35.41039],[127.35529,35.41052],[127.35504,35.41065],[127.35496,35.41065],[127.35477,35.41058],[127.35457,35.41075],[127.35453,35.41085],[127.35455,35.41089],[127.35483,35.41122],[127.35502,35.41118],[127.35527,35.41097],[127.35529,35.41091],[127.35522,35.41077],[127.35524,35.41062],[127.35536,35.41042]]],[[[127.35532,35.41035],[127.35535,35.41035],[127.35534,35.4102],[127.35529,35.41027],[127.35532,35.41033],[127.35531,35.41042],[127.35532,35.41035]]],[[[127.35507,35.41062],[127.3551,35.4106],[127.35501,35.41063],[127.35507,35.41062]]],[[[127.35518,35.41056],[127.35524,35.41052],[127.35514,35.41058],[127.35518,35.41056]]]]}},{"type":"Feature","properties":{"cls":"비경작지"},"geometry":{"type":"Polygon","coordinates":[[[127.35473,35.40863],[127.35479,35.40844],[127.35464,35.40874],[127.35473,35.40863]]]}},{"type":"Feature","properties":{"cls":"비경작지"},"geometry":{"type":"Polygon","coordinates":[[[127.35475,35.40863],[127.35484,35.40841],[127.35489,35.40816],[127.35473,35.40862],[127.35464,35.40877],[127.35475,35.40863]]]}},{"type":"Feature","properties":{"cls":"비경작지"},"geometry":{"type":"Polygon","coordinates":[[[127.3548,35.40804],[127.35486,35.40801],[127.35509,35.40746],[127.35512,35.40727],[127.3551,35.40717],[127.35504,35.40746],[127.35491,35.40773],[127.35481,35.40774],[127.35478,35.40789],[127.3548,35.40804]]]}},{"type":"Feature","properties":{"cls":"경작지"},"geometry":{"type":"MultiPolygon","coordinates":[[[[127.35098,35.40585],[127.35081,35.4059],[127.35071,35.40591],[127.3508,35.40592],[127.35098,35.40586],[127.35108,35.40589],[127.35098,35.40585]]],[[[127.35115,35.40592],[127.35114,35.40595],[127.35118,35.40595],[127.35122,35.4061],[127.3514,35.40619],[127.35149,35.40621],[127.35147,35.40614],[127.35141,35.40618],[127.35136,35.40613],[127.35139,35.40607],[127.35136,35.40604],[127.35125,35.40596],[127.35119,35.40593],[127.35111,35.40591],[127.35115,35.40592]]]]}},{"type":"Feature","properties":{"cls":"비경작지"},"geometry":{"type":"Polygon","coordinates":[[[127.3452,35.40719],[127.3452,35.40723],[127.34516,35.40723],[127.34514,35.40719],[127.34508,35.40718],[127.3452,35.40728],[127.34544,35.40728],[127.34541,35.40724],[127.3452,35.40719]]]}},{"type":"Feature","properties":{"cls":"비경작지"},"geometry":{"type":"Polygon","coordinates":[[[127.34737,35.40503],[127.34733,35.40499],[127.34729,35.40497],[127.34737,35.40507],[127.34737,35.40503]]]}},{"type":"Feature","properties":{"cls":"비경작지"},"geometry":{"type":"Polygon","coordinates":[[[127.34847,35.40984],[127.34878,35.40974],[127.34905,35.40973],[127.34911,35.40948],[127.3482,35.40976],[127.3482,35.4098],[127.34826,35.40986],[127.34847,35.40984]]]}},{"type":"Feature","properties":{"cls":"비경작지"},"geometry":{"type":"Polygon","coordinates":[[[127.34911,35.40922],[127.34907,35.40922],[127.34799,35.40957],[127.34818,35.40971],[127.34827,35.40972],[127.34911,35.40945],[127.34911,35.40922]]]}},{"type":"Feature","properties":{"cls":"비경작지"},"geometry":{"type":"Polygon","coordinates":[[[127.34785,35.40876],[127.34776,35.40867],[127.34683,35.40855],[127.34679,35.40861],[127.34785,35.40876]]]}},{"type":"Feature","properties":{"cls":"경작지"},"geometry":{"type":"MultiPolygon","coordinates":[[[[127.36502,35.39151],[127.36501,35.39156],[127.36506,35.39164],[127.36518,35.39176],[127.36537,35.3918],[127.36586,35.39206],[127.3659,35.39205],[127.36593,35.39185],[127.36583,35.39174],[127.36521,35.39162],[127.36502,35.39151]]],[[[127.36544,35.39229],[127.36555,35.39239],[127.36548,35.39192],[127.36537,35.39185],[127.36522,35.39183],[127.36526,35.39196],[127.36532,35.39199],[127.36532,35.39206],[127.36544,35.39229]]]]}},{"type":"Feature","properties":{"cls":"경작지"},"geometry":{"type":"Polygon","coordinates":[[[127.35589,35.39871],[127.3559,35.39843],[127.35586,35.39842],[127.35585,35.39856],[127.35589,35.39871]]]}},{"type":"Feature","properties":{"cls":"비경작지"},"geometry":{"type":"Polygon","coordinates":[[[127.35591,35.39824],[127.35591,35.3976],[127.35586,35.39767],[127.35586,35.39842],[127.3559,35.39843],[127.35591,35.39824]]]}},{"type":"Feature","properties":{"cls":"비경작지"},"geometry":{"type":"Polygon","coordinates":[[[127.35591,35.3976],[127.35591,35.39751],[127.35586,35.39749],[127.35586,35.39762],[127.35591,35.3976]]]}},{"type":"Feature","properties":{"cls":"비경작지"},"geometry":{"type":"MultiPolygon","coordinates":[[[[127.35587,35.39747],[127.35586,35.39748],[127.35591,35.39751],[127.35591,35.39748],[127.35587,35.39747]]],[[[127.35588,35.39746],[127.35586,35.39728],[127.35585,35.39727],[127.35586,35.39746],[127.35588,35.39746]]]]}},{"type":"Feature","properties":{"cls":"경작지"},"geometry":{"type":"MultiPolygon","coordinates":[[[[127.3534,35.39736],[127.35363,35.39699],[127.35354,35.39683],[127.35344,35.39692],[127.35332,35.3971],[127.35327,35.39724],[127.35321,35.39729],[127.3534,35.39736]]],[[[127.35331,35.39709],[127.35345,35.39687],[127.35351,35.39682],[127.35347,35.39684],[127.35339,35.39694],[127.35328,35.39714],[127.35324,35.39724],[127.35331,35.39709]]]]}},{"type":"Feature","properties":{"cls":"경작지"},"geometry":{"type":"Polygon","coordinates":[[[127.35577,35.40019],[127.35582,35.40019],[127.35586,35.39991],[127.35582,35.39989],[127.35577,35.40019]]]}},{"type":"Feature","properties":{"cls":"경작지"},"geometry":{"type":"Polygon","coordinates":[[[127.35582,35.39975],[127.35582,35.39982],[127.35586,35.3997],[127.35582,35.39969],[127.35582,35.39975]]]}},{"type":"Feature","properties":{"cls":"비경작지"},"geometry":{"type":"Polygon","coordinates":[[[127.35485,35.40128],[127.35484,35.40119],[127.35481,35.40116],[127.35484,35.40128],[127.35485,35.40128]]]}},{"type":"Feature","properties":{"cls":"비경작지"},"geometry":{"type":"Polygon","coordinates":[[[127.35295,35.40355],[127.35287,35.40347],[127.35282,35.40354],[127.35295,35.40357],[127.35295,35.40355]]]}},{"type":"Feature","properties":{"cls":"비경작지"},"geometry":{"type":"MultiPolygon","coordinates":[[[[127.34369,35.39673],[127.3437,35.39667],[127.34372,35.39668],[127.34372,35.39662],[127.34367,35.39674],[127.34369,35.39673]]],[[[127.34372,35.39666],[127.34373,35.39665],[127.3437,35.39675],[127.34402,35.39685],[127.34409,35.39689],[127.34403,35.39716],[127.34432,35.39722],[127.34435,35.39717],[127.34428,35.39714],[127.34442,35.39691],[127.3445,35.39664],[127.34388,35.39636],[127.34378,35.39654],[127.34375,35.39654],[127.34372,35.39666]]],[[[127.34392,35.39684],[127.34382,35.39679],[127.34381,35.39681],[127.34405,35.39693],[127.34403,35.39704],[127.34407,35.39688],[127.34392,35.39684]]]]}},{"type":"Feature","properties":{"cls":"비경작지"},"geometry":{"type":"Polygon","coordinates":[[[127.34454,35.3968],[127.34456,35.39669],[127.34451,35.39664],[127.34442,35.39691],[127.34448,35.39693],[127.34454,35.3968]]]}},{"type":"Feature","properties":{"cls":"비경작지"},"geometry":{"type":"Polygon","coordinates":[[[127.3387,35.39893],[127.33861,35.39892],[127.33864,35.3988],[127.33872,35.39883],[127.33872,35.39889],[127.33884,35.39863],[127.33899,35.39814],[127.33888,35.39811],[127.33853,35.39895],[127.33868,35.39898],[127.3387,35.39893]]]}},{"type":"Feature","properties":{"cls":"경작지"},"geometry":{"type":"Polygon","coordinates":[[[127.34472,35.39688],[127.34453,35.39726],[127.34514,35.39742],[127.34543,35.39686],[127.34541,35.39683],[127.34478,35.39661],[127.34472,35.39688]]]}},{"type":"Feature","properties":{"cls":"경작지"},"geometry":{"type":"Polygon","coordinates":[[[127.34527,35.39678],[127.34542,35.39683],[127.34546,35.39681],[127.34548,35.39675],[127.34449,35.3964],[127.34466,35.39649],[127.34478,35.39661],[127.34527,35.39678]]]}},{"type":"Feature","properties":{"cls":"비경작지"},"geometry":{"type":"Polygon","coordinates":[[[127.34699,35.39635],[127.34597,35.396],[127.34588,35.39621],[127.34688,35.39656],[127.34699,35.39635]]]}},{"type":"Feature","properties":{"cls":"비경작지"},"geometry":{"type":"Polygon","coordinates":[[[127.35346,35.39828],[127.35245,35.39792],[127.35242,35.39798],[127.35241,35.39803],[127.3534,35.39838],[127.35346,35.39828]]]}},{"type":"Feature","properties":{"cls":"경작지"},"geometry":{"type":"Polygon","coordinates":[[[127.35571,35.39511],[127.35575,35.39504],[127.35578,35.39485],[127.35573,35.39484],[127.35571,35.39511]]]}},{"type":"Feature","properties":{"cls":"경작지"},"geometry":{"type":"MultiPolygon","coordinates":[[[[127.35577,35.39479],[127.35573,35.3944],[127.3557,35.3944],[127.35573,35.3948],[127.35577,35.39479]]],[[[127.35577,35.39482],[127.35573,35.39481],[127.35573,35.39484],[127.35577,35.39484],[127.35577,35.39482]]]]}},{"type":"Feature","properties":{"cls":"경작지"},"geometry":{"type":"Polygon","coordinates":[[[127.35572,35.39403],[127.35571,35.3939],[127.35567,35.3939],[127.35568,35.39403],[127.35572,35.39403]]]}},{"type":"Feature","properties":{"cls":"경작지"},"geometry":{"type":"Polygon","coordinates":[[[127.35238,35.39307],[127.35243,35.39316],[127.35259,35.39314],[127.35245,35.39302],[127.35219,35.39289],[127.35184,35.39279],[127.35182,35.39282],[127.352,35.39293],[127.35238,35.39307]]]}},{"type":"Feature","properties":{"cls":"경작지"},"geometry":{"type":"Polygon","coordinates":[[[127.35182,35.39278],[127.35147,35.39259],[127.35144,35.39263],[127.3518,35.39283],[127.35182,35.39278]]]}},{"type":"Feature","properties":{"cls":"비경작지"},"geometry":{"type":"Polygon","coordinates":[[[127.35132,35.39251],[127.35135,35.39252],[127.35123,35.39243],[127.35106,35.39236],[127.35132,35.39251]]]}},{"type":"Feature","properties":{"cls":"경작지"},"geometry":{"type":"Polygon","coordinates":[[[127.35243,35.39316],[127.35238,35.39307],[127.352,35.39294],[127.35188,35.39287],[127.35175,35.39314],[127.35199,35.39327],[127.3525,35.39335],[127.35243,35.39316]]]}},{"type":"Feature","properties":{"cls":"비경작지"},"geometry":{"type":"Polygon","coordinates":[[[127.3497,35.39227],[127.34971,35.39218],[127.34965,35.39237],[127.3497,35.39227]]]}},{"type":"Feature","properties":{"cls":"비경작지"},"geometry":{"type":"Polygon","coordinates":[[[127.3423,35.39147],[127.34223,35.39141],[127.34217,35.39137],[127.34235,35.39151],[127.34238,35.39152],[127.3423,35.39147]]]}},{"type":"Feature","properties":{"cls":"경작지"},"geometry":{"type":"Polygon","coordinates":[[[127.34681,35.39038],[127.34693,35.39047],[127.34729,35.3906],[127.34722,35.39048],[127.34703,35.39034],[127.34676,35.39034],[127.34681,35.39038]]]}},{"type":"Feature","properties":{"cls":"비경작지"},"geometry":{"type":"Polygon","coordinates":[[[127.34627,35.39454],[127.34628,35.39442],[127.34621,35.39428],[127.3462,35.39418],[127.34563,35.39426],[127.34552,35.3943],[127.34558,35.39439],[127.34583,35.39446],[127.34588,35.3945],[127.3459,35.39457],[127.34627,35.39454]]]}},{"type":"Feature","properties":{"cls":"경작지"},"geometry":{"type":"Polygon","coordinates":[[[127.34113,35.39363],[127.341,35.39372],[127.34125,35.394],[127.34136,35.39391],[127.34113,35.39363]]]}},{"type":"Feature","properties":{"cls":"경작지"},"geometry":{"type":"Polygon","coordinates":[[[127.34047,35.3908],[127.34051,35.39079],[127.34045,35.39076],[127.34043,35.39065],[127.34027,35.39034],[127.34007,35.39034],[127.34005,35.39044],[127.34009,35.39062],[127.34007,35.39069],[127.34023,35.39088],[127.34047,35.3908]]]}},{"type":"Feature","properties":{"cls":"경작지"},"geometry":{"type":"Polygon","coordinates":[[[127.34146,35.39065],[127.34164,35.39072],[127.34168,35.39071],[127.34169,35.39059],[127.34166,35.39053],[127.34152,35.39042],[127.34151,35.39034],[127.34128,35.39034],[127.34141,35.39047],[127.34141,35.39064],[127.34146,35.39065]]]}},{"type":"Feature","properties":{"cls":"비경작지"},"geometry":{"type":"Polygon","coordinates":[[[127.35441,35.39129],[127.35444,35.39127],[127.35418,35.39098],[127.35413,35.39099],[127.35441,35.39129]]]}},{"type":"Feature","properties":{"cls":"경작지"},"geometry":{"type":"Polygon","coordinates":[[[127.354,35.39086],[127.35411,35.39097],[127.35412,35.39096],[127.35394,35.39077],[127.354,35.39086]]]}},{"type":"Feature","properties":{"cls":"비경작지"},"geometry":{"type":"Polygon","coordinates":[[[127.3385,35.39687],[127.33879,35.39695],[127.33879,35.39687],[127.33871,35.39671],[127.33874,35.39657],[127.33889,35.39645],[127.33885,35.3962],[127.33882,35.39619],[127.3385,35.39687]]]}}]}