{"type":"FeatureCollection","features":[{"type":"Feature","properties":{"cls":"styrofoam"},"geometry":{"type":"Point","coordinates":[127.679082,34.57192]}},{"type":"Feature","properties":{"cls":"styrofoam"},"geometry":{"type":"Point","coordinates":[127.684539,34.571341]}},{"type":"Feature","properties":{"cls":"styrofoam"},"geometry":{"type":"Point","coordinates":[127.684539,34.571341]}},{"type":"Feature","properties":{"cls":"styrofoam"},"geometry":{"type":"Point","coordinates":[127.685429,34.572339]}},{"type":"Feature","properties":{"cls":"styrofoam"},"geometry":{"type":"Point","coordinates":[127.685432,34.572318]}},{"type":"Feature","properties":{"cls":"styrofoam"},"geometry":{"type":"Point","coordinates":[127.685518,34.572123]}},{"type":"Feature","properties":{"cls":"styrofoam"},"geometry":{"type":"Point","coordinates":[127.685519,34.572113]}},{"type":"Feature","properties":{"cls":"styrofoam"},"geometry":{"type":"Point","coordinates":[127.685514,34.572119]}},{"type":"Feature","properties":{"cls":"styrofoam"},"geometry":{"type":"Point","coordinates":[127.685559,34.572015]}},{"type":"Feature","properties":{"cls":"styrofoam"},"geometry":{"type":"Point","coordinates":[127.685541,34.572003]}},{"type":"Feature","properties":{"cls":"styrofoam"},"geometry":{"type":"Point","coordinates":[127.68557,34.57205]}},{"type":"Feature","properties":{"cls":"styrofoam"},"geometry":{"type":"Point","coordinates":[127.685551,34.572047]}},{"type":"Feature","properties":{"cls":"styrofoam"},"geometry":{"type":"Point","coordinates":[127.685562,34.572054]}},{"type":"Feature","properties":{"cls":"styrofoam"},"geometry":{"type":"Point","coordinates":[127.685548,34.572007]}},{"type":"Feature","properties":{"cls":"styrofoam"},"geometry":{"type":"Point","coordinates":[127.685561,34.572034]}},{"type":"Feature","properties":{"cls":"styrofoam"},"geometry":{"type":"Point","coordinates":[127.685559,34.572051]}},{"type":"Feature","properties":{"cls":"styrofoam"},"geometry":{"type":"Point","coordinates":[127.685563,34.572036]}},{"type":"Feature","properties":{"cls":"styrofoam"},"geometry":{"type":"Point","coordinates":[127.685561,34.572045]}},{"type":"Feature","properties":{"cls":"styrofoam"},"geometry":{"type":"Point","coordinates":[127.685578,34.572015]}},{"type":"Feature","properties":{"cls":"styrofoam"},"geometry":{"type":"Point","coordinates":[127.685558,34.572041]}},{"type":"Feature","properties":{"cls":"styrofoam"},"geometry":{"type":"Point","coordinates":[127.685568,34.57204]}},{"type":"Feature","properties":{"cls":"styrofoam"},"geometry":{"type":"Point","coordinates":[127.685545,34.57198]}},{"type":"Feature","properties":{"cls":"styrofoam"},"geometry":{"type":"Point","coordinates":[127.685563,34.572041]}},{"type":"Feature","properties":{"cls":"styrofoam"},"geometry":{"type":"Point","coordinates":[127.685539,34.571973]}},{"type":"Feature","properties":{"cls":"styrofoam"},"geometry":{"type":"Point","coordinates":[127.685546,34.571984]}},{"type":"Feature","properties":{"cls":"styrofoam"},"geometry":{"type":"Point","coordinates":[127.685533,34.571972]}},{"type":"Feature","properties":{"cls":"styrofoam"},"geometry":{"type":"Point","coordinates":[127.685589,34.572048]}},{"type":"Feature","properties":{"cls":"styrofoam"},"geometry":{"type":"Point","coordinates":[127.685554,34.571995]}},{"type":"Feature","properties":{"cls":"styrofoam"},"geometry":{"type":"Point","coordinates":[127.685537,34.571981]}},{"type":"Feature","properties":{"cls":"styrofoam"},"geometry":{"type":"Point","coordinates":[127.685551,34.571991]}},{"type":"Feature","properties":{"cls":"styrofoam"},"geometry":{"type":"Point","coordinates":[127.685569,34.571973]}},{"type":"Feature","properties":{"cls":"styrofoam"},"geometry":{"type":"Point","coordinates":[127.685546,34.571998]}},{"type":"Feature","properties":{"cls":"styrofoam"},"geometry":{"type":"Point","coordinates":[127.685556,34.572005]}},{"type":"Feature","properties":{"cls":"styrofoam"},"geometry":{"type":"Point","coordinates":[127.685559,34.572002]}},{"type":"Feature","properties":{"cls":"buoy_blue"},"geometry":{"type":"Point","coordinates":[127.68559,34.572048]}},{"type":"Feature","properties":{"cls":"styrofoam"},"geometry":{"type":"Point","coordinates":[127.685579,34.572015]}},{"type":"Feature","properties":{"cls":"styrofoam"},"geometry":{"type":"Point","coordinates":[127.685532,34.571969]}},{"type":"Feature","properties":{"cls":"styrofoam"},"geometry":{"type":"Point","coordinates":[127.685478,34.571859]}},{"type":"Feature","properties":{"cls":"styrofoam"},"geometry":{"type":"Point","coordinates":[127.685524,34.571936]}},{"type":"Feature","properties":{"cls":"styrofoam"},"geometry":{"type":"Point","coordinates":[127.685496,34.57187]}},{"type":"Feature","properties":{"cls":"styrofoam"},"geometry":{"type":"Point","coordinates":[127.685514,34.57192]}},{"type":"Feature","properties":{"cls":"styrofoam"},"geometry":{"type":"Point","coordinates":[127.685572,34.571867]}},{"type":"Feature","properties":{"cls":"styrofoam"},"geometry":{"type":"Point","coordinates":[127.685447,34.571871]}},{"type":"Feature","properties":{"cls":"styrofoam"},"geometry":{"type":"Point","coordinates":[127.685537,34.571953]}},{"type":"Feature","properties":{"cls":"styrofoam"},"geometry":{"type":"Point","coordinates":[127.685529,34.571949]}},{"type":"Feature","properties":{"cls":"styrofoam"},"geometry":{"type":"Point","coordinates":[127.685569,34.571973]}},{"type":"Feature","properties":{"cls":"styrofoam"},"geometry":{"type":"Point","coordinates":[127.685533,34.571963]}},{"type":"Feature","properties":{"cls":"styrofoam"},"geometry":{"type":"Point","coordinates":[127.685541,34.571946]}},{"type":"Feature","properties":{"cls":"styrofoam"},"geometry":{"type":"Point","coordinates":[127.685446,34.571911]}},{"type":"Feature","properties":{"cls":"styrofoam"},"geometry":{"type":"Point","coordinates":[127.685545,34.571981]}},{"type":"Feature","properties":{"cls":"styrofoam"},"geometry":{"type":"Point","coordinates":[127.685525,34.571922]}},{"type":"Feature","properties":{"cls":"styrofoam"},"geometry":{"type":"Point","coordinates":[127.685487,34.571853]}},{"type":"Feature","properties":{"cls":"styrofoam"},"geometry":{"type":"Point","coordinates":[127.685551,34.571958]}},{"type":"Feature","properties":{"cls":"styrofoam"},"geometry":{"type":"Point","coordinates":[127.685544,34.571903]}},{"type":"Feature","properties":{"cls":"styrofoam"},"geometry":{"type":"Point","coordinates":[127.685548,34.571948]}},{"type":"Feature","properties":{"cls":"styrofoam"},"geometry":{"type":"Point","coordinates":[127.68555,34.571941]}},{"type":"Feature","properties":{"cls":"styrofoam"},"geometry":{"type":"Point","coordinates":[127.685568,34.571918]}},{"type":"Feature","properties":{"cls":"styrofoam"},"geometry":{"type":"Point","coordinates":[127.685536,34.571981]}},{"type":"Feature","properties":{"cls":"rope"},"geometry":{"type":"Point","coordinates":[127.685516,34.571904]}},{"type":"Feature","properties":{"cls":"styrofoam"},"geometry":{"type":"Point","coordinates":[127.685722,34.571856]}},{"type":"Feature","properties":{"cls":"styrofoam"},"geometry":{"type":"Point","coordinates":[127.685644,34.571857]}},{"type":"Feature","properties":{"cls":"styrofoam"},"geometry":{"type":"Point","coordinates":[127.685395,34.571734]}},{"type":"Feature","properties":{"cls":"styrofoam"},"geometry":{"type":"Point","coordinates":[127.685442,34.57178]}},{"type":"Feature","properties":{"cls":"styrofoam"},"geometry":{"type":"Point","coordinates":[127.68542,34.571768]}},{"type":"Feature","properties":{"cls":"styrofoam"},"geometry":{"type":"Point","coordinates":[127.685426,34.571773]}},{"type":"Feature","properties":{"cls":"styrofoam"},"geometry":{"type":"Point","coordinates":[127.685436,34.571751]}},{"type":"Feature","properties":{"cls":"styrofoam"},"geometry":{"type":"Point","coordinates":[127.685429,34.571811]}},{"type":"Feature","properties":{"cls":"styrofoam"},"geometry":{"type":"Point","coordinates":[127.685426,34.571802]}},{"type":"Feature","properties":{"cls":"styrofoam"},"geometry":{"type":"Point","coordinates":[127.685419,34.571755]}},{"type":"Feature","properties":{"cls":"styrofoam"},"geometry":{"type":"Point","coordinates":[127.685422,34.571746]}},{"type":"Feature","properties":{"cls":"styrofoam"},"geometry":{"type":"Point","coordinates":[127.685418,34.571747]}},{"type":"Feature","properties":{"cls":"styrofoam"},"geometry":{"type":"Point","coordinates":[127.685442,34.571755]}},{"type":"Feature","properties":{"cls":"styrofoam"},"geometry":{"type":"Point","coordinates":[127.685406,34.571746]}},{"type":"Feature","properties":{"cls":"styrofoam"},"geometry":{"type":"Point","coordinates":[127.685409,34.571734]}},{"type":"Feature","properties":{"cls":"styrofoam"},"geometry":{"type":"Point","coordinates":[127.685418,34.571739]}},{"type":"Feature","properties":{"cls":"other_debris"},"geometry":{"type":"Point","coordinates":[127.685425,34.571783]}},{"type":"Feature","properties":{"cls":"styrofoam"},"geometry":{"type":"Point","coordinates":[127.685404,34.571736]}},{"type":"Feature","properties":{"cls":"styrofoam"},"geometry":{"type":"Point","coordinates":[127.685414,34.571763]}},{"type":"Feature","properties":{"cls":"styrofoam"},"geometry":{"type":"Point","coordinates":[127.685416,34.571735]}},{"type":"Feature","properties":{"cls":"styrofoam"},"geometry":{"type":"Point","coordinates":[127.685415,34.571751]}},{"type":"Feature","properties":{"cls":"styrofoam"},"geometry":{"type":"Point","coordinates":[127.685414,34.571744]}},{"type":"Feature","properties":{"cls":"styrofoam"},"geometry":{"type":"Point","coordinates":[127.685443,34.571781]}},{"type":"Feature","properties":{"cls":"styrofoam"},"geometry":{"type":"Point","coordinates":[127.685443,34.571754]}},{"type":"Feature","properties":{"cls":"styrofoam"},"geometry":{"type":"Point","coordinates":[127.685479,34.571859]}},{"type":"Feature","properties":{"cls":"styrofoam"},"geometry":{"type":"Point","coordinates":[127.685454,34.571806]}},{"type":"Feature","properties":{"cls":"styrofoam"},"geometry":{"type":"Point","coordinates":[127.685437,34.571751]}},{"type":"Feature","properties":{"cls":"styrofoam"},"geometry":{"type":"Point","coordinates":[127.685473,34.57183]}},{"type":"Feature","properties":{"cls":"styrofoam"},"geometry":{"type":"Point","coordinates":[127.685459,34.571773]}},{"type":"Feature","properties":{"cls":"styrofoam"},"geometry":{"type":"Point","coordinates":[127.685466,34.571849]}},{"type":"Feature","properties":{"cls":"styrofoam"},"geometry":{"type":"Point","coordinates":[127.685576,34.571743]}},{"type":"Feature","properties":{"cls":"styrofoam"},"geometry":{"type":"Point","coordinates":[127.685432,34.571809]}},{"type":"Feature","properties":{"cls":"styrofoam"},"geometry":{"type":"Point","coordinates":[127.68559,34.571767]}},{"type":"Feature","properties":{"cls":"styrofoam"},"geometry":{"type":"Point","coordinates":[127.685394,34.571733]}},{"type":"Feature","properties":{"cls":"styrofoam"},"geometry":{"type":"Point","coordinates":[127.685422,34.571701]}},{"type":"Feature","properties":{"cls":"styrofoam"},"geometry":{"type":"Point","coordinates":[127.685408,34.571699]}},{"type":"Feature","properties":{"cls":"styrofoam"},"geometry":{"type":"Point","coordinates":[127.685431,34.571725]}},{"type":"Feature","properties":{"cls":"styrofoam"},"geometry":{"type":"Point","coordinates":[127.685385,34.571725]}},{"type":"Feature","properties":{"cls":"styrofoam"},"geometry":{"type":"Point","coordinates":[127.685409,34.571734]}},{"type":"Feature","properties":{"cls":"styrofoam"},"geometry":{"type":"Point","coordinates":[127.685382,34.571704]}},{"type":"Feature","properties":{"cls":"styrofoam"},"geometry":{"type":"Point","coordinates":[127.685406,34.571728]}},{"type":"Feature","properties":{"cls":"styrofoam"},"geometry":{"type":"Point","coordinates":[127.685409,34.571694]}},{"type":"Feature","properties":{"cls":"styrofoam"},"geometry":{"type":"Point","coordinates":[127.685398,34.571728]}},{"type":"Feature","properties":{"cls":"styrofoam"},"geometry":{"type":"Point","coordinates":[127.685405,34.571736]}},{"type":"Feature","properties":{"cls":"styrofoam"},"geometry":{"type":"Point","coordinates":[127.685404,34.571733]}},{"type":"Feature","properties":{"cls":"styrofoam"},"geometry":{"type":"Point","coordinates":[127.685433,34.571726]}},{"type":"Feature","properties":{"cls":"styrofoam"},"geometry":{"type":"Point","coordinates":[127.685542,34.571711]}},{"type":"Feature","properties":{"cls":"styrofoam"},"geometry":{"type":"Point","coordinates":[127.685536,34.571715]}},{"type":"Feature","properties":{"cls":"styrofoam"},"geometry":{"type":"Point","coordinates":[127.685576,34.571741]}},{"type":"Feature","properties":{"cls":"styrofoam"},"geometry":{"type":"Point","coordinates":[127.68466,34.573387]}},{"type":"Feature","properties":{"cls":"styrofoam"},"geometry":{"type":"Point","coordinates":[127.68499,34.573324]}},{"type":"Feature","properties":{"cls":"styrofoam"},"geometry":{"type":"Point","coordinates":[127.685214,34.57327]}},{"type":"Feature","properties":{"cls":"styrofoam"},"geometry":{"type":"Point","coordinates":[127.685314,34.573274]}},{"type":"Feature","properties":{"cls":"styrofoam"},"geometry":{"type":"Point","coordinates":[127.6853,34.57327]}},{"type":"Feature","properties":{"cls":"buoy_blue"},"geometry":{"type":"Point","coordinates":[127.685281,34.573308]}},{"type":"Feature","properties":{"cls":"styrofoam"},"geometry":{"type":"Point","coordinates":[127.685571,34.573269]}},{"type":"Feature","properties":{"cls":"styrofoam"},"geometry":{"type":"Point","coordinates":[127.685525,34.573271]}},{"type":"Feature","properties":{"cls":"styrofoam"},"geometry":{"type":"Point","coordinates":[127.685457,34.573274]}},{"type":"Feature","properties":{"cls":"styrofoam"},"geometry":{"type":"Point","coordinates":[127.685516,34.573269]}},{"type":"Feature","properties":{"cls":"styrofoam"},"geometry":{"type":"Point","coordinates":[127.685472,34.573267]}},{"type":"Feature","properties":{"cls":"styrofoam"},"geometry":{"type":"Point","coordinates":[127.685574,34.573269]}},{"type":"Feature","properties":{"cls":"styrofoam"},"geometry":{"type":"Point","coordinates":[127.684912,34.573207]}},{"type":"Feature","properties":{"cls":"styrofoam"},"geometry":{"type":"Point","coordinates":[127.684876,34.573202]}},{"type":"Feature","properties":{"cls":"styrofoam"},"geometry":{"type":"Point","coordinates":[127.684987,34.5732]}},{"type":"Feature","properties":{"cls":"rope"},"geometry":{"type":"Point","coordinates":[127.684973,34.573202]}},{"type":"Feature","properties":{"cls":"styrofoam"},"geometry":{"type":"Point","coordinates":[127.684986,34.5732]}},{"type":"Feature","properties":{"cls":"styrofoam"},"geometry":{"type":"Point","coordinates":[127.685214,34.573248]}},{"type":"Feature","properties":{"cls":"styrofoam"},"geometry":{"type":"Point","coordinates":[127.685284,34.573216]}},{"type":"Feature","properties":{"cls":"styrofoam"},"geometry":{"type":"Point","coordinates":[127.685216,34.573266]}},{"type":"Feature","properties":{"cls":"styrofoam"},"geometry":{"type":"Point","coordinates":[127.685229,34.573255]}},{"type":"Feature","properties":{"cls":"styrofoam"},"geometry":{"type":"Point","coordinates":[127.685256,34.57319]}},{"type":"Feature","properties":{"cls":"styrofoam"},"geometry":{"type":"Point","coordinates":[127.685272,34.573255]}},{"type":"Feature","properties":{"cls":"styrofoam"},"geometry":{"type":"Point","coordinates":[127.685276,34.573231]}},{"type":"Feature","properties":{"cls":"styrofoam"},"geometry":{"type":"Point","coordinates":[127.685284,34.573225]}},{"type":"Feature","properties":{"cls":"styrofoam"},"geometry":{"type":"Point","coordinates":[127.685256,34.573229]}},{"type":"Feature","properties":{"cls":"styrofoam"},"geometry":{"type":"Point","coordinates":[127.685284,34.573216]}},{"type":"Feature","properties":{"cls":"styrofoam"},"geometry":{"type":"Point","coordinates":[127.685312,34.573274]}},{"type":"Feature","properties":{"cls":"styrofoam"},"geometry":{"type":"Point","coordinates":[127.685303,34.573267]}},{"type":"Feature","properties":{"cls":"styrofoam"},"geometry":{"type":"Point","coordinates":[127.685332,34.573225]}},{"type":"Feature","properties":{"cls":"styrofoam"},"geometry":{"type":"Point","coordinates":[127.685276,34.57323]}},{"type":"Feature","properties":{"cls":"styrofoam"},"geometry":{"type":"Point","coordinates":[127.685274,34.573258]}},{"type":"Feature","properties":{"cls":"styrofoam"},"geometry":{"type":"Point","coordinates":[127.685517,34.573267]}},{"type":"Feature","properties":{"cls":"styrofoam"},"geometry":{"type":"Point","coordinates":[127.68547,34.573263]}},{"type":"Feature","properties":{"cls":"styrofoam"},"geometry":{"type":"Point","coordinates":[127.685525,34.573167]}},{"type":"Feature","properties":{"cls":"buoy_blue"},"geometry":{"type":"Point","coordinates":[127.685479,34.573206]}},{"type":"Feature","properties":{"cls":"styrofoam"},"geometry":{"type":"Point","coordinates":[127.685512,34.573254]}},{"type":"Feature","properties":{"cls":"styrofoam"},"geometry":{"type":"Point","coordinates":[127.685487,34.573226]}},{"type":"Feature","properties":{"cls":"styrofoam"},"geometry":{"type":"Point","coordinates":[127.685565,34.573195]}},{"type":"Feature","properties":{"cls":"styrofoam"},"geometry":{"type":"Point","coordinates":[127.685571,34.573266]}},{"type":"Feature","properties":{"cls":"styrofoam"},"geometry":{"type":"Point","coordinates":[127.685525,34.573271]}},{"type":"Feature","properties":{"cls":"styrofoam"},"geometry":{"type":"Point","coordinates":[127.685554,34.573186]}},{"type":"Feature","properties":{"cls":"styrofoam"},"geometry":{"type":"Point","coordinates":[127.685486,34.573239]}},{"type":"Feature","properties":{"cls":"styrofoam"},"geometry":{"type":"Point","coordinates":[127.685557,34.573197]}},{"type":"Feature","properties":{"cls":"styrofoam"},"geometry":{"type":"Point","coordinates":[127.685456,34.573273]}},{"type":"Feature","properties":{"cls":"styrofoam"},"geometry":{"type":"Point","coordinates":[127.68551,34.573174]}},{"type":"Feature","properties":{"cls":"styrofoam"},"geometry":{"type":"Point","coordinates":[127.68551,34.57324]}},{"type":"Feature","properties":{"cls":"styrofoam"},"geometry":{"type":"Point","coordinates":[127.685433,34.573261]}},{"type":"Feature","properties":{"cls":"styrofoam"},"geometry":{"type":"Point","coordinates":[127.685565,34.573256]}},{"type":"Feature","properties":{"cls":"styrofoam"},"geometry":{"type":"Point","coordinates":[127.685493,34.573271]}},{"type":"Feature","properties":{"cls":"styrofoam"},"geometry":{"type":"Point","coordinates":[127.685489,34.573214]}},{"type":"Feature","properties":{"cls":"styrofoam"},"geometry":{"type":"Point","coordinates":[127.685572,34.573203]}},{"type":"Feature","properties":{"cls":"styrofoam"},"geometry":{"type":"Point","coordinates":[127.685503,34.573275]}},{"type":"Feature","properties":{"cls":"styrofoam"},"geometry":{"type":"Point","coordinates":[127.685516,34.573184]}},{"type":"Feature","properties":{"cls":"styrofoam"},"geometry":{"type":"Point","coordinates":[127.685574,34.573214]}},{"type":"Feature","properties":{"cls":"styrofoam"},"geometry":{"type":"Point","coordinates":[127.685495,34.573234]}},{"type":"Feature","properties":{"cls":"styrofoam"},"geometry":{"type":"Point","coordinates":[127.685615,34.573249]}},{"type":"Feature","properties":{"cls":"styrofoam"},"geometry":{"type":"Point","coordinates":[127.685683,34.573171]}},{"type":"Feature","properties":{"cls":"styrofoam"},"geometry":{"type":"Point","coordinates":[127.685644,34.573247]}},{"type":"Feature","properties":{"cls":"styrofoam"},"geometry":{"type":"Point","coordinates":[127.685605,34.573252]}},{"type":"Feature","properties":{"cls":"styrofoam"},"geometry":{"type":"Point","coordinates":[127.685634,34.573225]}},{"type":"Feature","properties":{"cls":"styrofoam"},"geometry":{"type":"Point","coordinates":[127.685583,34.573243]}},{"type":"Feature","properties":{"cls":"styrofoam"},"geometry":{"type":"Point","coordinates":[127.685669,34.573156]}},{"type":"Feature","properties":{"cls":"styrofoam"},"geometry":{"type":"Point","coordinates":[127.685597,34.573246]}},{"type":"Feature","properties":{"cls":"styrofoam"},"geometry":{"type":"Point","coordinates":[127.685629,34.573244]}},{"type":"Feature","properties":{"cls":"styrofoam"},"geometry":{"type":"Point","coordinates":[127.685607,34.57324]}},{"type":"Feature","properties":{"cls":"styrofoam"},"geometry":{"type":"Point","coordinates":[127.685575,34.573268]}},{"type":"Feature","properties":{"cls":"styrofoam"},"geometry":{"type":"Point","coordinates":[127.685662,34.573191]}},{"type":"Feature","properties":{"cls":"styrofoam"},"geometry":{"type":"Point","coordinates":[127.685565,34.573195]}},{"type":"Feature","properties":{"cls":"styrofoam"},"geometry":{"type":"Point","coordinates":[127.685588,34.573253]}},{"type":"Feature","properties":{"cls":"styrofoam"},"geometry":{"type":"Point","coordinates":[127.685618,34.573239]}},{"type":"Feature","properties":{"cls":"styrofoam"},"geometry":{"type":"Point","coordinates":[127.68561,34.573254]}},{"type":"Feature","properties":{"cls":"styrofoam"},"geometry":{"type":"Point","coordinates":[127.685627,34.573255]}},{"type":"Feature","properties":{"cls":"styrofoam"},"geometry":{"type":"Point","coordinates":[127.68562,34.573233]}},{"type":"Feature","properties":{"cls":"styrofoam"},"geometry":{"type":"Point","coordinates":[127.685593,34.57326]}},{"type":"Feature","properties":{"cls":"styrofoam"},"geometry":{"type":"Point","coordinates":[127.685622,34.573166]}},{"type":"Feature","properties":{"cls":"styrofoam"},"geometry":{"type":"Point","coordinates":[127.685617,34.573182]}},{"type":"Feature","properties":{"cls":"styrofoam"},"geometry":{"type":"Point","coordinates":[127.685599,34.573266]}},{"type":"Feature","properties":{"cls":"styrofoam"},"geometry":{"type":"Point","coordinates":[127.685668,34.573183]}},{"type":"Feature","properties":{"cls":"styrofoam"},"geometry":{"type":"Point","coordinates":[127.685634,34.573237]}},{"type":"Feature","properties":{"cls":"styrofoam"},"geometry":{"type":"Point","coordinates":[127.685619,34.573213]}},{"type":"Feature","properties":{"cls":"styrofoam"},"geometry":{"type":"Point","coordinates":[127.685601,34.573239]}},{"type":"Feature","properties":{"cls":"styrofoam"},"geometry":{"type":"Point","coordinates":[127.685581,34.573211]}},{"type":"Feature","properties":{"cls":"styrofoam"},"geometry":{"type":"Point","coordinates":[127.685655,34.573219]}},{"type":"Feature","properties":{"cls":"styrofoam"},"geometry":{"type":"Point","coordinates":[127.685573,34.573252]}},{"type":"Feature","properties":{"cls":"styrofoam"},"geometry":{"type":"Point","coordinates":[127.685666,34.573231]}},{"type":"Feature","properties":{"cls":"buoy_blue"},"geometry":{"type":"Point","coordinates":[127.685644,34.573212]}},{"type":"Feature","properties":{"cls":"styrofoam"},"geometry":{"type":"Point","coordinates":[127.685597,34.573253]}},{"type":"Feature","properties":{"cls":"styrofoam"},"geometry":{"type":"Point","coordinates":[127.685633,34.573163]}},{"type":"Feature","properties":{"cls":"styrofoam"},"geometry":{"type":"Point","coordinates":[127.685628,34.573214]}},{"type":"Feature","properties":{"cls":"styrofoam"},"geometry":{"type":"Point","coordinates":[127.685644,34.573229]}},{"type":"Feature","properties":{"cls":"styrofoam"},"geometry":{"type":"Point","coordinates":[127.685622,34.573255]}},{"type":"Feature","properties":{"cls":"styrofoam"},"geometry":{"type":"Point","coordinates":[127.685594,34.573236]}},{"type":"Feature","properties":{"cls":"styrofoam"},"geometry":{"type":"Point","coordinates":[127.685631,34.573194]}},{"type":"Feature","properties":{"cls":"styrofoam"},"geometry":{"type":"Point","coordinates":[127.685618,34.573257]}},{"type":"Feature","properties":{"cls":"styrofoam"},"geometry":{"type":"Point","coordinates":[127.685624,34.573228]}},{"type":"Feature","properties":{"cls":"styrofoam"},"geometry":{"type":"Point","coordinates":[127.685596,34.573229]}},{"type":"Feature","properties":{"cls":"styrofoam"},"geometry":{"type":"Point","coordinates":[127.685659,34.573223]}},{"type":"Feature","properties":{"cls":"other_debris"},"geometry":{"type":"Point","coordinates":[127.685447,34.573115]}},{"type":"Feature","properties":{"cls":"styrofoam"},"geometry":{"type":"Point","coordinates":[127.685654,34.573118]}},{"type":"Feature","properties":{"cls":"styrofoam"},"geometry":{"type":"Point","coordinates":[127.68567,34.573127]}},{"type":"Feature","properties":{"cls":"styrofoam"},"geometry":{"type":"Point","coordinates":[127.685666,34.573153]}},{"type":"Feature","properties":{"cls":"styrofoam"},"geometry":{"type":"Point","coordinates":[127.68569,34.573087]}},{"type":"Feature","properties":{"cls":"styrofoam"},"geometry":{"type":"Point","coordinates":[127.68568,34.573053]}},{"type":"Feature","properties":{"cls":"styrofoam"},"geometry":{"type":"Point","coordinates":[127.685666,34.573097]}},{"type":"Feature","properties":{"cls":"styrofoam"},"geometry":{"type":"Point","coordinates":[127.685679,34.573084]}},{"type":"Feature","properties":{"cls":"styrofoam"},"geometry":{"type":"Point","coordinates":[127.685707,34.573132]}},{"type":"Feature","properties":{"cls":"styrofoam"},"geometry":{"type":"Point","coordinates":[127.685683,34.573043]}},{"type":"Feature","properties":{"cls":"styrofoam"},"geometry":{"type":"Point","coordinates":[127.683641,34.574403]}},{"type":"Feature","properties":{"cls":"styrofoam"},"geometry":{"type":"Point","coordinates":[127.683699,34.574437]}},{"type":"Feature","properties":{"cls":"styrofoam"},"geometry":{"type":"Point","coordinates":[127.683627,34.574406]}},{"type":"Feature","properties":{"cls":"styrofoam"},"geometry":{"type":"Point","coordinates":[127.683685,34.57442]}},{"type":"Feature","properties":{"cls":"styrofoam"},"geometry":{"type":"Point","coordinates":[127.683701,34.574396]}},{"type":"Feature","properties":{"cls":"styrofoam"},"geometry":{"type":"Point","coordinates":[127.683668,34.574413]}},{"type":"Feature","properties":{"cls":"styrofoam"},"geometry":{"type":"Point","coordinates":[127.683699,34.574423]}},{"type":"Feature","properties":{"cls":"styrofoam"},"geometry":{"type":"Point","coordinates":[127.683724,34.574415]}},{"type":"Feature","properties":{"cls":"styrofoam"},"geometry":{"type":"Point","coordinates":[127.683725,34.574424]}},{"type":"Feature","properties":{"cls":"styrofoam"},"geometry":{"type":"Point","coordinates":[127.683744,34.574409]}},{"type":"Feature","properties":{"cls":"styrofoam"},"geometry":{"type":"Point","coordinates":[127.683087,34.574377]}},{"type":"Feature","properties":{"cls":"styrofoam"},"geometry":{"type":"Point","coordinates":[127.683125,34.574344]}},{"type":"Feature","properties":{"cls":"styrofoam"},"geometry":{"type":"Point","coordinates":[127.683273,34.574293]}},{"type":"Feature","properties":{"cls":"styrofoam"},"geometry":{"type":"Point","coordinates":[127.6834,34.574333]}},{"type":"Feature","properties":{"cls":"styrofoam"},"geometry":{"type":"Point","coordinates":[127.683419,34.574282]}},{"type":"Feature","properties":{"cls":"styrofoam"},"geometry":{"type":"Point","coordinates":[127.683574,34.574372]}},{"type":"Feature","properties":{"cls":"styrofoam"},"geometry":{"type":"Point","coordinates":[127.683553,34.574364]}},{"type":"Feature","properties":{"cls":"styrofoam"},"geometry":{"type":"Point","coordinates":[127.683422,34.574283]}},{"type":"Feature","properties":{"cls":"styrofoam"},"geometry":{"type":"Point","coordinates":[127.683536,34.574359]}},{"type":"Feature","properties":{"cls":"styrofoam"},"geometry":{"type":"Point","coordinates":[127.683491,34.574295]}},{"type":"Feature","properties":{"cls":"styrofoam"},"geometry":{"type":"Point","coordinates":[127.68355,34.574357]}},{"type":"Feature","properties":{"cls":"buoy_blue"},"geometry":{"type":"Point","coordinates":[127.683529,34.574306]}},{"type":"Feature","properties":{"cls":"styrofoam"},"geometry":{"type":"Point","coordinates":[127.683546,34.574361]}},{"type":"Feature","properties":{"cls":"styrofoam"},"geometry":{"type":"Point","coordinates":[127.683545,34.574352]}},{"type":"Feature","properties":{"cls":"styrofoam"},"geometry":{"type":"Point","coordinates":[127.683529,34.57436]}},{"type":"Feature","properties":{"cls":"styrofoam"},"geometry":{"type":"Point","coordinates":[127.683544,34.574357]}},{"type":"Feature","properties":{"cls":"styrofoam"},"geometry":{"type":"Point","coordinates":[127.683422,34.574277]}},{"type":"Feature","properties":{"cls":"rope"},"geometry":{"type":"Point","coordinates":[127.683474,34.574326]}},{"type":"Feature","properties":{"cls":"rope"},"geometry":{"type":"Point","coordinates":[127.683446,34.574279]}},{"type":"Feature","properties":{"cls":"styrofoam"},"geometry":{"type":"Point","coordinates":[127.683641,34.574404]}},{"type":"Feature","properties":{"cls":"styrofoam"},"geometry":{"type":"Point","coordinates":[127.683575,34.57437]}},{"type":"Feature","properties":{"cls":"styrofoam"},"geometry":{"type":"Point","coordinates":[127.683628,34.574356]}},{"type":"Feature","properties":{"cls":"styrofoam"},"geometry":{"type":"Point","coordinates":[127.683624,34.574404]}},{"type":"Feature","properties":{"cls":"styrofoam"},"geometry":{"type":"Point","coordinates":[127.6837,34.574395]}},{"type":"Feature","properties":{"cls":"styrofoam"},"geometry":{"type":"Point","coordinates":[127.683597,34.574369]}},{"type":"Feature","properties":{"cls":"buoy_bottle"},"geometry":{"type":"Point","coordinates":[127.683714,34.574311]}},{"type":"Feature","properties":{"cls":"buoy_bottle"},"geometry":{"type":"Point","coordinates":[127.683684,34.574279]}},{"type":"Feature","properties":{"cls":"buoy_bottle"},"geometry":{"type":"Point","coordinates":[127.683618,34.574281]}},{"type":"Feature","properties":{"cls":"styrofoam"},"geometry":{"type":"Point","coordinates":[127.683606,34.574358]}},{"type":"Feature","properties":{"cls":"buoy_bottle"},"geometry":{"type":"Point","coordinates":[127.683626,34.57428]}},{"type":"Feature","properties":{"cls":"buoy_bottle"},"geometry":{"type":"Point","coordinates":[127.683714,34.574292]}},{"type":"Feature","properties":{"cls":"other_debris"},"geometry":{"type":"Point","coordinates":[127.683578,34.574401]}},{"type":"Feature","properties":{"cls":"buoy_bottle"},"geometry":{"type":"Point","coordinates":[127.683711,34.574306]}},{"type":"Feature","properties":{"cls":"styrofoam"},"geometry":{"type":"Point","coordinates":[127.683668,34.574354]}},{"type":"Feature","properties":{"cls":"styrofoam"},"geometry":{"type":"Point","coordinates":[127.683655,34.574363]}},{"type":"Feature","properties":{"cls":"rope"},"geometry":{"type":"Point","coordinates":[127.683696,34.57428]}},{"type":"Feature","properties":{"cls":"styrofoam"},"geometry":{"type":"Point","coordinates":[127.683824,34.574287]}},{"type":"Feature","properties":{"cls":"styrofoam"},"geometry":{"type":"Point","coordinates":[127.683776,34.574328]}},{"type":"Feature","properties":{"cls":"styrofoam"},"geometry":{"type":"Point","coordinates":[127.683804,34.574321]}},{"type":"Feature","properties":{"cls":"styrofoam"},"geometry":{"type":"Point","coordinates":[127.683767,34.574306]}},{"type":"Feature","properties":{"cls":"styrofoam"},"geometry":{"type":"Point","coordinates":[127.68386,34.574291]}},{"type":"Feature","properties":{"cls":"styrofoam"},"geometry":{"type":"Point","coordinates":[127.683743,34.574385]}},{"type":"Feature","properties":{"cls":"styrofoam"},"geometry":{"type":"Point","coordinates":[127.683794,34.57432]}},{"type":"Feature","properties":{"cls":"styrofoam"},"geometry":{"type":"Point","coordinates":[127.683773,34.574298]}},{"type":"Feature","properties":{"cls":"styrofoam"},"geometry":{"type":"Point","coordinates":[127.683851,34.574295]}},{"type":"Feature","properties":{"cls":"styrofoam"},"geometry":{"type":"Point","coordinates":[127.683793,34.574344]}},{"type":"Feature","properties":{"cls":"styrofoam"},"geometry":{"type":"Point","coordinates":[127.683837,34.574287]}},{"type":"Feature","properties":{"cls":"styrofoam"},"geometry":{"type":"Point","coordinates":[127.683857,34.574279]}},{"type":"Feature","properties":{"cls":"styrofoam"},"geometry":{"type":"Point","coordinates":[127.683785,34.574352]}},{"type":"Feature","properties":{"cls":"styrofoam"},"geometry":{"type":"Point","coordinates":[127.683782,34.574339]}},{"type":"Feature","properties":{"cls":"styrofoam"},"geometry":{"type":"Point","coordinates":[127.683784,34.574347]}},{"type":"Feature","properties":{"cls":"styrofoam"},"geometry":{"type":"Point","coordinates":[127.683826,34.57434]}},{"type":"Feature","properties":{"cls":"styrofoam"},"geometry":{"type":"Point","coordinates":[127.6838,34.574358]}},{"type":"Feature","properties":{"cls":"styrofoam"},"geometry":{"type":"Point","coordinates":[127.683865,34.574297]}},{"type":"Feature","properties":{"cls":"styrofoam"},"geometry":{"type":"Point","coordinates":[127.683811,34.574291]}},{"type":"Feature","properties":{"cls":"styrofoam"},"geometry":{"type":"Point","coordinates":[127.683811,34.574314]}},{"type":"Feature","properties":{"cls":"styrofoam"},"geometry":{"type":"Point","coordinates":[127.683823,34.57431]}},{"type":"Feature","properties":{"cls":"styrofoam"},"geometry":{"type":"Point","coordinates":[127.683825,34.574301]}},{"type":"Feature","properties":{"cls":"styrofoam"},"geometry":{"type":"Point","coordinates":[127.683817,34.574323]}},{"type":"Feature","properties":{"cls":"styrofoam"},"geometry":{"type":"Point","coordinates":[127.683809,34.574286]}},{"type":"Feature","properties":{"cls":"styrofoam"},"geometry":{"type":"Point","coordinates":[127.68386,34.5743]}},{"type":"Feature","properties":{"cls":"styrofoam"},"geometry":{"type":"Point","coordinates":[127.6838,34.574349]}},{"type":"Feature","properties":{"cls":"styrofoam"},"geometry":{"type":"Point","coordinates":[127.683764,34.574357]}},{"type":"Feature","properties":{"cls":"styrofoam"},"geometry":{"type":"Point","coordinates":[127.68379,34.574334]}},{"type":"Feature","properties":{"cls":"styrofoam"},"geometry":{"type":"Point","coordinates":[127.683829,34.574297]}},{"type":"Feature","properties":{"cls":"styrofoam"},"geometry":{"type":"Point","coordinates":[127.683869,34.574289]}},{"type":"Feature","properties":{"cls":"buoy_bottle"},"geometry":{"type":"Point","coordinates":[127.683759,34.574395]}},{"type":"Feature","properties":{"cls":"styrofoam"},"geometry":{"type":"Point","coordinates":[127.683836,34.574296]}},{"type":"Feature","properties":{"cls":"styrofoam"},"geometry":{"type":"Point","coordinates":[127.683808,34.574303]}},{"type":"Feature","properties":{"cls":"styrofoam"},"geometry":{"type":"Point","coordinates":[127.683749,34.574322]}},{"type":"Feature","properties":{"cls":"styrofoam"},"geometry":{"type":"Point","coordinates":[127.683827,34.574276]}},{"type":"Feature","properties":{"cls":"styrofoam"},"geometry":{"type":"Point","coordinates":[127.683796,34.574337]}},{"type":"Feature","properties":{"cls":"styrofoam"},"geometry":{"type":"Point","coordinates":[127.68387,34.574298]}},{"type":"Feature","properties":{"cls":"styrofoam"},"geometry":{"type":"Point","coordinates":[127.683761,34.574322]}},{"type":"Feature","properties":{"cls":"styrofoam"},"geometry":{"type":"Point","coordinates":[127.683857,34.574304]}},{"type":"Feature","properties":{"cls":"styrofoam"},"geometry":{"type":"Point","coordinates":[127.683861,34.574326]}},{"type":"Feature","properties":{"cls":"styrofoam"},"geometry":{"type":"Point","coordinates":[127.683862,34.574281]}},{"type":"Feature","properties":{"cls":"styrofoam"},"geometry":{"type":"Point","coordinates":[127.683826,34.574335]}},{"type":"Feature","properties":{"cls":"styrofoam"},"geometry":{"type":"Point","coordinates":[127.683818,34.574339]}},{"type":"Feature","properties":{"cls":"styrofoam"},"geometry":{"type":"Point","coordinates":[127.683832,34.574314]}},{"type":"Feature","properties":{"cls":"styrofoam"},"geometry":{"type":"Point","coordinates":[127.683834,34.574277]}},{"type":"Feature","properties":{"cls":"buoy_bottle"},"geometry":{"type":"Point","coordinates":[127.683714,34.574292]}},{"type":"Feature","properties":{"cls":"styrofoam"},"geometry":{"type":"Point","coordinates":[127.683795,34.574381]}},{"type":"Feature","properties":{"cls":"styrofoam"},"geometry":{"type":"Point","coordinates":[127.683842,34.574292]}},{"type":"Feature","properties":{"cls":"styrofoam"},"geometry":{"type":"Point","coordinates":[127.683723,34.574369]}},{"type":"Feature","properties":{"cls":"styrofoam"},"geometry":{"type":"Point","coordinates":[127.68384,34.574279]}},{"type":"Feature","properties":{"cls":"styrofoam"},"geometry":{"type":"Point","coordinates":[127.683845,34.574275]}},{"type":"Feature","properties":{"cls":"styrofoam"},"geometry":{"type":"Point","coordinates":[127.683806,34.574335]}},{"type":"Feature","properties":{"cls":"styrofoam"},"geometry":{"type":"Point","coordinates":[127.683844,34.574296]}},{"type":"Feature","properties":{"cls":"other_debris"},"geometry":{"type":"Point","coordinates":[127.683778,34.574349]}},{"type":"Feature","properties":{"cls":"rope"},"geometry":{"type":"Point","coordinates":[127.68383,34.574319]}},{"type":"Feature","properties":{"cls":"styrofoam"},"geometry":{"type":"Point","coordinates":[127.683866,34.574281]}},{"type":"Feature","properties":{"cls":"styrofoam"},"geometry":{"type":"Point","coordinates":[127.683763,34.574369]}},{"type":"Feature","properties":{"cls":"styrofoam"},"geometry":{"type":"Point","coordinates":[127.683812,34.574305]}},{"type":"Feature","properties":{"cls":"styrofoam"},"geometry":{"type":"Point","coordinates":[127.683759,34.574379]}},{"type":"Feature","properties":{"cls":"styrofoam"},"geometry":{"type":"Point","coordinates":[127.683846,34.574282]}},{"type":"Feature","properties":{"cls":"styrofoam"},"geometry":{"type":"Point","coordinates":[127.68387,34.574293]}},{"type":"Feature","properties":{"cls":"buoy_bottle"},"geometry":{"type":"Point","coordinates":[127.683715,34.574311]}},{"type":"Feature","properties":{"cls":"styrofoam"},"geometry":{"type":"Point","coordinates":[127.683832,34.574283]}},{"type":"Feature","properties":{"cls":"styrofoam"},"geometry":{"type":"Point","coordinates":[127.683753,34.574376]}},{"type":"Feature","properties":{"cls":"styrofoam"},"geometry":{"type":"Point","coordinates":[127.683824,34.57428]}},{"type":"Feature","properties":{"cls":"styrofoam"},"geometry":{"type":"Point","coordinates":[127.683866,34.574284]}},{"type":"Feature","properties":{"cls":"styrofoam"},"geometry":{"type":"Point","coordinates":[127.68386,34.57429]}},{"type":"Feature","properties":{"cls":"styrofoam"},"geometry":{"type":"Point","coordinates":[127.683858,34.574279]}},{"type":"Feature","properties":{"cls":"styrofoam"},"geometry":{"type":"Point","coordinates":[127.683865,34.574297]}},{"type":"Feature","properties":{"cls":"styrofoam"},"geometry":{"type":"Point","coordinates":[127.683878,34.574275]}},{"type":"Feature","properties":{"cls":"styrofoam"},"geometry":{"type":"Point","coordinates":[127.683871,34.574297]}},{"type":"Feature","properties":{"cls":"styrofoam"},"geometry":{"type":"Point","coordinates":[127.683869,34.57429]}},{"type":"Feature","properties":{"cls":"styrofoam"},"geometry":{"type":"Point","coordinates":[127.683874,34.574293]}},{"type":"Feature","properties":{"cls":"styrofoam"},"geometry":{"type":"Point","coordinates":[127.68386,34.5743]}},{"type":"Feature","properties":{"cls":"styrofoam"},"geometry":{"type":"Point","coordinates":[127.683874,34.574301]}},{"type":"Feature","properties":{"cls":"styrofoam"},"geometry":{"type":"Point","coordinates":[127.683857,34.574304]}},{"type":"Feature","properties":{"cls":"styrofoam"},"geometry":{"type":"Point","coordinates":[127.683862,34.574325]}},{"type":"Feature","properties":{"cls":"styrofoam"},"geometry":{"type":"Point","coordinates":[127.683862,34.574282]}},{"type":"Feature","properties":{"cls":"styrofoam"},"geometry":{"type":"Point","coordinates":[127.683883,34.574297]}},{"type":"Feature","properties":{"cls":"styrofoam"},"geometry":{"type":"Point","coordinates":[127.683856,34.574296]}},{"type":"Feature","properties":{"cls":"styrofoam"},"geometry":{"type":"Point","coordinates":[127.683867,34.574281]}},{"type":"Feature","properties":{"cls":"styrofoam"},"geometry":{"type":"Point","coordinates":[127.683856,34.574297]}},{"type":"Feature","properties":{"cls":"styrofoam"},"geometry":{"type":"Point","coordinates":[127.684003,34.574396]}},{"type":"Feature","properties":{"cls":"styrofoam"},"geometry":{"type":"Point","coordinates":[127.683865,34.574276]}},{"type":"Feature","properties":{"cls":"styrofoam"},"geometry":{"type":"Point","coordinates":[127.683866,34.574285]}},{"type":"Feature","properties":{"cls":"styrofoam"},"geometry":{"type":"Point","coordinates":[127.683375,34.574261]}},{"type":"Feature","properties":{"cls":"styrofoam"},"geometry":{"type":"Point","coordinates":[127.683386,34.57427]}},{"type":"Feature","properties":{"cls":"styrofoam"},"geometry":{"type":"Point","coordinates":[127.683419,34.574282]}},{"type":"Feature","properties":{"cls":"styrofoam"},"geometry":{"type":"Point","coordinates":[127.683418,34.574265]}},{"type":"Feature","properties":{"cls":"styrofoam"},"geometry":{"type":"Point","coordinates":[127.683504,34.574249]}},{"type":"Feature","properties":{"cls":"styrofoam"},"geometry":{"type":"Point","coordinates":[127.683422,34.574283]}},{"type":"Feature","properties":{"cls":"styrofoam"},"geometry":{"type":"Point","coordinates":[127.683537,34.574261]}},{"type":"Feature","properties":{"cls":"styrofoam"},"geometry":{"type":"Point","coordinates":[127.683525,34.574266]}},{"type":"Feature","properties":{"cls":"styrofoam"},"geometry":{"type":"Point","coordinates":[127.683526,34.574258]}},{"type":"Feature","properties":{"cls":"styrofoam"},"geometry":{"type":"Point","coordinates":[127.683428,34.574268]}},{"type":"Feature","properties":{"cls":"styrofoam"},"geometry":{"type":"Point","coordinates":[127.683587,34.574227]}},{"type":"Feature","properties":{"cls":"buoy_bottle"},"geometry":{"type":"Point","coordinates":[127.683604,34.574229]}},{"type":"Feature","properties":{"cls":"buoy_bottle"},"geometry":{"type":"Point","coordinates":[127.683621,34.574249]}},{"type":"Feature","properties":{"cls":"buoy_bottle"},"geometry":{"type":"Point","coordinates":[127.683613,34.574226]}},{"type":"Feature","properties":{"cls":"buoy_bottle"},"geometry":{"type":"Point","coordinates":[127.683641,34.57426]}},{"type":"Feature","properties":{"cls":"buoy_bottle"},"geometry":{"type":"Point","coordinates":[127.683617,34.574241]}},{"type":"Feature","properties":{"cls":"buoy_bottle"},"geometry":{"type":"Point","coordinates":[127.683626,34.57428]}},{"type":"Feature","properties":{"cls":"buoy_bottle"},"geometry":{"type":"Point","coordinates":[127.683632,34.574271]}},{"type":"Feature","properties":{"cls":"buoy_bottle"},"geometry":{"type":"Point","coordinates":[127.683714,34.574236]}},{"type":"Feature","properties":{"cls":"buoy_bottle"},"geometry":{"type":"Point","coordinates":[127.683692,34.574247]}},{"type":"Feature","properties":{"cls":"buoy_bottle"},"geometry":{"type":"Point","coordinates":[127.683618,34.574258]}},{"type":"Feature","properties":{"cls":"styrofoam"},"geometry":{"type":"Point","coordinates":[127.683593,34.574252]}},{"type":"Feature","properties":{"cls":"buoy_bottle"},"geometry":{"type":"Point","coordinates":[127.68363,34.57426]}},{"type":"Feature","properties":{"cls":"buoy_bottle"},"geometry":{"type":"Point","coordinates":[127.683633,34.574249]}},{"type":"Feature","properties":{"cls":"buoy_bottle"},"geometry":{"type":"Point","coordinates":[127.683684,34.574278]}},{"type":"Feature","properties":{"cls":"buoy_bottle"},"geometry":{"type":"Point","coordinates":[127.683616,34.57427]}},{"type":"Feature","properties":{"cls":"buoy_bottle"},"geometry":{"type":"Point","coordinates":[127.683633,34.574244]}},{"type":"Feature","properties":{"cls":"buoy_bottle"},"geometry":{"type":"Point","coordinates":[127.683667,34.574264]}},{"type":"Feature","properties":{"cls":"buoy_bottle"},"geometry":{"type":"Point","coordinates":[127.683622,34.574224]}},{"type":"Feature","properties":{"cls":"buoy_bottle"},"geometry":{"type":"Point","coordinates":[127.68366,34.574259]}},{"type":"Feature","properties":{"cls":"buoy_bottle"},"geometry":{"type":"Point","coordinates":[127.683623,34.574174]}},{"type":"Feature","properties":{"cls":"buoy_bottle"},"geometry":{"type":"Point","coordinates":[127.68362,34.574274]}},{"type":"Feature","properties":{"cls":"buoy_bottle"},"geometry":{"type":"Point","coordinates":[127.683618,34.574282]}},{"type":"Feature","properties":{"cls":"styrofoam"},"geometry":{"type":"Point","coordinates":[127.683601,34.574235]}},{"type":"Feature","properties":{"cls":"buoy_bottle"},"geometry":{"type":"Point","coordinates":[127.683626,34.574227]}},{"type":"Feature","properties":{"cls":"buoy_bottle"},"geometry":{"type":"Point","coordinates":[127.683615,34.574235]}},{"type":"Feature","properties":{"cls":"buoy_bottle"},"geometry":{"type":"Point","coordinates":[127.683609,34.57422]}},{"type":"Feature","properties":{"cls":"buoy_bottle"},"geometry":{"type":"Point","coordinates":[127.683613,34.574222]}},{"type":"Feature","properties":{"cls":"buoy_bottle"},"geometry":{"type":"Point","coordinates":[127.683662,34.574271]}},{"type":"Feature","properties":{"cls":"buoy_bottle"},"geometry":{"type":"Point","coordinates":[127.683612,34.574268]}},{"type":"Feature","properties":{"cls":"buoy_bottle"},"geometry":{"type":"Point","coordinates":[127.68363,34.574266]}},{"type":"Feature","properties":{"cls":"buoy_bottle"},"geometry":{"type":"Point","coordinates":[127.683625,34.574247]}},{"type":"Feature","properties":{"cls":"buoy_bottle"},"geometry":{"type":"Point","coordinates":[127.683623,34.574215]}},{"type":"Feature","properties":{"cls":"buoy_bottle"},"geometry":{"type":"Point","coordinates":[127.683716,34.574248]}},{"type":"Feature","properties":{"cls":"buoy_bottle"},"geometry":{"type":"Point","coordinates":[127.683611,34.574232]}},{"type":"Feature","properties":{"cls":"buoy_bottle"},"geometry":{"type":"Point","coordinates":[127.683623,34.574263]}},{"type":"Feature","properties":{"cls":"buoy_bottle"},"geometry":{"type":"Point","coordinates":[127.683697,34.574256]}},{"type":"Feature","properties":{"cls":"buoy_bottle"},"geometry":{"type":"Point","coordinates":[127.683637,34.574258]}},{"type":"Feature","properties":{"cls":"buoy_bottle"},"geometry":{"type":"Point","coordinates":[127.68371,34.57427]}},{"type":"Feature","properties":{"cls":"buoy_bottle"},"geometry":{"type":"Point","coordinates":[127.683604,34.574238]}},{"type":"Feature","properties":{"cls":"styrofoam"},"geometry":{"type":"Point","coordinates":[127.683596,34.574264]}},{"type":"Feature","properties":{"cls":"buoy_bottle"},"geometry":{"type":"Point","coordinates":[127.683652,34.574266]}},{"type":"Feature","properties":{"cls":"styrofoam"},"geometry":{"type":"Point","coordinates":[127.68364,34.574273]}},{"type":"Feature","properties":{"cls":"styrofoam"},"geometry":{"type":"Point","coordinates":[127.683661,34.574271]}},{"type":"Feature","properties":{"cls":"plastic_box"},"geometry":{"type":"Point","coordinates":[127.683615,34.574209]}},{"type":"Feature","properties":{"cls":"rope"},"geometry":{"type":"Point","coordinates":[127.683618,34.574284]}},{"type":"Feature","properties":{"cls":"rope"},"geometry":{"type":"Point","coordinates":[127.683686,34.574253]}},{"type":"Feature","properties":{"cls":"styrofoam"},"geometry":{"type":"Point","coordinates":[127.683863,34.574184]}},{"type":"Feature","properties":{"cls":"styrofoam"},"geometry":{"type":"Point","coordinates":[127.683858,34.574277]}},{"type":"Feature","properties":{"cls":"buoy_bottle"},"geometry":{"type":"Point","coordinates":[127.683746,34.57427]}},{"type":"Feature","properties":{"cls":"styrofoam"},"geometry":{"type":"Point","coordinates":[127.683804,34.574262]}},{"type":"Feature","properties":{"cls":"styrofoam"},"geometry":{"type":"Point","coordinates":[127.683847,34.574271]}},{"type":"Feature","properties":{"cls":"buoy_bottle"},"geometry":{"type":"Point","coordinates":[127.683765,34.574221]}},{"type":"Feature","properties":{"cls":"styrofoam"},"geometry":{"type":"Point","coordinates":[127.683859,34.574265]}},{"type":"Feature","properties":{"cls":"buoy_bottle"},"geometry":{"type":"Point","coordinates":[127.683771,34.574263]}},{"type":"Feature","properties":{"cls":"other_debris"},"geometry":{"type":"Point","coordinates":[127.683786,34.57417]}},{"type":"Feature","properties":{"cls":"styrofoam"},"geometry":{"type":"Point","coordinates":[127.683822,34.574284]}},{"type":"Feature","properties":{"cls":"buoy_bottle"},"geometry":{"type":"Point","coordinates":[127.683789,34.574264]}},{"type":"Feature","properties":{"cls":"styrofoam"},"geometry":{"type":"Point","coordinates":[127.683867,34.574252]}},{"type":"Feature","properties":{"cls":"styrofoam"},"geometry":{"type":"Point","coordinates":[127.683849,34.574234]}},{"type":"Feature","properties":{"cls":"styrofoam"},"geometry":{"type":"Point","coordinates":[127.683847,34.574192]}},{"type":"Feature","properties":{"cls":"styrofoam"},"geometry":{"type":"Point","coordinates":[127.683864,34.574165]}},{"type":"Feature","properties":{"cls":"styrofoam"},"geometry":{"type":"Point","coordinates":[127.683835,34.574277]}},{"type":"Feature","properties":{"cls":"styrofoam"},"geometry":{"type":"Point","coordinates":[127.683837,34.574284]}},{"type":"Feature","properties":{"cls":"buoy_bottle"},"geometry":{"type":"Point","coordinates":[127.683803,34.57416]}},{"type":"Feature","properties":{"cls":"buoy_bottle"},"geometry":{"type":"Point","coordinates":[127.683715,34.574248]}},{"type":"Feature","properties":{"cls":"buoy_bottle"},"geometry":{"type":"Point","coordinates":[127.683753,34.574265]}},{"type":"Feature","properties":{"cls":"styrofoam"},"geometry":{"type":"Point","coordinates":[127.683868,34.574175]}},{"type":"Feature","properties":{"cls":"styrofoam"},"geometry":{"type":"Point","coordinates":[127.683862,34.574281]}},{"type":"Feature","properties":{"cls":"buoy_bottle"},"geometry":{"type":"Point","coordinates":[127.683714,34.574236]}},{"type":"Feature","properties":{"cls":"styrofoam"},"geometry":{"type":"Point","coordinates":[127.683866,34.574281]}},{"type":"Feature","properties":{"cls":"buoy_bottle"},"geometry":{"type":"Point","coordinates":[127.683789,34.574206]}},{"type":"Feature","properties":{"cls":"styrofoam"},"geometry":{"type":"Point","coordinates":[127.68384,34.574279]}},{"type":"Feature","properties":{"cls":"styrofoam"},"geometry":{"type":"Point","coordinates":[127.683855,34.574255]}},{"type":"Feature","properties":{"cls":"buoy_bottle"},"geometry":{"type":"Point","coordinates":[127.683828,34.574273]}},{"type":"Feature","properties":{"cls":"buoy_bottle"},"geometry":{"type":"Point","coordinates":[127.683799,34.574261]}},{"type":"Feature","properties":{"cls":"styrofoam"},"geometry":{"type":"Point","coordinates":[127.683809,34.574285]}},{"type":"Feature","properties":{"cls":"styrofoam"},"geometry":{"type":"Point","coordinates":[127.68387,34.574248]}},{"type":"Feature","properties":{"cls":"buoy_bottle"},"geometry":{"type":"Point","coordinates":[127.683739,34.574262]}},{"type":"Feature","properties":{"cls":"styrofoam"},"geometry":{"type":"Point","coordinates":[127.683846,34.574281]}},{"type":"Feature","properties":{"cls":"buoy_bottle"},"geometry":{"type":"Point","coordinates":[127.683721,34.57424]}},{"type":"Feature","properties":{"cls":"styrofoam"},"geometry":{"type":"Point","coordinates":[127.683839,34.574273]}},{"type":"Feature","properties":{"cls":"styrofoam"},"geometry":{"type":"Point","coordinates":[127.683852,34.574283]}},{"type":"Feature","properties":{"cls":"styrofoam"},"geometry":{"type":"Point","coordinates":[127.683866,34.574285]}},{"type":"Feature","properties":{"cls":"buoy_bottle"},"geometry":{"type":"Point","coordinates":[127.683801,34.57419]}},{"type":"Feature","properties":{"cls":"styrofoam"},"geometry":{"type":"Point","coordinates":[127.683832,34.574282]}},{"type":"Feature","properties":{"cls":"styrofoam"},"geometry":{"type":"Point","coordinates":[127.683869,34.574168]}},{"type":"Feature","properties":{"cls":"styrofoam"},"geometry":{"type":"Point","coordinates":[127.683859,34.574286]}},{"type":"Feature","properties":{"cls":"styrofoam"},"geometry":{"type":"Point","coordinates":[127.683864,34.574183]}},{"type":"Feature","properties":{"cls":"styrofoam"},"geometry":{"type":"Point","coordinates":[127.683878,34.574274]}},{"type":"Feature","properties":{"cls":"styrofoam"},"geometry":{"type":"Point","coordinates":[127.683877,34.574157]}},{"type":"Feature","properties":{"cls":"styrofoam"},"geometry":{"type":"Point","coordinates":[127.683898,34.574255]}},{"type":"Feature","properties":{"cls":"styrofoam"},"geometry":{"type":"Point","coordinates":[127.683896,34.574201]}},{"type":"Feature","properties":{"cls":"styrofoam"},"geometry":{"type":"Point","coordinates":[127.683896,34.57423]}},{"type":"Feature","properties":{"cls":"styrofoam"},"geometry":{"type":"Point","coordinates":[127.683909,34.574173]}},{"type":"Feature","properties":{"cls":"styrofoam"},"geometry":{"type":"Point","coordinates":[127.683885,34.574242]}},{"type":"Feature","properties":{"cls":"styrofoam"},"geometry":{"type":"Point","coordinates":[127.683909,34.574191]}},{"type":"Feature","properties":{"cls":"styrofoam"},"geometry":{"type":"Point","coordinates":[127.683898,34.574217]}},{"type":"Feature","properties":{"cls":"styrofoam"},"geometry":{"type":"Point","coordinates":[127.683883,34.574202]}},{"type":"Feature","properties":{"cls":"styrofoam"},"geometry":{"type":"Point","coordinates":[127.683866,34.574164]}},{"type":"Feature","properties":{"cls":"styrofoam"},"geometry":{"type":"Point","coordinates":[127.683893,34.574262]}},{"type":"Feature","properties":{"cls":"styrofoam"},"geometry":{"type":"Point","coordinates":[127.683859,34.574276]}},{"type":"Feature","properties":{"cls":"styrofoam"},"geometry":{"type":"Point","coordinates":[127.683901,34.574166]}},{"type":"Feature","properties":{"cls":"styrofoam"},"geometry":{"type":"Point","coordinates":[127.683876,34.574199]}},{"type":"Feature","properties":{"cls":"styrofoam"},"geometry":{"type":"Point","coordinates":[127.683873,34.57421]}},{"type":"Feature","properties":{"cls":"styrofoam"},"geometry":{"type":"Point","coordinates":[127.683892,34.574188]}},{"type":"Feature","properties":{"cls":"styrofoam"},"geometry":{"type":"Point","coordinates":[127.683885,34.57422]}},{"type":"Feature","properties":{"cls":"styrofoam"},"geometry":{"type":"Point","coordinates":[127.683874,34.574267]}},{"type":"Feature","properties":{"cls":"styrofoam"},"geometry":{"type":"Point","coordinates":[127.683875,34.57423]}},{"type":"Feature","properties":{"cls":"styrofoam"},"geometry":{"type":"Point","coordinates":[127.683894,34.574171]}},{"type":"Feature","properties":{"cls":"styrofoam"},"geometry":{"type":"Point","coordinates":[127.68386,34.574265]}},{"type":"Feature","properties":{"cls":"styrofoam"},"geometry":{"type":"Point","coordinates":[127.683867,34.574252]}},{"type":"Feature","properties":{"cls":"styrofoam"},"geometry":{"type":"Point","coordinates":[127.683899,34.574244]}},{"type":"Feature","properties":{"cls":"styrofoam"},"geometry":{"type":"Point","coordinates":[127.683886,34.574265]}},{"type":"Feature","properties":{"cls":"styrofoam"},"geometry":{"type":"Point","coordinates":[127.68389,34.574207]}},{"type":"Feature","properties":{"cls":"styrofoam"},"geometry":{"type":"Point","coordinates":[127.683905,34.574157]}},{"type":"Feature","properties":{"cls":"styrofoam"},"geometry":{"type":"Point","coordinates":[127.683879,34.574257]}},{"type":"Feature","properties":{"cls":"styrofoam"},"geometry":{"type":"Point","coordinates":[127.683882,34.574268]}},{"type":"Feature","properties":{"cls":"styrofoam"},"geometry":{"type":"Point","coordinates":[127.683889,34.574224]}},{"type":"Feature","properties":{"cls":"styrofoam"},"geometry":{"type":"Point","coordinates":[127.68387,34.574168]}},{"type":"Feature","properties":{"cls":"styrofoam"},"geometry":{"type":"Point","coordinates":[127.683896,34.574162]}},{"type":"Feature","properties":{"cls":"styrofoam"},"geometry":{"type":"Point","coordinates":[127.68387,34.574247]}},{"type":"Feature","properties":{"cls":"styrofoam"},"geometry":{"type":"Point","coordinates":[127.683891,34.574237]}},{"type":"Feature","properties":{"cls":"styrofoam"},"geometry":{"type":"Point","coordinates":[127.683877,34.574192]}},{"type":"Feature","properties":{"cls":"styrofoam"},"geometry":{"type":"Point","coordinates":[127.683896,34.574248]}},{"type":"Feature","properties":{"cls":"styrofoam"},"geometry":{"type":"Point","coordinates":[127.683872,34.574222]}},{"type":"Feature","properties":{"cls":"styrofoam"},"geometry":{"type":"Point","coordinates":[127.683886,34.574169]}},{"type":"Feature","properties":{"cls":"styrofoam"},"geometry":{"type":"Point","coordinates":[127.683866,34.574281]}},{"type":"Feature","properties":{"cls":"buoy_blue"},"geometry":{"type":"Point","coordinates":[127.683877,34.574186]}},{"type":"Feature","properties":{"cls":"styrofoam"},"geometry":{"type":"Point","coordinates":[127.683896,34.574236]}},{"type":"Feature","properties":{"cls":"styrofoam"},"geometry":{"type":"Point","coordinates":[127.683862,34.574282]}},{"type":"Feature","properties":{"cls":"styrofoam"},"geometry":{"type":"Point","coordinates":[127.683901,34.574238]}},{"type":"Feature","properties":{"cls":"styrofoam"},"geometry":{"type":"Point","coordinates":[127.683878,34.574239]}},{"type":"Feature","properties":{"cls":"styrofoam"},"geometry":{"type":"Point","coordinates":[127.683867,34.574284]}},{"type":"Feature","properties":{"cls":"styrofoam"},"geometry":{"type":"Point","coordinates":[127.683896,34.574268]}},{"type":"Feature","properties":{"cls":"styrofoam"},"geometry":{"type":"Point","coordinates":[127.683877,34.574263]}},{"type":"Feature","properties":{"cls":"styrofoam"},"geometry":{"type":"Point","coordinates":[127.683895,34.574156]}},{"type":"Feature","properties":{"cls":"styrofoam"},"geometry":{"type":"Point","coordinates":[127.683872,34.574226]}},{"type":"Feature","properties":{"cls":"styrofoam"},"geometry":{"type":"Point","coordinates":[127.683858,34.574286]}},{"type":"Feature","properties":{"cls":"styrofoam"},"geometry":{"type":"Point","coordinates":[127.683858,34.574236]}},{"type":"Feature","properties":{"cls":"styrofoam"},"geometry":{"type":"Point","coordinates":[127.683897,34.574222]}},{"type":"Feature","properties":{"cls":"styrofoam"},"geometry":{"type":"Point","coordinates":[127.683879,34.574217]}},{"type":"Feature","properties":{"cls":"styrofoam"},"geometry":{"type":"Point","coordinates":[127.683875,34.574234]}},{"type":"Feature","properties":{"cls":"plastic_box"},"geometry":{"type":"Point","coordinates":[127.68389,34.57427]}},{"type":"Feature","properties":{"cls":"styrofoam"},"geometry":{"type":"Point","coordinates":[127.683729,34.574109]}},{"type":"Feature","properties":{"cls":"styrofoam"},"geometry":{"type":"Point","coordinates":[127.683736,34.574079]}},{"type":"Feature","properties":{"cls":"other_debris"},"geometry":{"type":"Point","coordinates":[127.683785,34.574149]}},{"type":"Feature","properties":{"cls":"buoy_bottle"},"geometry":{"type":"Point","coordinates":[127.683787,34.574138]}},{"type":"Feature","properties":{"cls":"buoy_bottle"},"geometry":{"type":"Point","coordinates":[127.683803,34.57416]}},{"type":"Feature","properties":{"cls":"styrofoam"},"geometry":{"type":"Point","coordinates":[127.68378,34.574119]}},{"type":"Feature","properties":{"cls":"styrofoam"},"geometry":{"type":"Point","coordinates":[127.68388,34.574067]}},{"type":"Feature","properties":{"cls":"styrofoam"},"geometry":{"type":"Point","coordinates":[127.683877,34.574157]}},{"type":"Feature","properties":{"cls":"styrofoam"},"geometry":{"type":"Point","coordinates":[127.683899,34.574132]}},{"type":"Feature","properties":{"cls":"styrofoam"},"geometry":{"type":"Point","coordinates":[127.683909,34.574138]}},{"type":"Feature","properties":{"cls":"styrofoam"},"geometry":{"type":"Point","coordinates":[127.683895,34.574121]}},{"type":"Feature","properties":{"cls":"styrofoam"},"geometry":{"type":"Point","coordinates":[127.683866,34.574163]}},{"type":"Feature","properties":{"cls":"other_debris"},"geometry":{"type":"Point","coordinates":[127.683912,34.574081]}},{"type":"Feature","properties":{"cls":"styrofoam"},"geometry":{"type":"Point","coordinates":[127.683894,34.574147]}},{"type":"Feature","properties":{"cls":"styrofoam"},"geometry":{"type":"Point","coordinates":[127.683909,34.574151]}},{"type":"Feature","properties":{"cls":"styrofoam"},"geometry":{"type":"Point","coordinates":[127.683904,34.574155]}},{"type":"Feature","properties":{"cls":"styrofoam"},"geometry":{"type":"Point","coordinates":[127.683887,34.574053]}},{"type":"Feature","properties":{"cls":"other_debris"},"geometry":{"type":"Point","coordinates":[127.68389,34.574085]}},{"type":"Feature","properties":{"cls":"styrofoam"},"geometry":{"type":"Point","coordinates":[127.683911,34.574146]}},{"type":"Feature","properties":{"cls":"styrofoam"},"geometry":{"type":"Point","coordinates":[127.683896,34.574162]}},{"type":"Feature","properties":{"cls":"styrofoam"},"geometry":{"type":"Point","coordinates":[127.683903,34.574163]}},{"type":"Feature","properties":{"cls":"styrofoam"},"geometry":{"type":"Point","coordinates":[127.683872,34.574053]}},{"type":"Feature","properties":{"cls":"styrofoam"},"geometry":{"type":"Point","coordinates":[127.683906,34.57413]}},{"type":"Feature","properties":{"cls":"other_debris"},"geometry":{"type":"Point","coordinates":[127.683903,34.574147]}},{"type":"Feature","properties":{"cls":"other_debris"},"geometry":{"type":"Point","coordinates":[127.68389,34.574083]}},{"type":"Feature","properties":{"cls":"buoy_blue"},"geometry":{"type":"Point","coordinates":[127.683913,34.574123]}},{"type":"Feature","properties":{"cls":"styrofoam"},"geometry":{"type":"Point","coordinates":[127.683895,34.574156]}},{"type":"Feature","properties":{"cls":"styrofoam"},"geometry":{"type":"Point","coordinates":[127.683906,34.574123]}},{"type":"Feature","properties":{"cls":"styrofoam"},"geometry":{"type":"Point","coordinates":[127.683907,34.574126]}},{"type":"Feature","properties":{"cls":"styrofoam"},"geometry":{"type":"Point","coordinates":[127.683886,34.574079]}},{"type":"Feature","properties":{"cls":"styrofoam"},"geometry":{"type":"Point","coordinates":[127.683628,34.573745]}},{"type":"Feature","properties":{"cls":"styrofoam"},"geometry":{"type":"Point","coordinates":[127.684413,34.575087]}},{"type":"Feature","properties":{"cls":"styrofoam"},"geometry":{"type":"Point","coordinates":[127.684182,34.574961]}},{"type":"Feature","properties":{"cls":"plastic_box"},"geometry":{"type":"Point","coordinates":[127.684177,34.574982]}},{"type":"Feature","properties":{"cls":"styrofoam"},"geometry":{"type":"Point","coordinates":[127.684376,34.574929]}},{"type":"Feature","properties":{"cls":"styrofoam"},"geometry":{"type":"Point","coordinates":[127.6843,34.574965]}},{"type":"Feature","properties":{"cls":"styrofoam"},"geometry":{"type":"Point","coordinates":[127.68434,34.574923]}},{"type":"Feature","properties":{"cls":"styrofoam"},"geometry":{"type":"Point","coordinates":[127.684178,34.574913]}},{"type":"Feature","properties":{"cls":"styrofoam"},"geometry":{"type":"Point","coordinates":[127.684243,34.574909]}},{"type":"Feature","properties":{"cls":"styrofoam"},"geometry":{"type":"Point","coordinates":[127.684192,34.574885]}},{"type":"Feature","properties":{"cls":"styrofoam"},"geometry":{"type":"Point","coordinates":[127.684217,34.574879]}},{"type":"Feature","properties":{"cls":"styrofoam"},"geometry":{"type":"Point","coordinates":[127.684257,34.574901]}},{"type":"Feature","properties":{"cls":"styrofoam"},"geometry":{"type":"Point","coordinates":[127.684376,34.574929]}},{"type":"Feature","properties":{"cls":"buoy_blue"},"geometry":{"type":"Point","coordinates":[127.684338,34.574919]}},{"type":"Feature","properties":{"cls":"buoy_bottle"},"geometry":{"type":"Point","coordinates":[127.6843,34.574922]}},{"type":"Feature","properties":{"cls":"rope"},"geometry":{"type":"Point","coordinates":[127.686914,34.575589]}},{"type":"Feature","properties":{"cls":"rope"},"geometry":{"type":"Point","coordinates":[127.68693,34.575549]}},{"type":"Feature","properties":{"cls":"styrofoam"},"geometry":{"type":"Point","coordinates":[127.686891,34.575567]}},{"type":"Feature","properties":{"cls":"styrofoam"},"geometry":{"type":"Point","coordinates":[127.686951,34.575531]}},{"type":"Feature","properties":{"cls":"styrofoam"},"geometry":{"type":"Point","coordinates":[127.686918,34.575555]}},{"type":"Feature","properties":{"cls":"styrofoam"},"geometry":{"type":"Point","coordinates":[127.686923,34.575549]}},{"type":"Feature","properties":{"cls":"styrofoam"},"geometry":{"type":"Point","coordinates":[127.686984,34.575512]}},{"type":"Feature","properties":{"cls":"styrofoam"},"geometry":{"type":"Point","coordinates":[127.686921,34.575553]}},{"type":"Feature","properties":{"cls":"rope"},"geometry":{"type":"Point","coordinates":[127.686915,34.575585]}},{"type":"Feature","properties":{"cls":"styrofoam"},"geometry":{"type":"Point","coordinates":[127.686943,34.575521]}},{"type":"Feature","properties":{"cls":"rope"},"geometry":{"type":"Point","coordinates":[127.686915,34.575585]}},{"type":"Feature","properties":{"cls":"rope"},"geometry":{"type":"Point","coordinates":[127.686908,34.575586]}},{"type":"Feature","properties":{"cls":"rope"},"geometry":{"type":"Point","coordinates":[127.686909,34.575586]}},{"type":"Feature","properties":{"cls":"styrofoam"},"geometry":{"type":"Point","coordinates":[127.686993,34.575549]}},{"type":"Feature","properties":{"cls":"styrofoam"},"geometry":{"type":"Point","coordinates":[127.686984,34.575512]}},{"type":"Feature","properties":{"cls":"styrofoam"},"geometry":{"type":"Point","coordinates":[127.687012,34.575532]}},{"type":"Feature","properties":{"cls":"styrofoam"},"geometry":{"type":"Point","coordinates":[127.687015,34.57554]}},{"type":"Feature","properties":{"cls":"styrofoam"},"geometry":{"type":"Point","coordinates":[127.686998,34.57555]}},{"type":"Feature","properties":{"cls":"styrofoam"},"geometry":{"type":"Point","coordinates":[127.687002,34.575546]}},{"type":"Feature","properties":{"cls":"styrofoam"},"geometry":{"type":"Point","coordinates":[127.686983,34.575518]}},{"type":"Feature","properties":{"cls":"plastic_box"},"geometry":{"type":"Point","coordinates":[127.687021,34.575538]}},{"type":"Feature","properties":{"cls":"buoy_red"},"geometry":{"type":"Point","coordinates":[127.688568,34.575902]}},{"type":"Feature","properties":{"cls":"styrofoam"},"geometry":{"type":"Point","coordinates":[127.679234,34.571462]}},{"type":"Feature","properties":{"cls":"styrofoam"},"geometry":{"type":"Point","coordinates":[127.685498,34.571854]}},{"type":"Feature","properties":{"cls":"styrofoam"},"geometry":{"type":"Point","coordinates":[127.685548,34.571932]}},{"type":"Feature","properties":{"cls":"styrofoam"},"geometry":{"type":"Point","coordinates":[127.685567,34.572063]}},{"type":"Feature","properties":{"cls":"styrofoam"},"geometry":{"type":"Point","coordinates":[127.685589,34.57204]}},{"type":"Feature","properties":{"cls":"plastic_box"},"geometry":{"type":"Point","coordinates":[127.6854,34.571715]}},{"type":"Feature","properties":{"cls":"styrofoam"},"geometry":{"type":"Point","coordinates":[127.685406,34.571689]}},{"type":"Feature","properties":{"cls":"styrofoam"},"geometry":{"type":"Point","coordinates":[127.685434,34.571695]}},{"type":"Feature","properties":{"cls":"styrofoam"},"geometry":{"type":"Point","coordinates":[127.685528,34.572116]}},{"type":"Feature","properties":{"cls":"styrofoam"},"geometry":{"type":"Point","coordinates":[127.685532,34.572107]}},{"type":"Feature","properties":{"cls":"styrofoam"},"geometry":{"type":"Point","coordinates":[127.685687,34.573114]}},{"type":"Feature","properties":{"cls":"other_debris"},"geometry":{"type":"Point","coordinates":[127.685653,34.57317]}},{"type":"Feature","properties":{"cls":"other_debris"},"geometry":{"type":"Point","coordinates":[127.685631,34.573199]}},{"type":"Feature","properties":{"cls":"other_debris"},"geometry":{"type":"Point","coordinates":[127.685546,34.57319]}},{"type":"Feature","properties":{"cls":"net"},"geometry":{"type":"Point","coordinates":[127.685495,34.573197]}},{"type":"Feature","properties":{"cls":"styrofoam"},"geometry":{"type":"Point","coordinates":[127.685324,34.573235]}},{"type":"Feature","properties":{"cls":"styrofoam"},"geometry":{"type":"Point","coordinates":[127.685306,34.573195]}},{"type":"Feature","properties":{"cls":"styrofoam"},"geometry":{"type":"Point","coordinates":[127.685173,34.573282]}},{"type":"Feature","properties":{"cls":"styrofoam"},"geometry":{"type":"Point","coordinates":[127.685179,34.573278]}},{"type":"Feature","properties":{"cls":"styrofoam"},"geometry":{"type":"Point","coordinates":[127.685177,34.573292]}},{"type":"Feature","properties":{"cls":"styrofoam"},"geometry":{"type":"Point","coordinates":[127.68522,34.573304]}},{"type":"Feature","properties":{"cls":"styrofoam"},"geometry":{"type":"Point","coordinates":[127.685249,34.573305]}},{"type":"Feature","properties":{"cls":"styrofoam"},"geometry":{"type":"Point","coordinates":[127.684891,34.573207]}},{"type":"Feature","properties":{"cls":"styrofoam"},"geometry":{"type":"Point","coordinates":[127.684927,34.573215]}},{"type":"Feature","properties":{"cls":"other_debris"},"geometry":{"type":"Point","coordinates":[127.684523,34.573235]}},{"type":"Feature","properties":{"cls":"styrofoam"},"geometry":{"type":"Point","coordinates":[127.684096,34.574887]}},{"type":"Feature","properties":{"cls":"styrofoam"},"geometry":{"type":"Point","coordinates":[127.684129,34.574886]}},{"type":"Feature","properties":{"cls":"styrofoam"},"geometry":{"type":"Point","coordinates":[127.68468,34.575162]}},{"type":"Feature","properties":{"cls":"net"},"geometry":{"type":"Point","coordinates":[127.686886,34.575549]}},{"type":"Feature","properties":{"cls":"rope"},"geometry":{"type":"Point","coordinates":[127.687138,34.575703]}}]}