{"type":"FeatureCollection","features":[{"type":"Feature","properties":{"sgg_cd":"46130","name":"여수시","sido":"전남","value":972,"lat":34.459},"geometry":{"type":"MultiPolygon","coordinates":[[[[127.7486,34.7338],[127.7416,34.722],[127.7544,34.7086],[127.7602,34.6847],[127.7372,34.6606],[127.7234,34.6557],[127.718,34.643],[127.7238,34.6335],[127.7129,34.6243],[127.7191,34.6135],[127.7376,34.6103],[127.7501,34.5926],[127.7655,34.5929],[127.7856,34.5853],[127.806,34.5903],[127.8024,34.6018],[127.7922,34.6109],[127.7915,34.6194],[127.7984,34.6373],[127.795,34.6713],[127.7851,34.6701],[127.7764,34.6814],[127.7798,34.6966],[127.7911,34.7016],[127.7873,34.716],[127.7717,34.7252],[127.7486,34.7338]]],[[[127.5422,34.8433],[127.5384,34.8318],[127.5274,34.8244],[127.5229,34.8098],[127.5318,34.8062],[127.5535,34.8092],[127.5607,34.8025],[127.5792,34.7609],[127.5891,34.7537],[127.5785,34.733],[127.5549,34.7187],[127.5594,34.7004],[127.5507,34.6892],[127.5532,34.67],[127.5701,34.6436],[127.5892,34.6518],[127.6156,34.6429],[127.6252,34.6345],[127.6444,34.6273],[127.6401,34.6433],[127.6298,34.6505],[127.6354,34.6615],[127.625,34.6805],[127.6261,34.712],[127.6354,34.7102],[127.6414,34.7271],[127.6511,34.7372],[127.6562,34.751],[127.6818,34.7406],[127.6844,34.734],[127.7029,34.7204],[127.7248,34.7263],[127.756,34.7411],[127.7508,34.7499],[127.7544,34.7636],[127.7455,34.7753],[127.7569,34.7869],[127.7593,34.8002],[127.7662,34.8094],[127.7678,34.8313],[127.7749,34.8375],[127.7741,34.8608],[127.762,34.8648],[127.6986,34.8594],[127.6701,34.837],[127.6616,34.8445],[127.6429,34.8305],[127.6267,34.8298],[127.6364,34.8466],[127.6238,34.8442],[127.6138,34.8532],[127.6063,34.8517],[127.5897,34.8749],[127.6142,34.8923],[127.6056,34.9034],[127.5929,34.8952],[127.5897,34.8864],[127.5678,34.885],[127.5502,34.8895],[127.5358,34.8781],[127.5509,34.8557],[127.5422,34.8433]]],[[[127.6335,34.8488],[127.647,34.8574],[127.6337,34.8709],[127.6139,34.8581],[127.6216,34.8485],[127.6335,34.8488]]],[[[127.8052,34.4612],[127.795,34.4573],[127.7982,34.4447],[127.7916,34.4359],[127.7933,34.426],[127.7858,34.418],[127.8081,34.417],[127.8094,34.4499],[127.8052,34.4612]]],[[[127.7411,34.5529],[127.7256,34.5483],[127.7119,34.538],[127.7131,34.5295],[127.7348,34.503],[127.7624,34.4991],[127.7709,34.4876],[127.7907,34.4877],[127.7968,34.4932],[127.7802,34.5199],[127.7623,34.5351],[127.7577,34.5524],[127.7411,34.5529]]],[[[127.7326,34.5908],[127.7203,34.5878],[127.7328,34.575],[127.7441,34.5824],[127.7326,34.5908]]],[[[127.6579,34.5855],[127.6391,34.5749],[127.6478,34.5671],[127.6476,34.5587],[127.6597,34.5527],[127.6742,34.5556],[127.6785,34.5669],[127.6579,34.5855]]],[[[127.5466,34.6177],[127.5337,34.612],[127.5395,34.5987],[127.5667,34.6052],[127.5646,34.6136],[127.5466,34.6177]]],[[[127.636,34.6245],[127.627,34.6214],[127.6308,34.6089],[127.6552,34.6095],[127.636,34.6245]]],[[[127.308,34.0608],[127.3134,34.0402],[127.3348,34.0341],[127.3269,34.0519],[127.308,34.0608]]],[[[127.2932,34.0635],[127.2828,34.0548],[127.2792,34.0432],[127.2887,34.0325],[127.2946,34.0141],[127.3158,34.0143],[127.3024,34.0303],[127.2928,34.05],[127.2932,34.0635]]],[[[127.2604,34.2472],[127.2425,34.2472],[127.2331,34.2366],[127.2248,34.216],[127.2433,34.2178],[127.2566,34.2109],[127.2627,34.2268],[127.258,34.2371],[127.2604,34.2472]]],[[[127.3591,34.2882],[127.3477,34.2847],[127.3518,34.2735],[127.3654,34.283],[127.3591,34.2882]]],[[[127.3985,34.2834],[127.4005,34.2942],[127.3908,34.2959],[127.3881,34.2847],[127.3985,34.2834]]],[[[127.7235,34.7181],[127.7198,34.7055],[127.7346,34.7071],[127.7235,34.7181]]],[[[127.725,34.8952],[127.7073,34.8968],[127.6916,34.8849],[127.7004,34.8766],[127.7179,34.8676],[127.728,34.8738],[127.7464,34.8727],[127.7512,34.8778],[127.7456,34.891],[127.725,34.8952]]]]}},{"type":"Feature","properties":{"sgg_cd":"52190","name":"남원시","sido":"전북","value":2240,"lat":35.432},"geometry":{"type":"Polygon","coordinates":[[[127.6204,35.3323],[127.6229,35.3439],[127.6121,35.3559],[127.6103,35.3658],[127.6224,35.3732],[127.6252,35.3848],[127.6354,35.3998],[127.6464,35.4027],[127.6594,35.4141],[127.6653,35.4272],[127.6694,35.4473],[127.6451,35.4495],[127.6357,35.4623],[127.6372,35.4789],[127.6527,35.4857],[127.6419,35.5051],[127.6244,35.5279],[127.6258,35.5321],[127.5854,35.5546],[127.5731,35.5457],[127.5684,35.525],[127.5786,35.5161],[127.5792,35.5038],[127.5743,35.4947],[127.5636,35.4885],[127.5622,35.4748],[127.5465,35.468],[127.5248,35.4732],[127.516,35.4807],[127.527,35.4864],[127.5272,35.4953],[127.5159,35.4988],[127.513,35.5073],[127.4912,35.527],[127.4925,35.5338],[127.4569,35.5463],[127.4261,35.5502],[127.4131,35.5602],[127.4025,35.5484],[127.3777,35.5483],[127.3635,35.5582],[127.3346,35.5487],[127.349,35.5404],[127.3432,35.5203],[127.3547,35.5123],[127.3562,35.5003],[127.3322,35.4924],[127.3104,35.4939],[127.3087,35.4777],[127.3145,35.4663],[127.2979,35.4449],[127.2938,35.4298],[127.2757,35.4211],[127.2597,35.4268],[127.2516,35.4163],[127.2454,35.3986],[127.2254,35.3983],[127.205,35.3606],[127.1973,35.3644],[127.1872,35.3447],[127.1861,35.3362],[127.1871,35.3224],[127.2009,35.3158],[127.2148,35.3162],[127.216,35.3291],[127.2227,35.3367],[127.2604,35.3116],[127.2885,35.3142],[127.3086,35.3031],[127.3241,35.3065],[127.3339,35.3154],[127.3562,35.3213],[127.3772,35.3107],[127.3845,35.3033],[127.3993,35.3129],[127.4015,35.3251],[127.4155,35.3373],[127.4313,35.3595],[127.4542,35.3607],[127.4706,35.3659],[127.4861,35.3584],[127.5014,35.3588],[127.5305,35.3373],[127.5546,35.3223],[127.5682,35.3183],[127.5774,35.309],[127.5857,35.3091],[127.6055,35.319],[127.6204,35.3323]]]}}]}