{"type":"FeatureCollection","features":[{"type":"Feature","properties":{"분류":"하천 구역 내 위치한 시설물","용도":"기타시설"},"geometry":{"type":"Polygon","coordinates":[[[127.31109,35.31849],[127.31106,35.31848],[127.31105,35.3185],[127.31108,35.31852],[127.31109,35.31849]]]}},{"type":"Feature","properties":{"분류":"하천 구역 내 위치한 시설물","용도":"기타시설"},"geometry":{"type":"Polygon","coordinates":[[[127.31131,35.31886],[127.31126,35.31884],[127.31125,35.31888],[127.3113,35.31889],[127.31131,35.31886]]]}},{"type":"Feature","properties":{"분류":"하천 구역 내 위치한 시설물","용도":"기타시설"},"geometry":{"type":"Polygon","coordinates":[[[127.32071,35.31075],[127.32071,35.31069],[127.32064,35.31069],[127.32064,35.31076],[127.32069,35.31076],[127.32069,35.31075],[127.32071,35.31075]]]}},{"type":"Feature","properties":{"분류":"하천 구역 내 위치한 시설물","용도":"기타시설"},"geometry":{"type":"Polygon","coordinates":[[[127.32061,35.31076],[127.32061,35.31071],[127.32053,35.31072],[127.32053,35.31073],[127.32053,35.31076],[127.3206,35.31076],[127.32061,35.31076]]]}},{"type":"Feature","properties":{"분류":"하천 구역 내 위치한 시설물","용도":"근린생활시설"},"geometry":{"type":"Polygon","coordinates":[[[127.31946,35.31098],[127.31943,35.31093],[127.31937,35.31096],[127.3194,35.31101],[127.31946,35.31098]]]}},{"type":"Feature","properties":{"분류":"하천 구역 내 위치한 시설물","용도":"근린생활시설"},"geometry":{"type":"Polygon","coordinates":[[[127.31512,35.30938],[127.3151,35.30938],[127.3151,35.30942],[127.31512,35.30942],[127.31512,35.30938]]]}},{"type":"Feature","properties":{"분류":"하천 구역 내 위치한 시설물","용도":"기타시설"},"geometry":{"type":"Polygon","coordinates":[[[127.35947,35.33434],[127.35942,35.33433],[127.35941,35.33435],[127.35946,35.33436],[127.35947,35.33434]]]}},{"type":"Feature","properties":{"분류":"하천 구역 내 위치한 시설물","용도":"기타시설"},"geometry":{"type":"Polygon","coordinates":[[[127.31959,35.30466],[127.31952,35.30464],[127.31951,35.30467],[127.31958,35.30468],[127.31959,35.30466]]]}},{"type":"Feature","properties":{"분류":"하천 구역 내 위치한 시설물","용도":"기타시설"},"geometry":{"type":"Polygon","coordinates":[[[127.31947,35.30469],[127.31941,35.30468],[127.3194,35.30471],[127.31946,35.30472],[127.31947,35.30469]]]}},{"type":"Feature","properties":{"분류":"하천 구역 내 위치한 시설물","용도":"기타시설"},"geometry":{"type":"Polygon","coordinates":[[[127.31956,35.30468],[127.31953,35.30468],[127.31951,35.30476],[127.31954,35.30477],[127.31956,35.30468]]]}},{"type":"Feature","properties":{"분류":"하천 구역 내 위치한 시설물","용도":"기타시설"},"geometry":{"type":"Polygon","coordinates":[[[127.3244,35.30468],[127.32438,35.30468],[127.32436,35.30473],[127.32438,35.30473],[127.3244,35.30468]]]}},{"type":"Feature","properties":{"분류":"하천 구역 내 위치한 시설물","용도":"기타시설"},"geometry":{"type":"Polygon","coordinates":[[[127.32421,35.30524],[127.32417,35.30521],[127.32413,35.30525],[127.32417,35.30528],[127.32421,35.30524]]]}},{"type":"Feature","properties":{"분류":"하천 구역 내 위치한 시설물","용도":"기타시설"},"geometry":{"type":"Polygon","coordinates":[[[127.31948,35.30464],[127.31945,35.30463],[127.31944,35.30468],[127.31947,35.30469],[127.31948,35.30464]]]}},{"type":"Feature","properties":{"분류":"하천 구역 내 위치한 시설물","용도":"기타시설"},"geometry":{"type":"Polygon","coordinates":[[[127.3343,35.32205],[127.33429,35.32206],[127.33431,35.32208],[127.33432,35.32207],[127.3343,35.32205]]]}},{"type":"Feature","properties":{"분류":"하천 구역 내 위치한 시설물","용도":"기타시설"},"geometry":{"type":"Polygon","coordinates":[[[127.32512,35.3093],[127.32509,35.30929],[127.32507,35.3093],[127.32507,35.30933],[127.32509,35.30934],[127.32512,35.30933],[127.32512,35.3093]]]}},{"type":"Feature","properties":{"분류":"하천 구역 내 위치한 시설물","용도":"근린생활시설"},"geometry":{"type":"Polygon","coordinates":[[[127.32621,35.31889],[127.32619,35.31885],[127.32615,35.31887],[127.32617,35.3189],[127.32621,35.31889]]]}},{"type":"Feature","properties":{"분류":"하천 구역 내 위치한 시설물","용도":"근린생활시설"},"geometry":{"type":"Polygon","coordinates":[[[127.32713,35.31511],[127.32709,35.31511],[127.32708,35.31515],[127.32712,35.31516],[127.32713,35.31511]]]}},{"type":"Feature","properties":{"분류":"하천 구역 내 위치한 시설물","용도":"동물및식물관련시설"},"geometry":{"type":"Polygon","coordinates":[[[127.32623,35.31112],[127.32619,35.31108],[127.32615,35.31111],[127.32618,35.31115],[127.32623,35.31112]]]}},{"type":"Feature","properties":{"분류":"하천 구역 내 위치한 시설물","용도":"근린생활시설"},"geometry":{"type":"Polygon","coordinates":[[[127.32596,35.31828],[127.32593,35.31826],[127.32591,35.31827],[127.32593,35.3183],[127.32596,35.31828]]]}},{"type":"Feature","properties":{"분류":"하천 구역 내 위치한 시설물","용도":"기타시설"},"geometry":{"type":"Polygon","coordinates":[[[127.32782,35.305],[127.32781,35.30496],[127.32775,35.30497],[127.32776,35.30501],[127.32782,35.305]]]}},{"type":"Feature","properties":{"분류":"하천 구역 내 위치한 시설물","용도":"기타시설"},"geometry":{"type":"Polygon","coordinates":[[[127.32803,35.3037],[127.32801,35.30367],[127.32799,35.30368],[127.32801,35.30371],[127.32803,35.3037]]]}},{"type":"Feature","properties":{"분류":"하천 구역 내 위치한 시설물","용도":"근린생활시설"},"geometry":{"type":"Polygon","coordinates":[[[127.34643,35.3248],[127.34642,35.32479],[127.34639,35.32481],[127.34641,35.32482],[127.34643,35.3248]]]}},{"type":"Feature","properties":{"분류":"하천 구역 내 위치한 시설물","용도":"근린생활시설"},"geometry":{"type":"Polygon","coordinates":[[[127.34088,35.3004],[127.34084,35.30037],[127.34083,35.30038],[127.34087,35.30041],[127.34088,35.3004]]]}},{"type":"Feature","properties":{"분류":"하천 구역 내 위치한 시설물","용도":"기타시설"},"geometry":{"type":"Polygon","coordinates":[[[127.359,35.33524],[127.35898,35.33523],[127.35897,35.33527],[127.35898,35.33527],[127.359,35.33524]]]}},{"type":"Feature","properties":{"분류":"하천 구역 내 위치한 시설물","용도":"기타시설"},"geometry":{"type":"Polygon","coordinates":[[[127.37125,35.32827],[127.37123,35.32827],[127.37123,35.32828],[127.37125,35.32828],[127.37125,35.32827]]]}},{"type":"Feature","properties":{"분류":"하천 구역 내 위치한 시설물","용도":"기타시설"},"geometry":{"type":"Polygon","coordinates":[[[127.34469,35.31237],[127.34465,35.31236],[127.34464,35.31244],[127.34469,35.31244],[127.34469,35.31237]]]}},{"type":"Feature","properties":{"분류":"하천 구역 내 위치한 시설물","용도":"근린생활시설"},"geometry":{"type":"Polygon","coordinates":[[[127.33805,35.30876],[127.33801,35.30874],[127.33798,35.30878],[127.33803,35.3088],[127.33805,35.30876]]]}},{"type":"Feature","properties":{"분류":"하천 구역 내 위치한 시설물","용도":"주택"},"geometry":{"type":"Polygon","coordinates":[[[127.34534,35.31187],[127.34533,35.31185],[127.34531,35.31187],[127.34532,35.31188],[127.34534,35.31187]]]}},{"type":"Feature","properties":{"분류":"하천 구역 내 위치한 시설물","용도":"동물및식물관련시설"},"geometry":{"type":"Polygon","coordinates":[[[127.34953,35.31492],[127.34948,35.31491],[127.34947,35.31494],[127.34952,35.31495],[127.34953,35.31492]]]}},{"type":"Feature","properties":{"분류":"하천 구역 내 위치한 시설물","용도":"창고시설"},"geometry":{"type":"Polygon","coordinates":[[[127.34602,35.3125],[127.34591,35.31235],[127.34582,35.31239],[127.34593,35.31254],[127.34602,35.3125]]]}},{"type":"Feature","properties":{"분류":"하천 구역 내 위치한 시설물","용도":"기타시설"},"geometry":{"type":"Polygon","coordinates":[[[127.34636,35.31302],[127.34632,35.31297],[127.34625,35.313],[127.34629,35.31305],[127.34636,35.31302]]]}},{"type":"Feature","properties":{"분류":"하천 구역 내 위치한 시설물","용도":"기타시설"},"geometry":{"type":"Polygon","coordinates":[[[127.34631,35.31296],[127.34628,35.31291],[127.34621,35.31294],[127.34625,35.31299],[127.34631,35.31296]]]}},{"type":"Feature","properties":{"분류":"하천 구역 내 위치한 시설물","용도":"기타시설"},"geometry":{"type":"Polygon","coordinates":[[[127.35038,35.3151],[127.35035,35.3151],[127.35035,35.31511],[127.35038,35.31511],[127.35038,35.3151]]]}},{"type":"Feature","properties":{"분류":"하천 구역 내 위치한 시설물","용도":"기타시설"},"geometry":{"type":"Polygon","coordinates":[[[127.35209,35.31938],[127.35209,35.31938],[127.35203,35.31938],[127.35205,35.3194],[127.35209,35.31938]]]}},{"type":"Feature","properties":{"분류":"하천 구역 내 위치한 시설물","용도":"기타시설"},"geometry":{"type":"Polygon","coordinates":[[[127.36152,35.31494],[127.36146,35.31489],[127.36136,35.31497],[127.36142,35.31502],[127.36152,35.31494]]]}},{"type":"Feature","properties":{"분류":"하천 구역 내 위치한 시설물","용도":"근린생활시설"},"geometry":{"type":"Polygon","coordinates":[[[127.35424,35.31098],[127.35418,35.31097],[127.35417,35.31099],[127.35423,35.311],[127.35424,35.31098]]]}},{"type":"Feature","properties":{"분류":"하천 구역에 걸쳐있는 시설물","용도":"기타시설"},"geometry":{"type":"Polygon","coordinates":[[[127.32078,35.31075],[127.32069,35.31075],[127.3207,35.31081],[127.32078,35.31081],[127.32078,35.31075]]]}},{"type":"Feature","properties":{"분류":"하천 구역에 걸쳐있는 시설물","용도":"기타시설"},"geometry":{"type":"Polygon","coordinates":[[[127.32059,35.31079],[127.32056,35.31078],[127.32056,35.31081],[127.32059,35.31081],[127.32059,35.31079]]]}},{"type":"Feature","properties":{"분류":"하천 구역에 걸쳐있는 시설물","용도":"기타시설"},"geometry":{"type":"Polygon","coordinates":[[[127.32069,35.3108],[127.32069,35.31076],[127.32066,35.31076],[127.32066,35.3108],[127.32069,35.3108]]]}},{"type":"Feature","properties":{"분류":"하천 구역에 걸쳐있는 시설물","용도":"기타시설"},"geometry":{"type":"Polygon","coordinates":[[[127.35983,35.32933],[127.35983,35.32931],[127.35977,35.32933],[127.35978,35.32936],[127.35983,35.32933]]]}},{"type":"Feature","properties":{"분류":"하천 구역에 걸쳐있는 시설물","용도":"기타시설"},"geometry":{"type":"Polygon","coordinates":[[[127.36727,35.3377],[127.36723,35.33767],[127.36721,35.33769],[127.36725,35.33772],[127.36727,35.3377]]]}},{"type":"Feature","properties":{"분류":"하천 구역에 걸쳐있는 시설물","용도":"근린생활시설"},"geometry":{"type":"Polygon","coordinates":[[[127.35855,35.33412],[127.35853,35.33412],[127.35852,35.33415],[127.35853,35.33415],[127.35855,35.33412]]]}},{"type":"Feature","properties":{"분류":"하천 구역에 걸쳐있는 시설물","용도":"주택"},"geometry":{"type":"Polygon","coordinates":[[[127.31043,35.30293],[127.31049,35.30271],[127.3104,35.30269],[127.31038,35.30274],[127.31038,35.30274],[127.31035,35.30286],[127.31035,35.30286],[127.31034,35.30292],[127.31043,35.30293]]]}},{"type":"Feature","properties":{"분류":"하천 구역에 걸쳐있는 시설물","용도":"주택"},"geometry":{"type":"Polygon","coordinates":[[[127.31003,35.30279],[127.3099,35.30278],[127.30988,35.30285],[127.31002,35.30287],[127.31003,35.30279]]]}},{"type":"Feature","properties":{"분류":"하천 구역에 걸쳐있는 시설물","용도":"주택"},"geometry":{"type":"Polygon","coordinates":[[[127.30987,35.3028],[127.30977,35.30279],[127.30977,35.3028],[127.30976,35.30284],[127.30988,35.30285],[127.30989,35.30282],[127.30987,35.30282],[127.30987,35.3028]]]}},{"type":"Feature","properties":{"분류":"하천 구역에 걸쳐있는 시설물","용도":"주택"},"geometry":{"type":"Polygon","coordinates":[[[127.32424,35.30501],[127.32417,35.30496],[127.32407,35.30505],[127.32414,35.3051],[127.32424,35.30501]]]}},{"type":"Feature","properties":{"분류":"하천 구역에 걸쳐있는 시설물","용도":"동물및식물관련시설"},"geometry":{"type":"Polygon","coordinates":[[[127.31863,35.30463],[127.31857,35.30433],[127.31826,35.30437],[127.31831,35.30455],[127.31863,35.30463]]]}},{"type":"Feature","properties":{"분류":"하천 구역에 걸쳐있는 시설물","용도":"동물및식물관련시설"},"geometry":{"type":"Polygon","coordinates":[[[127.3187,35.30458],[127.31866,35.30444],[127.31859,35.30445],[127.31863,35.30459],[127.3187,35.30458]]]}},{"type":"Feature","properties":{"분류":"하천 구역에 걸쳐있는 시설물","용도":"주택"},"geometry":{"type":"Polygon","coordinates":[[[127.32426,35.30498],[127.32426,35.30495],[127.3242,35.30496],[127.32421,35.30499],[127.32424,35.30501],[127.32426,35.30498]]]}},{"type":"Feature","properties":{"분류":"하천 구역에 걸쳐있는 시설물","용도":"근린생활시설"},"geometry":{"type":"Polygon","coordinates":[[[127.32397,35.30526],[127.32392,35.30525],[127.32388,35.30529],[127.3239,35.30535],[127.32395,35.30535],[127.32399,35.30532],[127.32397,35.30526]]]}},{"type":"Feature","properties":{"분류":"하천 구역에 걸쳐있는 시설물","용도":"동물및식물관련시설"},"geometry":{"type":"Polygon","coordinates":[[[127.33588,35.32305],[127.33587,35.32305],[127.33589,35.32308],[127.3359,35.32307],[127.33588,35.32305]]]}},{"type":"Feature","properties":{"분류":"하천 구역에 걸쳐있는 시설물","용도":"동물및식물관련시설"},"geometry":{"type":"Polygon","coordinates":[[[127.3262,35.31102],[127.32619,35.311],[127.32617,35.31101],[127.32618,35.31102],[127.3262,35.31102]]]}},{"type":"Feature","properties":{"분류":"하천 구역에 걸쳐있는 시설물","용도":"기타시설"},"geometry":{"type":"Polygon","coordinates":[[[127.32723,35.3182],[127.32722,35.31818],[127.32718,35.3182],[127.32719,35.31821],[127.32723,35.3182]]]}},{"type":"Feature","properties":{"분류":"하천 구역에 걸쳐있는 시설물","용도":"동물및식물관련시설"},"geometry":{"type":"Polygon","coordinates":[[[127.32756,35.31859],[127.32755,35.31856],[127.32749,35.31858],[127.32751,35.31863],[127.32754,35.31863],[127.32752,35.3186],[127.32756,35.31859]]]}},{"type":"Feature","properties":{"분류":"하천 구역에 걸쳐있는 시설물","용도":"동물및식물관련시설"},"geometry":{"type":"Polygon","coordinates":[[[127.3277,35.31871],[127.32764,35.31857],[127.32753,35.3186],[127.3276,35.31874],[127.3277,35.31871]]]}},{"type":"Feature","properties":{"분류":"하천 구역에 걸쳐있는 시설물","용도":"기타시설"},"geometry":{"type":"Polygon","coordinates":[[[127.33147,35.32104],[127.33145,35.32104],[127.33145,35.32107],[127.33147,35.32107],[127.33147,35.32104]]]}},{"type":"Feature","properties":{"분류":"하천 구역에 걸쳐있는 시설물","용도":"근린생활시설"},"geometry":{"type":"Polygon","coordinates":[[[127.3265,35.31969],[127.32649,35.31966],[127.32643,35.31967],[127.32645,35.31971],[127.3265,35.31969]]]}},{"type":"Feature","properties":{"분류":"하천 구역에 걸쳐있는 시설물","용도":"기타시설"},"geometry":{"type":"Polygon","coordinates":[[[127.34093,35.30052],[127.34088,35.30049],[127.34084,35.30052],[127.3409,35.30056],[127.34093,35.30052]]]}},{"type":"Feature","properties":{"분류":"하천 구역에 걸쳐있는 시설물","용도":"근린생활시설"},"geometry":{"type":"Polygon","coordinates":[[[127.33382,35.32101],[127.3337,35.32097],[127.33367,35.32102],[127.3338,35.32105],[127.33382,35.32101]]]}},{"type":"Feature","properties":{"분류":"하천 구역에 걸쳐있는 시설물","용도":"기타시설"},"geometry":{"type":"Polygon","coordinates":[[[127.34265,35.32359],[127.34261,35.3235],[127.34229,35.3236],[127.3423,35.3237],[127.34265,35.32359]]]}},{"type":"Feature","properties":{"분류":"하천 구역에 걸쳐있는 시설물","용도":"기타시설"},"geometry":{"type":"Polygon","coordinates":[[[127.31435,35.33321],[127.31434,35.33313],[127.31428,35.33314],[127.31423,35.33315],[127.31425,35.33325],[127.3143,35.33323],[127.31435,35.33321]]]}},{"type":"Feature","properties":{"분류":"하천 구역에 걸쳐있는 시설물","용도":"기타시설"},"geometry":{"type":"Polygon","coordinates":[[[127.35983,35.32933],[127.35983,35.32931],[127.35977,35.32933],[127.35978,35.32936],[127.35983,35.32933]]]}},{"type":"Feature","properties":{"분류":"하천 구역에 걸쳐있는 시설물","용도":"근린생활시설"},"geometry":{"type":"Polygon","coordinates":[[[127.35904,35.33516],[127.35901,35.33516],[127.35898,35.33523],[127.35901,35.33524],[127.35904,35.33516]]]}},{"type":"Feature","properties":{"분류":"하천 구역에 걸쳐있는 시설물","용도":"기타시설"},"geometry":{"type":"Polygon","coordinates":[[[127.37211,35.33476],[127.37206,35.33476],[127.37206,35.33482],[127.3721,35.33482],[127.37211,35.33476]]]}},{"type":"Feature","properties":{"분류":"하천 구역에 걸쳐있는 시설물","용도":"동물및식물관련시설"},"geometry":{"type":"Polygon","coordinates":[[[127.35,35.3157],[127.35,35.31512],[127.34994,35.31512],[127.34993,35.3157],[127.35,35.3157]]]}},{"type":"Feature","properties":{"분류":"하천 구역에 걸쳐있는 시설물","용도":"기타시설"},"geometry":{"type":"Polygon","coordinates":[[[127.34594,35.31263],[127.3459,35.31264],[127.34591,35.31265],[127.3459,35.31265],[127.3459,35.31266],[127.34586,35.31268],[127.34587,35.3127],[127.34597,35.31267],[127.34594,35.31263]]]}},{"type":"Feature","properties":{"분류":"하천 구역에 걸쳐있는 시설물","용도":"기타시설"},"geometry":{"type":"Polygon","coordinates":[[[127.34603,35.31231],[127.34601,35.31233],[127.34611,35.31246],[127.34615,35.31244],[127.34603,35.31231]]]}},{"type":"Feature","properties":{"분류":"하천 구역에 걸쳐있는 시설물","용도":"기타시설"},"geometry":{"type":"Polygon","coordinates":[[[127.3498,35.31516],[127.3498,35.31512],[127.34976,35.31512],[127.34976,35.31516],[127.3498,35.31516]]]}},{"type":"Feature","properties":{"분류":"하천 구역에 걸쳐있는 시설물","용도":"기타시설"},"geometry":{"type":"Polygon","coordinates":[[[127.3462,35.31251],[127.34619,35.3125],[127.34615,35.31252],[127.34616,35.31253],[127.3462,35.31251]]]}},{"type":"Feature","properties":{"분류":"하천 구역에 걸쳐있는 시설물","용도":"기타시설"},"geometry":{"type":"Polygon","coordinates":[[[127.34626,35.3126],[127.34626,35.31259],[127.34622,35.3126],[127.34623,35.31262],[127.34626,35.3126]]]}},{"type":"Feature","properties":{"분류":"하천 구역에 걸쳐있는 시설물","용도":"근린생활시설"},"geometry":{"type":"Polygon","coordinates":[[[127.34626,35.31258],[127.34621,35.31251],[127.34617,35.31253],[127.34621,35.3126],[127.34626,35.31258]]]}},{"type":"Feature","properties":{"분류":"하천 구역에 걸쳐있는 시설물","용도":"주택"},"geometry":{"type":"Polygon","coordinates":[[[127.34659,35.31259],[127.34656,35.31257],[127.34647,35.31261],[127.34649,35.31264],[127.34659,35.31259]]]}},{"type":"Feature","properties":{"분류":"하천 구역에 걸쳐있는 시설물","용도":"주택"},"geometry":{"type":"Polygon","coordinates":[[[127.3465,35.3129],[127.34648,35.31287],[127.34641,35.3129],[127.34644,35.31293],[127.3465,35.3129]]]}},{"type":"Feature","properties":{"분류":"하천 구역에 걸쳐있는 시설물","용도":"주택"},"geometry":{"type":"Polygon","coordinates":[[[127.3466,35.31306],[127.3465,35.31291],[127.34644,35.31293],[127.34654,35.31308],[127.3466,35.31306]]]}},{"type":"Feature","properties":{"분류":"하천 구역에 걸쳐있는 시설물","용도":"주택"},"geometry":{"type":"Polygon","coordinates":[[[127.34676,35.31322],[127.3467,35.3132],[127.34667,35.31327],[127.34672,35.31333],[127.34676,35.31322]]]}},{"type":"Feature","properties":{"분류":"하천 구역에 걸쳐있는 시설물","용도":"주택"},"geometry":{"type":"Polygon","coordinates":[[[127.34543,35.31189],[127.34538,35.31182],[127.34534,35.31185],[127.34539,35.31192],[127.34543,35.31189]]]}},{"type":"Feature","properties":{"분류":"하천 구역에 걸쳐있는 시설물","용도":"주택"},"geometry":{"type":"Polygon","coordinates":[[[127.3453,35.312],[127.34527,35.31194],[127.3452,35.31196],[127.34523,35.31202],[127.3453,35.312]]]}},{"type":"Feature","properties":{"분류":"하천 구역에 걸쳐있는 시설물","용도":"주택"},"geometry":{"type":"Polygon","coordinates":[[[127.34549,35.31199],[127.34544,35.31191],[127.3454,35.31193],[127.3454,35.31194],[127.34533,35.31196],[127.34536,35.31203],[127.34549,35.31199]]]}},{"type":"Feature","properties":{"분류":"하천 구역에 걸쳐있는 시설물","용도":"동물및식물관련시설"},"geometry":{"type":"Polygon","coordinates":[[[127.34419,35.31328],[127.34391,35.31314],[127.34383,35.31324],[127.34421,35.31342],[127.34424,35.31339],[127.34419,35.31328]]]}},{"type":"Feature","properties":{"분류":"하천 구역에 걸쳐있는 시설물","용도":"주택"},"geometry":{"type":"Polygon","coordinates":[[[127.3456,35.31219],[127.34562,35.31217],[127.34557,35.31209],[127.34551,35.31211],[127.34554,35.31216],[127.34553,35.31216],[127.34555,35.31218],[127.34555,35.31218],[127.34557,35.31221],[127.3456,35.31219]]]}},{"type":"Feature","properties":{"분류":"하천 구역에 걸쳐있는 시설물","용도":"주택"},"geometry":{"type":"Polygon","coordinates":[[[127.34568,35.31225],[127.34565,35.3122],[127.34563,35.31222],[127.34559,35.31228],[127.34562,35.31231],[127.34568,35.31225]]]}},{"type":"Feature","properties":{"분류":"하천 구역에 걸쳐있는 시설물","용도":"주택"},"geometry":{"type":"Polygon","coordinates":[[[127.34587,35.31252],[127.34581,35.31243],[127.34571,35.31248],[127.34577,35.31257],[127.34587,35.31252]]]}},{"type":"Feature","properties":{"분류":"하천 구역에 걸쳐있는 시설물","용도":"주택"},"geometry":{"type":"Polygon","coordinates":[[[127.34604,35.31277],[127.34597,35.31267],[127.34593,35.31268],[127.34599,35.31279],[127.34604,35.31277]]]}},{"type":"Feature","properties":{"분류":"하천 구역에 걸쳐있는 시설물","용도":"주택"},"geometry":{"type":"Polygon","coordinates":[[[127.34593,35.31261],[127.34589,35.31256],[127.34584,35.31259],[127.34587,35.31264],[127.34593,35.31261]]]}},{"type":"Feature","properties":{"분류":"하천 구역에 걸쳐있는 시설물","용도":"주택"},"geometry":{"type":"Polygon","coordinates":[[[127.34633,35.31321],[127.34631,35.31316],[127.3463,35.31316],[127.34628,35.31312],[127.34627,35.31312],[127.34626,35.31311],[127.34618,35.31314],[127.34624,35.31324],[127.34633,35.31321]]]}},{"type":"Feature","properties":{"분류":"하천 구역에 걸쳐있는 시설물","용도":"주택"},"geometry":{"type":"Polygon","coordinates":[[[127.34644,35.31333],[127.34636,35.31322],[127.34631,35.31324],[127.3464,35.31335],[127.34644,35.31333]]]}},{"type":"Feature","properties":{"분류":"하천 구역에 걸쳐있는 시설물","용도":"주택"},"geometry":{"type":"Polygon","coordinates":[[[127.3466,35.31356],[127.34658,35.31353],[127.3465,35.31356],[127.34652,35.31359],[127.3466,35.31356]]]}},{"type":"Feature","properties":{"분류":"하천 구역에 걸쳐있는 시설물","용도":"근린생활시설"},"geometry":{"type":"Polygon","coordinates":[[[127.3349,35.30723],[127.33484,35.30719],[127.33476,35.30729],[127.33482,35.30733],[127.3349,35.30723]]]}},{"type":"Feature","properties":{"분류":"하천 구역에 걸쳐있는 시설물","용도":"근린생활시설"},"geometry":{"type":"Polygon","coordinates":[[[127.34613,35.31222],[127.34605,35.31219],[127.34602,35.31223],[127.3461,35.31227],[127.34613,35.31222]]]}},{"type":"Feature","properties":{"분류":"하천 구역에 걸쳐있는 시설물","용도":"기타시설"},"geometry":{"type":"Polygon","coordinates":[[[127.34579,35.3124],[127.34576,35.31237],[127.34569,35.31241],[127.34573,35.31244],[127.34579,35.3124]]]}},{"type":"Feature","properties":{"분류":"하천 구역에 걸쳐있는 시설물","용도":"주택"},"geometry":{"type":"Polygon","coordinates":[[[127.3458,35.31242],[127.34579,35.31241],[127.34573,35.31244],[127.34574,35.31245],[127.3458,35.31242]]]}},{"type":"Feature","properties":{"분류":"하천 구역에 걸쳐있는 시설물","용도":"주택"},"geometry":{"type":"Polygon","coordinates":[[[127.34531,35.31192],[127.34531,35.31191],[127.34528,35.31192],[127.34529,35.31193],[127.34531,35.31192]]]}},{"type":"Feature","properties":{"분류":"하천 구역에 걸쳐있는 시설물","용도":"주택"},"geometry":{"type":"Polygon","coordinates":[[[127.3452,35.31196],[127.34527,35.31194],[127.34528,35.31195],[127.3453,35.31194],[127.34528,35.31192],[127.3452,35.31195],[127.3452,35.31196]]]}},{"type":"Feature","properties":{"분류":"하천 구역에 걸쳐있는 시설물","용도":"기타시설"},"geometry":{"type":"Polygon","coordinates":[[[127.34677,35.31333],[127.34675,35.3133],[127.34673,35.31333],[127.34675,35.31334],[127.34677,35.31333]]]}},{"type":"Feature","properties":{"분류":"하천 구역에 걸쳐있는 시설물","용도":"근린생활시설"},"geometry":{"type":"Polygon","coordinates":[[[127.34546,35.31069],[127.34544,35.31062],[127.34533,35.31066],[127.34535,35.31072],[127.34546,35.31069]]]}},{"type":"Feature","properties":{"분류":"하천 구역에 걸쳐있는 시설물","용도":"근린생활시설"},"geometry":{"type":"Polygon","coordinates":[[[127.33824,35.30875],[127.33812,35.30873],[127.3381,35.3088],[127.33823,35.30882],[127.33824,35.30875]]]}},{"type":"Feature","properties":{"분류":"하천 구역에 걸쳐있는 시설물","용도":"동물및식물관련시설"},"geometry":{"type":"Polygon","coordinates":[[[127.3487,35.31494],[127.34869,35.31473],[127.34858,35.31473],[127.34859,35.31494],[127.3487,35.31494]]]}},{"type":"Feature","properties":{"분류":"하천 구역에 걸쳐있는 시설물","용도":"동물및식물관련시설"},"geometry":{"type":"Polygon","coordinates":[[[127.34942,35.31483],[127.34877,35.31483],[127.34877,35.31493],[127.34942,35.31493],[127.34942,35.31483]]]}},{"type":"Feature","properties":{"분류":"하천 구역에 걸쳐있는 시설물","용도":"동물및식물관련시설"},"geometry":{"type":"Polygon","coordinates":[[[127.34953,35.31483],[127.34944,35.31483],[127.34943,35.31491],[127.34952,35.31491],[127.34953,35.31483]]]}},{"type":"Feature","properties":{"분류":"하천 구역에 걸쳐있는 시설물","용도":"주택"},"geometry":{"type":"Polygon","coordinates":[[[127.34679,35.31383],[127.34675,35.31377],[127.34668,35.3138],[127.34672,35.31387],[127.34679,35.31383]]]}},{"type":"Feature","properties":{"분류":"하천 구역에 걸쳐있는 시설물","용도":"기타시설"},"geometry":{"type":"Polygon","coordinates":[[[127.34635,35.3132],[127.34627,35.31309],[127.34617,35.31313],[127.34618,35.31314],[127.34626,35.31311],[127.34627,35.31312],[127.34628,35.31312],[127.3463,35.31316],[127.34631,35.31316],[127.34633,35.31321],[127.34635,35.3132]]]}},{"type":"Feature","properties":{"분류":"하천 구역에 걸쳐있는 시설물","용도":"근린생활시설"},"geometry":{"type":"Polygon","coordinates":[[[127.34619,35.31229],[127.34616,35.31227],[127.34615,35.31228],[127.34612,35.31226],[127.34611,35.31227],[127.34615,35.31231],[127.34619,35.31229]]]}},{"type":"Feature","properties":{"분류":"하천 구역에 걸쳐있는 시설물","용도":"동물및식물관련시설"},"geometry":{"type":"Polygon","coordinates":[[[127.35,35.31512],[127.35,35.3157],[127.35011,35.3157],[127.35012,35.31513],[127.35,35.31512]]]}},{"type":"Feature","properties":{"분류":"하천 구역에 걸쳐있는 시설물","용도":"기타시설"},"geometry":{"type":"Polygon","coordinates":[[[127.36251,35.31508],[127.36247,35.31508],[127.36247,35.31509],[127.36251,35.31509],[127.36251,35.31508]]]}},{"type":"Feature","properties":{"분류":"하천 구역에 걸쳐있는 시설물","용도":"기타시설"},"geometry":{"type":"Polygon","coordinates":[[[127.36116,35.31509],[127.36114,35.31507],[127.36112,35.31507],[127.36112,35.3151],[127.36116,35.31509]]]}},{"type":"Feature","properties":{"분류":"하천 구역에 걸쳐있는 시설물","용도":"기타시설"},"geometry":{"type":"Polygon","coordinates":[[[127.36482,35.31453],[127.36474,35.31453],[127.36474,35.31479],[127.36481,35.3148],[127.36482,35.31453]]]}},{"type":"Feature","properties":{"분류":"하천 구역에 걸쳐있는 시설물","용도":"기타시설"},"geometry":{"type":"Polygon","coordinates":[[[127.36473,35.31455],[127.36466,35.31455],[127.36466,35.31475],[127.36473,35.31475],[127.36473,35.31455]]]}},{"type":"Feature","properties":{"분류":"하천 구역에 걸쳐있는 시설물","용도":"동물및식물관련시설"},"geometry":{"type":"Polygon","coordinates":[[[127.35127,35.31528],[127.35121,35.31526],[127.3512,35.31531],[127.35126,35.31531],[127.35127,35.31528]]]}},{"type":"Feature","properties":{"분류":"하천 구역에 걸쳐있는 시설물","용도":"동물및식물관련시설"},"geometry":{"type":"Polygon","coordinates":[[[127.35122,35.31561],[127.35188,35.31554],[127.35188,35.31556],[127.35202,35.31554],[127.35198,35.31528],[127.35174,35.3153],[127.35174,35.3153],[127.35118,35.31535],[127.35122,35.31561]]]}},{"type":"Feature","properties":{"분류":"하천 구역에 걸쳐있는 시설물","용도":"기타시설"},"geometry":{"type":"Polygon","coordinates":[[[127.35967,35.31437],[127.35964,35.31436],[127.35962,35.31439],[127.35965,35.3144],[127.35967,35.31437]]]}},{"type":"Feature","properties":{"분류":"하천 구역에 걸쳐있는 시설물","용도":"기타시설"},"geometry":{"type":"Polygon","coordinates":[[[127.36258,35.31511],[127.36257,35.31507],[127.36251,35.31508],[127.36252,35.31512],[127.36258,35.31511]]]}},{"type":"Feature","properties":{"분류":"하천 구역에 걸쳐있는 시설물","용도":"기타시설"},"geometry":{"type":"Polygon","coordinates":[[[127.36127,35.31503],[127.36121,35.31498],[127.3612,35.31499],[127.36125,35.31504],[127.36116,35.31509],[127.36117,35.3151],[127.36122,35.31509],[127.36127,35.31507],[127.3613,35.31505],[127.36127,35.31503]]]}},{"type":"Feature","properties":{"분류":"하천 구역에 걸쳐있는 시설물","용도":"주택"},"geometry":{"type":"Polygon","coordinates":[[[127.36104,35.31505],[127.36095,35.31505],[127.36095,35.31509],[127.36104,35.3151],[127.36104,35.31505]]]}},{"type":"Feature","properties":{"분류":"하천 구역에 걸쳐있는 시설물","용도":"주택"},"geometry":{"type":"Polygon","coordinates":[[[127.36175,35.31477],[127.36166,35.31475],[127.36166,35.31478],[127.36174,35.3148],[127.36175,35.31477]]]}},{"type":"Feature","properties":{"분류":"하천 구역에 걸쳐있는 시설물","용도":"주택"},"geometry":{"type":"Polygon","coordinates":[[[127.36219,35.31493],[127.36207,35.31489],[127.36207,35.3149],[127.36207,35.31492],[127.36209,35.31495],[127.36213,35.31496],[127.36218,35.31497],[127.36219,35.31493]]]}},{"type":"Feature","properties":{"분류":"하천 구역에 걸쳐있는 시설물","용도":"주택"},"geometry":{"type":"Polygon","coordinates":[[[127.3628,35.31495],[127.36279,35.31489],[127.36274,35.3149],[127.36276,35.31496],[127.3628,35.31495]]]}},{"type":"Feature","properties":{"분류":"하천 구역에 걸쳐있는 시설물","용도":"기타시설"},"geometry":{"type":"Polygon","coordinates":[[[127.36246,35.31502],[127.36246,35.31498],[127.36242,35.31498],[127.36242,35.31502],[127.36246,35.31502]]]}},{"type":"Feature","properties":{"분류":"하천 구역에 걸쳐있는 시설물","용도":"기타시설"},"geometry":{"type":"Polygon","coordinates":[[[127.36189,35.31491],[127.36184,35.31488],[127.36183,35.31491],[127.36186,35.31493],[127.36189,35.31491]]]}},{"type":"Feature","properties":{"분류":"하천 구역에 걸쳐있는 시설물","용도":"주택"},"geometry":{"type":"Polygon","coordinates":[[[127.36112,35.3151],[127.36111,35.31506],[127.36104,35.31507],[127.36105,35.3151],[127.36112,35.3151]]]}},{"type":"Feature","properties":{"분류":"하천 구역에 걸쳐있는 시설물","용도":"근린생활시설"},"geometry":{"type":"Polygon","coordinates":[[[127.36165,35.31488],[127.36163,35.31485],[127.36157,35.31488],[127.36158,35.3149],[127.36165,35.31488]]]}},{"type":"Feature","properties":{"분류":"하천 구역에 걸쳐있는 시설물","용도":"근린생활시설"},"geometry":{"type":"Polygon","coordinates":[[[127.35216,35.31946],[127.35209,35.31938],[127.35205,35.31941],[127.35212,35.31948],[127.35216,35.31946]]]}},{"type":"Feature","properties":{"분류":"하천 구역에 걸쳐있는 시설물","용도":"근린생활시설"},"geometry":{"type":"Polygon","coordinates":[[[127.36184,35.31488],[127.36182,35.31488],[127.3618,35.31492],[127.36182,35.31492],[127.36184,35.31488]]]}},{"type":"Feature","properties":{"분류":"하천 구역에 걸쳐있는 시설물","용도":"근린생활시설"},"geometry":{"type":"Polygon","coordinates":[[[127.36142,35.31502],[127.36136,35.31497],[127.36131,35.31501],[127.36137,35.31505],[127.36142,35.31502]]]}},{"type":"Feature","properties":{"분류":"하천 구역에 걸쳐있는 시설물","용도":"주택"},"geometry":{"type":"Polygon","coordinates":[[[127.35819,35.32215],[127.35805,35.32214],[127.35804,35.32221],[127.35818,35.32222],[127.35819,35.32215]]]}},{"type":"Feature","properties":{"분류":"하천 구역에 걸쳐있는 시설물","용도":"기타시설"},"geometry":{"type":"Polygon","coordinates":[[[127.35749,35.32344],[127.35744,35.32343],[127.35743,35.32348],[127.35748,35.32349],[127.35749,35.32344]]]}}]}