{"type":"FeatureCollection","features":[{"type":"Feature","properties":{"하천등급":"국가하천","하천명":"국가하천"},"geometry":{"type":"Polygon","coordinates":[[[127.30943,35.30631],[127.31067,35.30636],[127.31071,35.30637],[127.31073,35.30647],[127.31079,35.30646],[127.31078,35.30638],[127.31167,35.30648],[127.31175,35.30653],[127.31237,35.30658],[127.31301,35.3068],[127.31359,35.30711],[127.31398,35.30743],[127.31406,35.30739],[127.32007,35.31082],[127.32242,35.31074],[127.32367,35.31079],[127.32504,35.30983],[127.32467,35.30932],[127.32347,35.30741],[127.32217,35.30727],[127.32064,35.30658],[127.31972,35.30638],[127.31621,35.30619],[127.31454,35.30602],[127.3133,35.30531],[127.3112,35.30469],[127.30989,35.30452],[127.30942,35.3045],[127.30943,35.30631]]]}},{"type":"Feature","properties":{"하천등급":"국가하천","하천명":"국가"},"geometry":{"type":"Polygon","coordinates":[[[127.30975,35.33179],[127.30986,35.33102],[127.30987,35.3309],[127.30983,35.33089],[127.31001,35.33031],[127.3102,35.33001],[127.31092,35.32918],[127.31115,35.3288],[127.31144,35.32809],[127.3118,35.32627],[127.31295,35.32185],[127.31311,35.32135],[127.31347,35.32063],[127.31375,35.31996],[127.31369,35.31995],[127.31394,35.31943],[127.31417,35.3191],[127.31776,35.31218],[127.31841,35.3115],[127.31904,35.31112],[127.31927,35.31105],[127.31941,35.31111],[127.31958,35.31094],[127.31969,35.31097],[127.31979,35.31087],[127.32007,35.31082],[127.31422,35.30747],[127.31436,35.30775],[127.31475,35.30827],[127.3149,35.30865],[127.31499,35.30931],[127.31479,35.31019],[127.31484,35.31018],[127.31377,35.31261],[127.31371,35.31264],[127.31356,35.31309],[127.3129,35.31435],[127.31266,35.31499],[127.31256,35.31509],[127.31227,35.31568],[127.31222,35.31566],[127.31206,35.31604],[127.31201,35.31606],[127.31184,35.31658],[127.31186,35.31664],[127.31163,35.31722],[127.31138,35.31765],[127.31085,35.31881],[127.31077,35.31879],[127.31048,35.31942],[127.31051,35.31945],[127.31032,35.31984],[127.31051,35.32007],[127.31055,35.32031],[127.31027,35.32077],[127.31011,35.32086],[127.30995,35.32085],[127.30942,35.32232],[127.30942,35.33219],[127.30975,35.33179]]]}},{"type":"Feature","properties":{"하천등급":"국가하천","하천명":"국가하천"},"geometry":{"type":"Polygon","coordinates":[[[127.30943,35.30631],[127.31067,35.30636],[127.31071,35.30637],[127.31073,35.30647],[127.31079,35.30646],[127.31078,35.30638],[127.31167,35.30648],[127.31175,35.30653],[127.31237,35.30658],[127.31301,35.3068],[127.31359,35.30711],[127.31398,35.30743],[127.31406,35.30739],[127.32007,35.31082],[127.32242,35.31074],[127.32367,35.31079],[127.32504,35.30983],[127.32467,35.30932],[127.32347,35.30741],[127.32217,35.30727],[127.32064,35.30658],[127.31972,35.30638],[127.31621,35.30619],[127.31454,35.30602],[127.3133,35.30531],[127.3112,35.30469],[127.30989,35.30452],[127.30942,35.3045],[127.30943,35.30631]]]}},{"type":"Feature","properties":{"하천등급":"국가하천","하천명":"국가"},"geometry":{"type":"Polygon","coordinates":[[[127.30975,35.33179],[127.30986,35.33102],[127.30987,35.3309],[127.30983,35.33089],[127.31001,35.33031],[127.3102,35.33001],[127.31092,35.32918],[127.31115,35.3288],[127.31144,35.32809],[127.3118,35.32627],[127.31295,35.32185],[127.31311,35.32135],[127.31347,35.32063],[127.31375,35.31996],[127.31369,35.31995],[127.31394,35.31943],[127.31417,35.3191],[127.31776,35.31218],[127.31841,35.3115],[127.31904,35.31112],[127.31927,35.31105],[127.31941,35.31111],[127.31958,35.31094],[127.31969,35.31097],[127.31979,35.31087],[127.32007,35.31082],[127.31422,35.30747],[127.31436,35.30775],[127.31475,35.30827],[127.3149,35.30865],[127.31499,35.30931],[127.31479,35.31019],[127.31484,35.31018],[127.31377,35.31261],[127.31371,35.31264],[127.31356,35.31309],[127.3129,35.31435],[127.31266,35.31499],[127.31256,35.31509],[127.31227,35.31568],[127.31222,35.31566],[127.31206,35.31604],[127.31201,35.31606],[127.31184,35.31658],[127.31186,35.31664],[127.31163,35.31722],[127.31138,35.31765],[127.31085,35.31881],[127.31077,35.31879],[127.31048,35.31942],[127.31051,35.31945],[127.31032,35.31984],[127.31051,35.32007],[127.31055,35.32031],[127.31027,35.32077],[127.31011,35.32086],[127.30995,35.32085],[127.30942,35.32232],[127.30942,35.33219],[127.30975,35.33179]]]}},{"type":"Feature","properties":{"하천등급":"국가하천","하천명":"국가하천"},"geometry":{"type":"Polygon","coordinates":[[[127.30943,35.30631],[127.31067,35.30636],[127.31071,35.30637],[127.31073,35.30647],[127.31079,35.30646],[127.31078,35.30638],[127.31167,35.30648],[127.31175,35.30653],[127.31237,35.30658],[127.31301,35.3068],[127.31359,35.30711],[127.31398,35.30743],[127.31406,35.30739],[127.32007,35.31082],[127.32242,35.31074],[127.32367,35.31079],[127.32504,35.30983],[127.32467,35.30932],[127.32347,35.30741],[127.32217,35.30727],[127.32064,35.30658],[127.31972,35.30638],[127.31621,35.30619],[127.31454,35.30602],[127.3133,35.30531],[127.3112,35.30469],[127.30989,35.30452],[127.30942,35.3045],[127.30943,35.30631]]]}},{"type":"Feature","properties":{"하천등급":"국가하천","하천명":"국가"},"geometry":{"type":"Polygon","coordinates":[[[127.30975,35.33179],[127.30986,35.33102],[127.30987,35.3309],[127.30983,35.33089],[127.31001,35.33031],[127.3102,35.33001],[127.31092,35.32918],[127.31115,35.3288],[127.31144,35.32809],[127.3118,35.32627],[127.31295,35.32185],[127.31311,35.32135],[127.31347,35.32063],[127.31375,35.31996],[127.31369,35.31995],[127.31394,35.31943],[127.31417,35.3191],[127.31776,35.31218],[127.31841,35.3115],[127.31904,35.31112],[127.31927,35.31105],[127.31941,35.31111],[127.31958,35.31094],[127.31969,35.31097],[127.31979,35.31087],[127.32007,35.31082],[127.31422,35.30747],[127.31436,35.30775],[127.31475,35.30827],[127.3149,35.30865],[127.31499,35.30931],[127.31479,35.31019],[127.31484,35.31018],[127.31377,35.31261],[127.31371,35.31264],[127.31356,35.31309],[127.3129,35.31435],[127.31266,35.31499],[127.31256,35.31509],[127.31227,35.31568],[127.31222,35.31566],[127.31206,35.31604],[127.31201,35.31606],[127.31184,35.31658],[127.31186,35.31664],[127.31163,35.31722],[127.31138,35.31765],[127.31085,35.31881],[127.31077,35.31879],[127.31048,35.31942],[127.31051,35.31945],[127.31032,35.31984],[127.31051,35.32007],[127.31055,35.32031],[127.31027,35.32077],[127.31011,35.32086],[127.30995,35.32085],[127.30942,35.32232],[127.30942,35.33219],[127.30975,35.33179]]]}},{"type":"Feature","properties":{"하천등급":"국가하천","하천명":"국가하천"},"geometry":{"type":"Polygon","coordinates":[[[127.30943,35.30631],[127.31067,35.30636],[127.31071,35.30637],[127.31073,35.30647],[127.31079,35.30646],[127.31078,35.30638],[127.31167,35.30648],[127.31175,35.30653],[127.31237,35.30658],[127.31301,35.3068],[127.31359,35.30711],[127.31398,35.30743],[127.31406,35.30739],[127.32007,35.31082],[127.32242,35.31074],[127.32367,35.31079],[127.32504,35.30983],[127.32467,35.30932],[127.32347,35.30741],[127.32217,35.30727],[127.32064,35.30658],[127.31972,35.30638],[127.31621,35.30619],[127.31454,35.30602],[127.3133,35.30531],[127.3112,35.30469],[127.30989,35.30452],[127.30942,35.3045],[127.30943,35.30631]]]}},{"type":"Feature","properties":{"하천등급":"국가하천","하천명":"국가"},"geometry":{"type":"Polygon","coordinates":[[[127.30975,35.33179],[127.30986,35.33102],[127.30987,35.3309],[127.30983,35.33089],[127.31001,35.33031],[127.3102,35.33001],[127.31092,35.32918],[127.31115,35.3288],[127.31144,35.32809],[127.3118,35.32627],[127.31295,35.32185],[127.31311,35.32135],[127.31347,35.32063],[127.31375,35.31996],[127.31369,35.31995],[127.31394,35.31943],[127.31417,35.3191],[127.31776,35.31218],[127.31841,35.3115],[127.31904,35.31112],[127.31927,35.31105],[127.31941,35.31111],[127.31958,35.31094],[127.31969,35.31097],[127.31979,35.31087],[127.32007,35.31082],[127.31422,35.30747],[127.31436,35.30775],[127.31475,35.30827],[127.3149,35.30865],[127.31499,35.30931],[127.31479,35.31019],[127.31484,35.31018],[127.31377,35.31261],[127.31371,35.31264],[127.31356,35.31309],[127.3129,35.31435],[127.31266,35.31499],[127.31256,35.31509],[127.31227,35.31568],[127.31222,35.31566],[127.31206,35.31604],[127.31201,35.31606],[127.31184,35.31658],[127.31186,35.31664],[127.31163,35.31722],[127.31138,35.31765],[127.31085,35.31881],[127.31077,35.31879],[127.31048,35.31942],[127.31051,35.31945],[127.31032,35.31984],[127.31051,35.32007],[127.31055,35.32031],[127.31027,35.32077],[127.31011,35.32086],[127.30995,35.32085],[127.30942,35.32232],[127.30942,35.33219],[127.30975,35.33179]]]}},{"type":"Feature","properties":{"하천등급":"국가하천","하천명":"국가하천"},"geometry":{"type":"Polygon","coordinates":[[[127.30943,35.30631],[127.31067,35.30636],[127.31071,35.30637],[127.31073,35.30647],[127.31079,35.30646],[127.31078,35.30638],[127.31167,35.30648],[127.31175,35.30653],[127.31237,35.30658],[127.31301,35.3068],[127.31359,35.30711],[127.31398,35.30743],[127.31406,35.30739],[127.32007,35.31082],[127.32242,35.31074],[127.32367,35.31079],[127.32504,35.30983],[127.32467,35.30932],[127.32347,35.30741],[127.32217,35.30727],[127.32064,35.30658],[127.31972,35.30638],[127.31621,35.30619],[127.31454,35.30602],[127.3133,35.30531],[127.3112,35.30469],[127.30989,35.30452],[127.30942,35.3045],[127.30943,35.30631]]]}},{"type":"Feature","properties":{"하천등급":"국가하천","하천명":"국가"},"geometry":{"type":"Polygon","coordinates":[[[127.30975,35.33179],[127.30986,35.33102],[127.30987,35.3309],[127.30983,35.33089],[127.31001,35.33031],[127.3102,35.33001],[127.31092,35.32918],[127.31115,35.3288],[127.31144,35.32809],[127.3118,35.32627],[127.31295,35.32185],[127.31311,35.32135],[127.31347,35.32063],[127.31375,35.31996],[127.31369,35.31995],[127.31394,35.31943],[127.31417,35.3191],[127.31776,35.31218],[127.31841,35.3115],[127.31904,35.31112],[127.31927,35.31105],[127.31941,35.31111],[127.31958,35.31094],[127.31969,35.31097],[127.31979,35.31087],[127.32007,35.31082],[127.31422,35.30747],[127.31436,35.30775],[127.31475,35.30827],[127.3149,35.30865],[127.31499,35.30931],[127.31479,35.31019],[127.31484,35.31018],[127.31377,35.31261],[127.31371,35.31264],[127.31356,35.31309],[127.3129,35.31435],[127.31266,35.31499],[127.31256,35.31509],[127.31227,35.31568],[127.31222,35.31566],[127.31206,35.31604],[127.31201,35.31606],[127.31184,35.31658],[127.31186,35.31664],[127.31163,35.31722],[127.31138,35.31765],[127.31085,35.31881],[127.31077,35.31879],[127.31048,35.31942],[127.31051,35.31945],[127.31032,35.31984],[127.31051,35.32007],[127.31055,35.32031],[127.31027,35.32077],[127.31011,35.32086],[127.30995,35.32085],[127.30942,35.32232],[127.30942,35.33219],[127.30975,35.33179]]]}},{"type":"Feature","properties":{"하천등급":"국가하천","하천명":"국가하천"},"geometry":{"type":"Polygon","coordinates":[[[127.30943,35.30631],[127.31067,35.30636],[127.31071,35.30637],[127.31073,35.30647],[127.31079,35.30646],[127.31078,35.30638],[127.31167,35.30648],[127.31175,35.30653],[127.31237,35.30658],[127.31301,35.3068],[127.31359,35.30711],[127.31398,35.30743],[127.31406,35.30739],[127.32007,35.31082],[127.32242,35.31074],[127.32367,35.31079],[127.32504,35.30983],[127.32467,35.30932],[127.32347,35.30741],[127.32217,35.30727],[127.32064,35.30658],[127.31972,35.30638],[127.31621,35.30619],[127.31454,35.30602],[127.3133,35.30531],[127.3112,35.30469],[127.30989,35.30452],[127.30942,35.3045],[127.30943,35.30631]]]}},{"type":"Feature","properties":{"하천등급":"국가하천","하천명":"국가"},"geometry":{"type":"Polygon","coordinates":[[[127.30975,35.33179],[127.30986,35.33102],[127.30987,35.3309],[127.30983,35.33089],[127.31001,35.33031],[127.3102,35.33001],[127.31092,35.32918],[127.31115,35.3288],[127.31144,35.32809],[127.3118,35.32627],[127.31295,35.32185],[127.31311,35.32135],[127.31347,35.32063],[127.31375,35.31996],[127.31369,35.31995],[127.31394,35.31943],[127.31417,35.3191],[127.31776,35.31218],[127.31841,35.3115],[127.31904,35.31112],[127.31927,35.31105],[127.31941,35.31111],[127.31958,35.31094],[127.31969,35.31097],[127.31979,35.31087],[127.32007,35.31082],[127.31422,35.30747],[127.31436,35.30775],[127.31475,35.30827],[127.3149,35.30865],[127.31499,35.30931],[127.31479,35.31019],[127.31484,35.31018],[127.31377,35.31261],[127.31371,35.31264],[127.31356,35.31309],[127.3129,35.31435],[127.31266,35.31499],[127.31256,35.31509],[127.31227,35.31568],[127.31222,35.31566],[127.31206,35.31604],[127.31201,35.31606],[127.31184,35.31658],[127.31186,35.31664],[127.31163,35.31722],[127.31138,35.31765],[127.31085,35.31881],[127.31077,35.31879],[127.31048,35.31942],[127.31051,35.31945],[127.31032,35.31984],[127.31051,35.32007],[127.31055,35.32031],[127.31027,35.32077],[127.31011,35.32086],[127.30995,35.32085],[127.30942,35.32232],[127.30942,35.33219],[127.30975,35.33179]]]}},{"type":"Feature","properties":{"하천등급":"국가하천","하천명":"국가하천"},"geometry":{"type":"Polygon","coordinates":[[[127.30943,35.30631],[127.31067,35.30636],[127.31071,35.30637],[127.31073,35.30647],[127.31079,35.30646],[127.31078,35.30638],[127.31167,35.30648],[127.31175,35.30653],[127.31237,35.30658],[127.31301,35.3068],[127.31359,35.30711],[127.31398,35.30743],[127.31406,35.30739],[127.32007,35.31082],[127.32242,35.31074],[127.32367,35.31079],[127.32504,35.30983],[127.32467,35.30932],[127.32347,35.30741],[127.32217,35.30727],[127.32064,35.30658],[127.31972,35.30638],[127.31621,35.30619],[127.31454,35.30602],[127.3133,35.30531],[127.3112,35.30469],[127.30989,35.30452],[127.30942,35.3045],[127.30943,35.30631]]]}},{"type":"Feature","properties":{"하천등급":"국가하천","하천명":"국가"},"geometry":{"type":"Polygon","coordinates":[[[127.30975,35.33179],[127.30986,35.33102],[127.30987,35.3309],[127.30983,35.33089],[127.31001,35.33031],[127.3102,35.33001],[127.31092,35.32918],[127.31115,35.3288],[127.31144,35.32809],[127.3118,35.32627],[127.31295,35.32185],[127.31311,35.32135],[127.31347,35.32063],[127.31375,35.31996],[127.31369,35.31995],[127.31394,35.31943],[127.31417,35.3191],[127.31776,35.31218],[127.31841,35.3115],[127.31904,35.31112],[127.31927,35.31105],[127.31941,35.31111],[127.31958,35.31094],[127.31969,35.31097],[127.31979,35.31087],[127.32007,35.31082],[127.31422,35.30747],[127.31436,35.30775],[127.31475,35.30827],[127.3149,35.30865],[127.31499,35.30931],[127.31479,35.31019],[127.31484,35.31018],[127.31377,35.31261],[127.31371,35.31264],[127.31356,35.31309],[127.3129,35.31435],[127.31266,35.31499],[127.31256,35.31509],[127.31227,35.31568],[127.31222,35.31566],[127.31206,35.31604],[127.31201,35.31606],[127.31184,35.31658],[127.31186,35.31664],[127.31163,35.31722],[127.31138,35.31765],[127.31085,35.31881],[127.31077,35.31879],[127.31048,35.31942],[127.31051,35.31945],[127.31032,35.31984],[127.31051,35.32007],[127.31055,35.32031],[127.31027,35.32077],[127.31011,35.32086],[127.30995,35.32085],[127.30942,35.32232],[127.30942,35.33219],[127.30975,35.33179]]]}},{"type":"Feature","properties":{"하천등급":"국가하천","하천명":"국가하천"},"geometry":{"type":"Polygon","coordinates":[[[127.30943,35.30631],[127.31067,35.30636],[127.31071,35.30637],[127.31073,35.30647],[127.31079,35.30646],[127.31078,35.30638],[127.31167,35.30648],[127.31175,35.30653],[127.31237,35.30658],[127.31301,35.3068],[127.31359,35.30711],[127.31398,35.30743],[127.31406,35.30739],[127.32007,35.31082],[127.32242,35.31074],[127.32367,35.31079],[127.32504,35.30983],[127.32467,35.30932],[127.32347,35.30741],[127.32217,35.30727],[127.32064,35.30658],[127.31972,35.30638],[127.31621,35.30619],[127.31454,35.30602],[127.3133,35.30531],[127.3112,35.30469],[127.30989,35.30452],[127.30942,35.3045],[127.30943,35.30631]]]}},{"type":"Feature","properties":{"하천등급":"국가하천","하천명":"국가"},"geometry":{"type":"Polygon","coordinates":[[[127.30975,35.33179],[127.30986,35.33102],[127.30987,35.3309],[127.30983,35.33089],[127.31001,35.33031],[127.3102,35.33001],[127.31092,35.32918],[127.31115,35.3288],[127.31144,35.32809],[127.3118,35.32627],[127.31295,35.32185],[127.31311,35.32135],[127.31347,35.32063],[127.31375,35.31996],[127.31369,35.31995],[127.31394,35.31943],[127.31417,35.3191],[127.31776,35.31218],[127.31841,35.3115],[127.31904,35.31112],[127.31927,35.31105],[127.31941,35.31111],[127.31958,35.31094],[127.31969,35.31097],[127.31979,35.31087],[127.32007,35.31082],[127.31422,35.30747],[127.31436,35.30775],[127.31475,35.30827],[127.3149,35.30865],[127.31499,35.30931],[127.31479,35.31019],[127.31484,35.31018],[127.31377,35.31261],[127.31371,35.31264],[127.31356,35.31309],[127.3129,35.31435],[127.31266,35.31499],[127.31256,35.31509],[127.31227,35.31568],[127.31222,35.31566],[127.31206,35.31604],[127.31201,35.31606],[127.31184,35.31658],[127.31186,35.31664],[127.31163,35.31722],[127.31138,35.31765],[127.31085,35.31881],[127.31077,35.31879],[127.31048,35.31942],[127.31051,35.31945],[127.31032,35.31984],[127.31051,35.32007],[127.31055,35.32031],[127.31027,35.32077],[127.31011,35.32086],[127.30995,35.32085],[127.30942,35.32232],[127.30942,35.33219],[127.30975,35.33179]]]}},{"type":"Feature","properties":{"하천등급":"지방하천","하천명":""},"geometry":{"type":"Polygon","coordinates":[[[127.30987,35.3045],[127.31122,35.30468],[127.31332,35.30531],[127.31453,35.30601],[127.3162,35.30618],[127.31971,35.30639],[127.32059,35.30658],[127.32214,35.30727],[127.32346,35.30741],[127.32451,35.3091],[127.32503,35.30983],[127.3253,35.30966],[127.32527,35.3095],[127.32531,35.30918],[127.3256,35.30857],[127.32642,35.30778],[127.32661,35.30752],[127.32686,35.30733],[127.32691,35.30737],[127.32763,35.30673],[127.32816,35.30619],[127.3283,35.30589],[127.32836,35.30568],[127.32837,35.30539],[127.3283,35.30537],[127.3282,35.30524],[127.32819,35.30499],[127.32822,35.30478],[127.32832,35.30455],[127.32834,35.30428],[127.3284,35.30421],[127.32838,35.30414],[127.32828,35.30407],[127.32811,35.30404],[127.3281,35.30372],[127.3277,35.30335],[127.32763,35.3032],[127.32763,35.30304],[127.32775,35.30285],[127.32829,35.30254],[127.32853,35.30231],[127.3287,35.30135],[127.32876,35.30131],[127.32882,35.30074],[127.329,35.30023],[127.32931,35.29963],[127.32959,35.29849],[127.32964,35.29818],[127.32955,35.29805],[127.32965,35.29708],[127.32979,35.29682],[127.32969,35.29664],[127.32977,35.29599],[127.32987,35.29582],[127.3298,35.29581],[127.32984,35.29531],[127.32995,35.29488],[127.33004,35.29483],[127.32997,35.29476],[127.33002,35.29465],[127.33008,35.29467],[127.33014,35.29453],[127.33017,35.29454],[127.33025,35.29426],[127.33031,35.29424],[127.33032,35.29419],[127.33026,35.29418],[127.33029,35.29404],[127.33044,35.29406],[127.33048,35.29392],[127.33067,35.29397],[127.33068,35.29394],[127.33043,35.29385],[127.3305,35.29359],[127.33057,35.2936],[127.33072,35.29326],[127.33088,35.29307],[127.33097,35.29272],[127.33149,35.29156],[127.3317,35.29133],[127.33169,35.29119],[127.33195,35.29064],[127.33208,35.29063],[127.3321,35.29059],[127.33212,35.29053],[127.33206,35.29047],[127.33231,35.28957],[127.33226,35.28949],[127.33244,35.28836],[127.32617,35.28836],[127.32617,35.28881],[127.32639,35.2896],[127.32638,35.28989],[127.32625,35.29029],[127.32613,35.29036],[127.32605,35.29072],[127.32606,35.29094],[127.32611,35.29094],[127.32586,35.29298],[127.32596,35.29298],[127.3259,35.29335],[127.32582,35.29334],[127.32527,35.29788],[127.32518,35.29851],[127.3251,35.29875],[127.32517,35.29917],[127.32508,35.30004],[127.32506,35.30139],[127.32495,35.30245],[127.32493,35.30339],[127.3248,35.30388],[127.32422,35.30503],[127.32397,35.30524],[127.32402,35.30527],[127.3237,35.30552],[127.32372,35.30556],[127.32367,35.3056],[127.32353,35.30566],[127.32279,35.30576],[127.32255,35.30574],[127.32235,35.30567],[127.32237,35.30556],[127.3222,35.30509],[127.32208,35.30521],[127.32199,35.30521],[127.31937,35.3046],[127.3194,35.30471],[127.31926,35.30472],[127.31726,35.30421],[127.31703,35.30414],[127.317,35.30407],[127.31657,35.30403],[127.3153,35.30362],[127.31425,35.30336],[127.31351,35.30322],[127.31339,35.30324],[127.31084,35.30289],[127.30992,35.30283],[127.30975,35.30277],[127.30942,35.30278],[127.30942,35.30449],[127.30987,35.3045]]]}},{"type":"Feature","properties":{"하천등급":"지방하천","하천명":""},"geometry":{"type":"Polygon","coordinates":[[[127.32956,35.29805],[127.32964,35.29818],[127.32959,35.29847],[127.33026,35.29845],[127.33094,35.29861],[127.33131,35.29874],[127.33237,35.2993],[127.33273,35.29932],[127.33315,35.29925],[127.33373,35.29871],[127.33401,35.2986],[127.33461,35.29857],[127.3349,35.29868],[127.33531,35.29902],[127.33536,35.299],[127.33549,35.29906],[127.33602,35.29947],[127.33641,35.29957],[127.33645,35.29949],[127.33642,35.29946],[127.3369,35.29922],[127.33738,35.29871],[127.33788,35.29905],[127.3383,35.29943],[127.33858,35.29954],[127.33972,35.29957],[127.33992,35.29964],[127.34057,35.30034],[127.34162,35.30103],[127.34247,35.30166],[127.34285,35.30177],[127.34333,35.30183],[127.34363,35.30174],[127.34398,35.30144],[127.34421,35.30134],[127.34475,35.30125],[127.34519,35.30136],[127.34728,35.30327],[127.34773,35.3034],[127.34833,35.30379],[127.34905,35.30465],[127.34954,35.30483],[127.34987,35.30484],[127.3498,35.30481],[127.3498,35.30474],[127.34987,35.3047],[127.34983,35.30462],[127.34947,35.30456],[127.34921,35.30443],[127.34865,35.30378],[127.34844,35.30361],[127.34781,35.30323],[127.34743,35.30311],[127.34738,35.30302],[127.34706,35.30277],[127.34703,35.30269],[127.34616,35.30192],[127.34543,35.30119],[127.34471,35.30104],[127.34417,35.30111],[127.34388,35.30122],[127.3436,35.30148],[127.34331,35.3016],[127.34245,35.30144],[127.34193,35.30108],[127.34171,35.30086],[127.34066,35.30013],[127.34009,35.29937],[127.33978,35.29926],[127.3387,35.29922],[127.3385,35.29913],[127.33756,35.29846],[127.33731,35.29842],[127.3371,35.2985],[127.33667,35.29901],[127.33624,35.29921],[127.33612,35.29918],[127.33565,35.29888],[127.3354,35.29866],[127.33505,35.29845],[127.33471,35.29832],[127.33409,35.2983],[127.33372,35.29837],[127.33344,35.29851],[127.3328,35.29901],[127.33256,35.29901],[127.33221,35.29867],[127.33108,35.29812],[127.33044,35.29797],[127.32956,35.29794],[127.32956,35.29805]]]}},{"type":"Feature","properties":{"하천등급":"지방하천","하천명":""},"geometry":{"type":"Polygon","coordinates":[[[127.36036,35.33427],[127.36026,35.33422],[127.36026,35.33417],[127.35988,35.33407],[127.35983,35.33399],[127.35918,35.33378],[127.35858,35.3335],[127.35831,35.33326],[127.35809,35.33291],[127.35811,35.33264],[127.35825,35.33239],[127.3585,35.33212],[127.35847,35.33206],[127.35853,35.332],[127.35859,35.33205],[127.35944,35.33111],[127.35934,35.33106],[127.35939,35.33097],[127.35959,35.33096],[127.35985,35.33017],[127.35989,35.32976],[127.35982,35.32976],[127.35974,35.32938],[127.35977,35.32933],[127.35991,35.32931],[127.35993,35.32905],[127.35965,35.32883],[127.35949,35.32849],[127.35927,35.32838],[127.35838,35.32808],[127.35827,35.32799],[127.35781,35.3279],[127.35771,35.32784],[127.35757,35.32785],[127.35723,35.32773],[127.35719,35.32767],[127.35676,35.3276],[127.35366,35.32719],[127.35208,35.32729],[127.35147,35.32726],[127.35002,35.32689],[127.3498,35.3269],[127.34939,35.32667],[127.34891,35.32649],[127.34856,35.32622],[127.34851,35.32633],[127.34846,35.3263],[127.34848,35.32625],[127.34774,35.32574],[127.34767,35.32568],[127.34768,35.32563],[127.34571,35.32422],[127.3456,35.32418],[127.34546,35.32403],[127.34533,35.32401],[127.3452,35.32387],[127.34462,35.32357],[127.34398,35.32342],[127.34323,35.32342],[127.34273,35.32351],[127.34231,35.32371],[127.34184,35.3238],[127.34098,35.32414],[127.34014,35.32431],[127.33919,35.32456],[127.33904,35.32464],[127.33888,35.32465],[127.33887,35.32469],[127.3378,35.32455],[127.3373,35.32434],[127.33659,35.32388],[127.33612,35.32341],[127.33496,35.32183],[127.33461,35.32151],[127.33417,35.32122],[127.33365,35.321],[127.33361,35.32092],[127.33294,35.32069],[127.33018,35.32008],[127.32914,35.31966],[127.3279,35.31896],[127.32726,35.31831],[127.3271,35.31805],[127.32698,35.31773],[127.32678,35.31744],[127.32683,35.31725],[127.32672,35.31676],[127.32675,35.31645],[127.3271,35.31541],[127.32725,35.31516],[127.32723,35.31506],[127.32734,35.3147],[127.32745,35.31399],[127.32743,35.31357],[127.32734,35.31319],[127.32724,35.31297],[127.32718,35.31294],[127.32722,35.31272],[127.32714,35.31256],[127.327,35.3125],[127.32696,35.31242],[127.32688,35.31216],[127.32689,35.31197],[127.32681,35.31189],[127.32678,35.31177],[127.32619,35.31106],[127.32596,35.31066],[127.32581,35.31065],[127.32564,35.31043],[127.32558,35.31047],[127.32504,35.30983],[127.32367,35.31079],[127.32389,35.31091],[127.32381,35.31099],[127.32499,35.31195],[127.32542,35.31252],[127.32572,35.31314],[127.32589,35.31379],[127.32591,35.3148],[127.32525,35.3168],[127.32524,35.31714],[127.32537,35.31717],[127.32595,35.3186],[127.32605,35.31873],[127.32626,35.31934],[127.32648,35.31971],[127.32689,35.31963],[127.32685,35.31948],[127.32694,35.31935],[127.32702,35.31932],[127.32737,35.31946],[127.32751,35.31961],[127.32813,35.32004],[127.32964,35.32067],[127.3326,35.32127],[127.33362,35.32169],[127.33373,35.32171],[127.33376,35.32164],[127.33384,35.32169],[127.33382,35.32181],[127.33431,35.32216],[127.33467,35.32257],[127.33476,35.32259],[127.33475,35.32264],[127.3356,35.32388],[127.33606,35.32442],[127.33665,35.32484],[127.33666,35.32481],[127.33703,35.32505],[127.33775,35.32532],[127.33833,35.32539],[127.33885,35.32539],[127.33886,35.3253],[127.33915,35.32532],[127.34144,35.32478],[127.3415,35.32472],[127.34273,35.32434],[127.34364,35.32429],[127.34391,35.32433],[127.34445,35.32448],[127.345,35.32471],[127.3472,35.32627],[127.34751,35.32636],[127.34779,35.32653],[127.34835,35.32688],[127.34874,35.32721],[127.3488,35.32718],[127.34896,35.32728],[127.34934,35.32738],[127.34939,35.32747],[127.34957,35.32744],[127.35063,35.32776],[127.3516,35.32787],[127.35176,35.32796],[127.35374,35.32788],[127.35381,35.32784],[127.35494,35.32796],[127.35735,35.32838],[127.3585,35.32872],[127.35871,35.32883],[127.35887,35.32912],[127.35891,35.32912],[127.35907,35.32951],[127.35911,35.32975],[127.35909,35.3301],[127.35893,35.33054],[127.35865,35.33084],[127.35877,35.33091],[127.35872,35.33099],[127.35857,35.33101],[127.35853,35.33113],[127.35818,35.33161],[127.35822,35.33166],[127.35812,35.33176],[127.35813,35.33191],[127.35792,35.33214],[127.35773,35.33256],[127.3576,35.33318],[127.35767,35.33348],[127.35773,35.33346],[127.35778,35.33352],[127.35775,35.33362],[127.35809,35.33388],[127.35865,35.33419],[127.35926,35.33439],[127.35954,35.33445],[127.35957,35.33439],[127.35962,35.3344],[127.35959,35.33447],[127.35968,35.33452],[127.36069,35.33488],[127.36077,35.33487],[127.36101,35.335],[127.3613,35.3352],[127.36163,35.33552],[127.36168,35.33549],[127.36174,35.33554],[127.36167,35.3356],[127.36219,35.33604],[127.36255,35.33626],[127.36314,35.33648],[127.36392,35.33663],[127.36471,35.33689],[127.36598,35.33749],[127.36653,35.33784],[127.36719,35.33836],[127.36816,35.33836],[127.36781,35.33815],[127.36655,35.33718],[127.36614,35.33695],[127.3661,35.33697],[127.36592,35.33688],[127.36596,35.33682],[127.36466,35.33625],[127.36299,35.33584],[127.36266,35.33566],[127.36207,35.33511],[127.36138,35.33459],[127.36123,35.33453],[127.3612,35.33457],[127.36036,35.33427]]]}},{"type":"Feature","properties":{"하천등급":"지방하천","하천명":""},"geometry":{"type":"Polygon","coordinates":[[[127.30987,35.3045],[127.31122,35.30468],[127.31332,35.30531],[127.31453,35.30601],[127.3162,35.30618],[127.31971,35.30639],[127.32059,35.30658],[127.32214,35.30727],[127.32346,35.30741],[127.32451,35.3091],[127.32503,35.30983],[127.3253,35.30966],[127.32527,35.3095],[127.32531,35.30918],[127.3256,35.30857],[127.32642,35.30778],[127.32661,35.30752],[127.32686,35.30733],[127.32691,35.30737],[127.32763,35.30673],[127.32816,35.30619],[127.3283,35.30589],[127.32836,35.30568],[127.32837,35.30539],[127.3283,35.30537],[127.3282,35.30524],[127.32819,35.30499],[127.32822,35.30478],[127.32832,35.30455],[127.32834,35.30428],[127.3284,35.30421],[127.32838,35.30414],[127.32828,35.30407],[127.32811,35.30404],[127.3281,35.30372],[127.3277,35.30335],[127.32763,35.3032],[127.32763,35.30304],[127.32775,35.30285],[127.32829,35.30254],[127.32853,35.30231],[127.3287,35.30135],[127.32876,35.30131],[127.32882,35.30074],[127.329,35.30023],[127.32931,35.29963],[127.32959,35.29849],[127.32964,35.29818],[127.32955,35.29805],[127.32965,35.29708],[127.32979,35.29682],[127.32969,35.29664],[127.32977,35.29599],[127.32987,35.29582],[127.3298,35.29581],[127.32984,35.29531],[127.32995,35.29488],[127.33004,35.29483],[127.32997,35.29476],[127.33002,35.29465],[127.33008,35.29467],[127.33014,35.29453],[127.33017,35.29454],[127.33025,35.29426],[127.33031,35.29424],[127.33032,35.29419],[127.33026,35.29418],[127.33029,35.29404],[127.33044,35.29406],[127.33048,35.29392],[127.33067,35.29397],[127.33068,35.29394],[127.33043,35.29385],[127.3305,35.29359],[127.33057,35.2936],[127.33072,35.29326],[127.33088,35.29307],[127.33097,35.29272],[127.33149,35.29156],[127.3317,35.29133],[127.33169,35.29119],[127.33195,35.29064],[127.33208,35.29063],[127.3321,35.29059],[127.33212,35.29053],[127.33206,35.29047],[127.33231,35.28957],[127.33226,35.28949],[127.33244,35.28836],[127.32617,35.28836],[127.32617,35.28881],[127.32639,35.2896],[127.32638,35.28989],[127.32625,35.29029],[127.32613,35.29036],[127.32605,35.29072],[127.32606,35.29094],[127.32611,35.29094],[127.32586,35.29298],[127.32596,35.29298],[127.3259,35.29335],[127.32582,35.29334],[127.32527,35.29788],[127.32518,35.29851],[127.3251,35.29875],[127.32517,35.29917],[127.32508,35.30004],[127.32506,35.30139],[127.32495,35.30245],[127.32493,35.30339],[127.3248,35.30388],[127.32422,35.30503],[127.32397,35.30524],[127.32402,35.30527],[127.3237,35.30552],[127.32372,35.30556],[127.32367,35.3056],[127.32353,35.30566],[127.32279,35.30576],[127.32255,35.30574],[127.32235,35.30567],[127.32237,35.30556],[127.3222,35.30509],[127.32208,35.30521],[127.32199,35.30521],[127.31937,35.3046],[127.3194,35.30471],[127.31926,35.30472],[127.31726,35.30421],[127.31703,35.30414],[127.317,35.30407],[127.31657,35.30403],[127.3153,35.30362],[127.31425,35.30336],[127.31351,35.30322],[127.31339,35.30324],[127.31084,35.30289],[127.30992,35.30283],[127.30975,35.30277],[127.30942,35.30278],[127.30942,35.30449],[127.30987,35.3045]]]}},{"type":"Feature","properties":{"하천등급":"지방하천","하천명":""},"geometry":{"type":"Polygon","coordinates":[[[127.32956,35.29805],[127.32964,35.29818],[127.32959,35.29847],[127.33026,35.29845],[127.33094,35.29861],[127.33131,35.29874],[127.33237,35.2993],[127.33273,35.29932],[127.33315,35.29925],[127.33373,35.29871],[127.33401,35.2986],[127.33461,35.29857],[127.3349,35.29868],[127.33531,35.29902],[127.33536,35.299],[127.33549,35.29906],[127.33602,35.29947],[127.33641,35.29957],[127.33645,35.29949],[127.33642,35.29946],[127.3369,35.29922],[127.33738,35.29871],[127.33788,35.29905],[127.3383,35.29943],[127.33858,35.29954],[127.33972,35.29957],[127.33992,35.29964],[127.34057,35.30034],[127.34162,35.30103],[127.34247,35.30166],[127.34285,35.30177],[127.34333,35.30183],[127.34363,35.30174],[127.34398,35.30144],[127.34421,35.30134],[127.34475,35.30125],[127.34519,35.30136],[127.34728,35.30327],[127.34773,35.3034],[127.34833,35.30379],[127.34905,35.30465],[127.34954,35.30483],[127.34987,35.30484],[127.3498,35.30481],[127.3498,35.30474],[127.34987,35.3047],[127.34983,35.30462],[127.34947,35.30456],[127.34921,35.30443],[127.34865,35.30378],[127.34844,35.30361],[127.34781,35.30323],[127.34743,35.30311],[127.34738,35.30302],[127.34706,35.30277],[127.34703,35.30269],[127.34616,35.30192],[127.34543,35.30119],[127.34471,35.30104],[127.34417,35.30111],[127.34388,35.30122],[127.3436,35.30148],[127.34331,35.3016],[127.34245,35.30144],[127.34193,35.30108],[127.34171,35.30086],[127.34066,35.30013],[127.34009,35.29937],[127.33978,35.29926],[127.3387,35.29922],[127.3385,35.29913],[127.33756,35.29846],[127.33731,35.29842],[127.3371,35.2985],[127.33667,35.29901],[127.33624,35.29921],[127.33612,35.29918],[127.33565,35.29888],[127.3354,35.29866],[127.33505,35.29845],[127.33471,35.29832],[127.33409,35.2983],[127.33372,35.29837],[127.33344,35.29851],[127.3328,35.29901],[127.33256,35.29901],[127.33221,35.29867],[127.33108,35.29812],[127.33044,35.29797],[127.32956,35.29794],[127.32956,35.29805]]]}},{"type":"Feature","properties":{"하천등급":"지방하천","하천명":""},"geometry":{"type":"Polygon","coordinates":[[[127.36036,35.33427],[127.36026,35.33422],[127.36026,35.33417],[127.35988,35.33407],[127.35983,35.33399],[127.35918,35.33378],[127.35858,35.3335],[127.35831,35.33326],[127.35809,35.33291],[127.35811,35.33264],[127.35825,35.33239],[127.3585,35.33212],[127.35847,35.33206],[127.35853,35.332],[127.35859,35.33205],[127.35944,35.33111],[127.35934,35.33106],[127.35939,35.33097],[127.35959,35.33096],[127.35985,35.33017],[127.35989,35.32976],[127.35982,35.32976],[127.35974,35.32938],[127.35977,35.32933],[127.35991,35.32931],[127.35993,35.32905],[127.35965,35.32883],[127.35949,35.32849],[127.35927,35.32838],[127.35838,35.32808],[127.35827,35.32799],[127.35781,35.3279],[127.35771,35.32784],[127.35757,35.32785],[127.35723,35.32773],[127.35719,35.32767],[127.35676,35.3276],[127.35366,35.32719],[127.35208,35.32729],[127.35147,35.32726],[127.35002,35.32689],[127.3498,35.3269],[127.34939,35.32667],[127.34891,35.32649],[127.34856,35.32622],[127.34851,35.32633],[127.34846,35.3263],[127.34848,35.32625],[127.34774,35.32574],[127.34767,35.32568],[127.34768,35.32563],[127.34571,35.32422],[127.3456,35.32418],[127.34546,35.32403],[127.34533,35.32401],[127.3452,35.32387],[127.34462,35.32357],[127.34398,35.32342],[127.34323,35.32342],[127.34273,35.32351],[127.34231,35.32371],[127.34184,35.3238],[127.34098,35.32414],[127.34014,35.32431],[127.33919,35.32456],[127.33904,35.32464],[127.33888,35.32465],[127.33887,35.32469],[127.3378,35.32455],[127.3373,35.32434],[127.33659,35.32388],[127.33612,35.32341],[127.33496,35.32183],[127.33461,35.32151],[127.33417,35.32122],[127.33365,35.321],[127.33361,35.32092],[127.33294,35.32069],[127.33018,35.32008],[127.32914,35.31966],[127.3279,35.31896],[127.32726,35.31831],[127.3271,35.31805],[127.32698,35.31773],[127.32678,35.31744],[127.32683,35.31725],[127.32672,35.31676],[127.32675,35.31645],[127.3271,35.31541],[127.32725,35.31516],[127.32723,35.31506],[127.32734,35.3147],[127.32745,35.31399],[127.32743,35.31357],[127.32734,35.31319],[127.32724,35.31297],[127.32718,35.31294],[127.32722,35.31272],[127.32714,35.31256],[127.327,35.3125],[127.32696,35.31242],[127.32688,35.31216],[127.32689,35.31197],[127.32681,35.31189],[127.32678,35.31177],[127.32619,35.31106],[127.32596,35.31066],[127.32581,35.31065],[127.32564,35.31043],[127.32558,35.31047],[127.32504,35.30983],[127.32367,35.31079],[127.32389,35.31091],[127.32381,35.31099],[127.32499,35.31195],[127.32542,35.31252],[127.32572,35.31314],[127.32589,35.31379],[127.32591,35.3148],[127.32525,35.3168],[127.32524,35.31714],[127.32537,35.31717],[127.32595,35.3186],[127.32605,35.31873],[127.32626,35.31934],[127.32648,35.31971],[127.32689,35.31963],[127.32685,35.31948],[127.32694,35.31935],[127.32702,35.31932],[127.32737,35.31946],[127.32751,35.31961],[127.32813,35.32004],[127.32964,35.32067],[127.3326,35.32127],[127.33362,35.32169],[127.33373,35.32171],[127.33376,35.32164],[127.33384,35.32169],[127.33382,35.32181],[127.33431,35.32216],[127.33467,35.32257],[127.33476,35.32259],[127.33475,35.32264],[127.3356,35.32388],[127.33606,35.32442],[127.33665,35.32484],[127.33666,35.32481],[127.33703,35.32505],[127.33775,35.32532],[127.33833,35.32539],[127.33885,35.32539],[127.33886,35.3253],[127.33915,35.32532],[127.34144,35.32478],[127.3415,35.32472],[127.34273,35.32434],[127.34364,35.32429],[127.34391,35.32433],[127.34445,35.32448],[127.345,35.32471],[127.3472,35.32627],[127.34751,35.32636],[127.34779,35.32653],[127.34835,35.32688],[127.34874,35.32721],[127.3488,35.32718],[127.34896,35.32728],[127.34934,35.32738],[127.34939,35.32747],[127.34957,35.32744],[127.35063,35.32776],[127.3516,35.32787],[127.35176,35.32796],[127.35374,35.32788],[127.35381,35.32784],[127.35494,35.32796],[127.35735,35.32838],[127.3585,35.32872],[127.35871,35.32883],[127.35887,35.32912],[127.35891,35.32912],[127.35907,35.32951],[127.35911,35.32975],[127.35909,35.3301],[127.35893,35.33054],[127.35865,35.33084],[127.35877,35.33091],[127.35872,35.33099],[127.35857,35.33101],[127.35853,35.33113],[127.35818,35.33161],[127.35822,35.33166],[127.35812,35.33176],[127.35813,35.33191],[127.35792,35.33214],[127.35773,35.33256],[127.3576,35.33318],[127.35767,35.33348],[127.35773,35.33346],[127.35778,35.33352],[127.35775,35.33362],[127.35809,35.33388],[127.35865,35.33419],[127.35926,35.33439],[127.35954,35.33445],[127.35957,35.33439],[127.35962,35.3344],[127.35959,35.33447],[127.35968,35.33452],[127.36069,35.33488],[127.36077,35.33487],[127.36101,35.335],[127.3613,35.3352],[127.36163,35.33552],[127.36168,35.33549],[127.36174,35.33554],[127.36167,35.3356],[127.36219,35.33604],[127.36255,35.33626],[127.36314,35.33648],[127.36392,35.33663],[127.36471,35.33689],[127.36598,35.33749],[127.36653,35.33784],[127.36719,35.33836],[127.36816,35.33836],[127.36781,35.33815],[127.36655,35.33718],[127.36614,35.33695],[127.3661,35.33697],[127.36592,35.33688],[127.36596,35.33682],[127.36466,35.33625],[127.36299,35.33584],[127.36266,35.33566],[127.36207,35.33511],[127.36138,35.33459],[127.36123,35.33453],[127.3612,35.33457],[127.36036,35.33427]]]}},{"type":"Feature","properties":{"하천등급":"지방하천","하천명":""},"geometry":{"type":"Polygon","coordinates":[[[127.30987,35.3045],[127.31122,35.30468],[127.31332,35.30531],[127.31453,35.30601],[127.3162,35.30618],[127.31971,35.30639],[127.32059,35.30658],[127.32214,35.30727],[127.32346,35.30741],[127.32451,35.3091],[127.32503,35.30983],[127.3253,35.30966],[127.32527,35.3095],[127.32531,35.30918],[127.3256,35.30857],[127.32642,35.30778],[127.32661,35.30752],[127.32686,35.30733],[127.32691,35.30737],[127.32763,35.30673],[127.32816,35.30619],[127.3283,35.30589],[127.32836,35.30568],[127.32837,35.30539],[127.3283,35.30537],[127.3282,35.30524],[127.32819,35.30499],[127.32822,35.30478],[127.32832,35.30455],[127.32834,35.30428],[127.3284,35.30421],[127.32838,35.30414],[127.32828,35.30407],[127.32811,35.30404],[127.3281,35.30372],[127.3277,35.30335],[127.32763,35.3032],[127.32763,35.30304],[127.32775,35.30285],[127.32829,35.30254],[127.32853,35.30231],[127.3287,35.30135],[127.32876,35.30131],[127.32882,35.30074],[127.329,35.30023],[127.32931,35.29963],[127.32959,35.29849],[127.32964,35.29818],[127.32955,35.29805],[127.32965,35.29708],[127.32979,35.29682],[127.32969,35.29664],[127.32977,35.29599],[127.32987,35.29582],[127.3298,35.29581],[127.32984,35.29531],[127.32995,35.29488],[127.33004,35.29483],[127.32997,35.29476],[127.33002,35.29465],[127.33008,35.29467],[127.33014,35.29453],[127.33017,35.29454],[127.33025,35.29426],[127.33031,35.29424],[127.33032,35.29419],[127.33026,35.29418],[127.33029,35.29404],[127.33044,35.29406],[127.33048,35.29392],[127.33067,35.29397],[127.33068,35.29394],[127.33043,35.29385],[127.3305,35.29359],[127.33057,35.2936],[127.33072,35.29326],[127.33088,35.29307],[127.33097,35.29272],[127.33149,35.29156],[127.3317,35.29133],[127.33169,35.29119],[127.33195,35.29064],[127.33208,35.29063],[127.3321,35.29059],[127.33212,35.29053],[127.33206,35.29047],[127.33231,35.28957],[127.33226,35.28949],[127.33244,35.28836],[127.32617,35.28836],[127.32617,35.28881],[127.32639,35.2896],[127.32638,35.28989],[127.32625,35.29029],[127.32613,35.29036],[127.32605,35.29072],[127.32606,35.29094],[127.32611,35.29094],[127.32586,35.29298],[127.32596,35.29298],[127.3259,35.29335],[127.32582,35.29334],[127.32527,35.29788],[127.32518,35.29851],[127.3251,35.29875],[127.32517,35.29917],[127.32508,35.30004],[127.32506,35.30139],[127.32495,35.30245],[127.32493,35.30339],[127.3248,35.30388],[127.32422,35.30503],[127.32397,35.30524],[127.32402,35.30527],[127.3237,35.30552],[127.32372,35.30556],[127.32367,35.3056],[127.32353,35.30566],[127.32279,35.30576],[127.32255,35.30574],[127.32235,35.30567],[127.32237,35.30556],[127.3222,35.30509],[127.32208,35.30521],[127.32199,35.30521],[127.31937,35.3046],[127.3194,35.30471],[127.31926,35.30472],[127.31726,35.30421],[127.31703,35.30414],[127.317,35.30407],[127.31657,35.30403],[127.3153,35.30362],[127.31425,35.30336],[127.31351,35.30322],[127.31339,35.30324],[127.31084,35.30289],[127.30992,35.30283],[127.30975,35.30277],[127.30942,35.30278],[127.30942,35.30449],[127.30987,35.3045]]]}},{"type":"Feature","properties":{"하천등급":"지방하천","하천명":""},"geometry":{"type":"Polygon","coordinates":[[[127.32956,35.29805],[127.32964,35.29818],[127.32959,35.29847],[127.33026,35.29845],[127.33094,35.29861],[127.33131,35.29874],[127.33237,35.2993],[127.33273,35.29932],[127.33315,35.29925],[127.33373,35.29871],[127.33401,35.2986],[127.33461,35.29857],[127.3349,35.29868],[127.33531,35.29902],[127.33536,35.299],[127.33549,35.29906],[127.33602,35.29947],[127.33641,35.29957],[127.33645,35.29949],[127.33642,35.29946],[127.3369,35.29922],[127.33738,35.29871],[127.33788,35.29905],[127.3383,35.29943],[127.33858,35.29954],[127.33972,35.29957],[127.33992,35.29964],[127.34057,35.30034],[127.34162,35.30103],[127.34247,35.30166],[127.34285,35.30177],[127.34333,35.30183],[127.34363,35.30174],[127.34398,35.30144],[127.34421,35.30134],[127.34475,35.30125],[127.34519,35.30136],[127.34728,35.30327],[127.34773,35.3034],[127.34833,35.30379],[127.34905,35.30465],[127.34954,35.30483],[127.34987,35.30484],[127.3498,35.30481],[127.3498,35.30474],[127.34987,35.3047],[127.34983,35.30462],[127.34947,35.30456],[127.34921,35.30443],[127.34865,35.30378],[127.34844,35.30361],[127.34781,35.30323],[127.34743,35.30311],[127.34738,35.30302],[127.34706,35.30277],[127.34703,35.30269],[127.34616,35.30192],[127.34543,35.30119],[127.34471,35.30104],[127.34417,35.30111],[127.34388,35.30122],[127.3436,35.30148],[127.34331,35.3016],[127.34245,35.30144],[127.34193,35.30108],[127.34171,35.30086],[127.34066,35.30013],[127.34009,35.29937],[127.33978,35.29926],[127.3387,35.29922],[127.3385,35.29913],[127.33756,35.29846],[127.33731,35.29842],[127.3371,35.2985],[127.33667,35.29901],[127.33624,35.29921],[127.33612,35.29918],[127.33565,35.29888],[127.3354,35.29866],[127.33505,35.29845],[127.33471,35.29832],[127.33409,35.2983],[127.33372,35.29837],[127.33344,35.29851],[127.3328,35.29901],[127.33256,35.29901],[127.33221,35.29867],[127.33108,35.29812],[127.33044,35.29797],[127.32956,35.29794],[127.32956,35.29805]]]}},{"type":"Feature","properties":{"하천등급":"지방하천","하천명":""},"geometry":{"type":"Polygon","coordinates":[[[127.36036,35.33427],[127.36026,35.33422],[127.36026,35.33417],[127.35988,35.33407],[127.35983,35.33399],[127.35918,35.33378],[127.35858,35.3335],[127.35831,35.33326],[127.35809,35.33291],[127.35811,35.33264],[127.35825,35.33239],[127.3585,35.33212],[127.35847,35.33206],[127.35853,35.332],[127.35859,35.33205],[127.35944,35.33111],[127.35934,35.33106],[127.35939,35.33097],[127.35959,35.33096],[127.35985,35.33017],[127.35989,35.32976],[127.35982,35.32976],[127.35974,35.32938],[127.35977,35.32933],[127.35991,35.32931],[127.35993,35.32905],[127.35965,35.32883],[127.35949,35.32849],[127.35927,35.32838],[127.35838,35.32808],[127.35827,35.32799],[127.35781,35.3279],[127.35771,35.32784],[127.35757,35.32785],[127.35723,35.32773],[127.35719,35.32767],[127.35676,35.3276],[127.35366,35.32719],[127.35208,35.32729],[127.35147,35.32726],[127.35002,35.32689],[127.3498,35.3269],[127.34939,35.32667],[127.34891,35.32649],[127.34856,35.32622],[127.34851,35.32633],[127.34846,35.3263],[127.34848,35.32625],[127.34774,35.32574],[127.34767,35.32568],[127.34768,35.32563],[127.34571,35.32422],[127.3456,35.32418],[127.34546,35.32403],[127.34533,35.32401],[127.3452,35.32387],[127.34462,35.32357],[127.34398,35.32342],[127.34323,35.32342],[127.34273,35.32351],[127.34231,35.32371],[127.34184,35.3238],[127.34098,35.32414],[127.34014,35.32431],[127.33919,35.32456],[127.33904,35.32464],[127.33888,35.32465],[127.33887,35.32469],[127.3378,35.32455],[127.3373,35.32434],[127.33659,35.32388],[127.33612,35.32341],[127.33496,35.32183],[127.33461,35.32151],[127.33417,35.32122],[127.33365,35.321],[127.33361,35.32092],[127.33294,35.32069],[127.33018,35.32008],[127.32914,35.31966],[127.3279,35.31896],[127.32726,35.31831],[127.3271,35.31805],[127.32698,35.31773],[127.32678,35.31744],[127.32683,35.31725],[127.32672,35.31676],[127.32675,35.31645],[127.3271,35.31541],[127.32725,35.31516],[127.32723,35.31506],[127.32734,35.3147],[127.32745,35.31399],[127.32743,35.31357],[127.32734,35.31319],[127.32724,35.31297],[127.32718,35.31294],[127.32722,35.31272],[127.32714,35.31256],[127.327,35.3125],[127.32696,35.31242],[127.32688,35.31216],[127.32689,35.31197],[127.32681,35.31189],[127.32678,35.31177],[127.32619,35.31106],[127.32596,35.31066],[127.32581,35.31065],[127.32564,35.31043],[127.32558,35.31047],[127.32504,35.30983],[127.32367,35.31079],[127.32389,35.31091],[127.32381,35.31099],[127.32499,35.31195],[127.32542,35.31252],[127.32572,35.31314],[127.32589,35.31379],[127.32591,35.3148],[127.32525,35.3168],[127.32524,35.31714],[127.32537,35.31717],[127.32595,35.3186],[127.32605,35.31873],[127.32626,35.31934],[127.32648,35.31971],[127.32689,35.31963],[127.32685,35.31948],[127.32694,35.31935],[127.32702,35.31932],[127.32737,35.31946],[127.32751,35.31961],[127.32813,35.32004],[127.32964,35.32067],[127.3326,35.32127],[127.33362,35.32169],[127.33373,35.32171],[127.33376,35.32164],[127.33384,35.32169],[127.33382,35.32181],[127.33431,35.32216],[127.33467,35.32257],[127.33476,35.32259],[127.33475,35.32264],[127.3356,35.32388],[127.33606,35.32442],[127.33665,35.32484],[127.33666,35.32481],[127.33703,35.32505],[127.33775,35.32532],[127.33833,35.32539],[127.33885,35.32539],[127.33886,35.3253],[127.33915,35.32532],[127.34144,35.32478],[127.3415,35.32472],[127.34273,35.32434],[127.34364,35.32429],[127.34391,35.32433],[127.34445,35.32448],[127.345,35.32471],[127.3472,35.32627],[127.34751,35.32636],[127.34779,35.32653],[127.34835,35.32688],[127.34874,35.32721],[127.3488,35.32718],[127.34896,35.32728],[127.34934,35.32738],[127.34939,35.32747],[127.34957,35.32744],[127.35063,35.32776],[127.3516,35.32787],[127.35176,35.32796],[127.35374,35.32788],[127.35381,35.32784],[127.35494,35.32796],[127.35735,35.32838],[127.3585,35.32872],[127.35871,35.32883],[127.35887,35.32912],[127.35891,35.32912],[127.35907,35.32951],[127.35911,35.32975],[127.35909,35.3301],[127.35893,35.33054],[127.35865,35.33084],[127.35877,35.33091],[127.35872,35.33099],[127.35857,35.33101],[127.35853,35.33113],[127.35818,35.33161],[127.35822,35.33166],[127.35812,35.33176],[127.35813,35.33191],[127.35792,35.33214],[127.35773,35.33256],[127.3576,35.33318],[127.35767,35.33348],[127.35773,35.33346],[127.35778,35.33352],[127.35775,35.33362],[127.35809,35.33388],[127.35865,35.33419],[127.35926,35.33439],[127.35954,35.33445],[127.35957,35.33439],[127.35962,35.3344],[127.35959,35.33447],[127.35968,35.33452],[127.36069,35.33488],[127.36077,35.33487],[127.36101,35.335],[127.3613,35.3352],[127.36163,35.33552],[127.36168,35.33549],[127.36174,35.33554],[127.36167,35.3356],[127.36219,35.33604],[127.36255,35.33626],[127.36314,35.33648],[127.36392,35.33663],[127.36471,35.33689],[127.36598,35.33749],[127.36653,35.33784],[127.36719,35.33836],[127.36816,35.33836],[127.36781,35.33815],[127.36655,35.33718],[127.36614,35.33695],[127.3661,35.33697],[127.36592,35.33688],[127.36596,35.33682],[127.36466,35.33625],[127.36299,35.33584],[127.36266,35.33566],[127.36207,35.33511],[127.36138,35.33459],[127.36123,35.33453],[127.3612,35.33457],[127.36036,35.33427]]]}},{"type":"Feature","properties":{"하천등급":"지방하천","하천명":""},"geometry":{"type":"Polygon","coordinates":[[[127.30987,35.3045],[127.31122,35.30468],[127.31332,35.30531],[127.31453,35.30601],[127.3162,35.30618],[127.31971,35.30639],[127.32059,35.30658],[127.32214,35.30727],[127.32346,35.30741],[127.32451,35.3091],[127.32503,35.30983],[127.3253,35.30966],[127.32527,35.3095],[127.32531,35.30918],[127.3256,35.30857],[127.32642,35.30778],[127.32661,35.30752],[127.32686,35.30733],[127.32691,35.30737],[127.32763,35.30673],[127.32816,35.30619],[127.3283,35.30589],[127.32836,35.30568],[127.32837,35.30539],[127.3283,35.30537],[127.3282,35.30524],[127.32819,35.30499],[127.32822,35.30478],[127.32832,35.30455],[127.32834,35.30428],[127.3284,35.30421],[127.32838,35.30414],[127.32828,35.30407],[127.32811,35.30404],[127.3281,35.30372],[127.3277,35.30335],[127.32763,35.3032],[127.32763,35.30304],[127.32775,35.30285],[127.32829,35.30254],[127.32853,35.30231],[127.3287,35.30135],[127.32876,35.30131],[127.32882,35.30074],[127.329,35.30023],[127.32931,35.29963],[127.32959,35.29849],[127.32964,35.29818],[127.32955,35.29805],[127.32965,35.29708],[127.32979,35.29682],[127.32969,35.29664],[127.32977,35.29599],[127.32987,35.29582],[127.3298,35.29581],[127.32984,35.29531],[127.32995,35.29488],[127.33004,35.29483],[127.32997,35.29476],[127.33002,35.29465],[127.33008,35.29467],[127.33014,35.29453],[127.33017,35.29454],[127.33025,35.29426],[127.33031,35.29424],[127.33032,35.29419],[127.33026,35.29418],[127.33029,35.29404],[127.33044,35.29406],[127.33048,35.29392],[127.33067,35.29397],[127.33068,35.29394],[127.33043,35.29385],[127.3305,35.29359],[127.33057,35.2936],[127.33072,35.29326],[127.33088,35.29307],[127.33097,35.29272],[127.33149,35.29156],[127.3317,35.29133],[127.33169,35.29119],[127.33195,35.29064],[127.33208,35.29063],[127.3321,35.29059],[127.33212,35.29053],[127.33206,35.29047],[127.33231,35.28957],[127.33226,35.28949],[127.33244,35.28836],[127.32617,35.28836],[127.32617,35.28881],[127.32639,35.2896],[127.32638,35.28989],[127.32625,35.29029],[127.32613,35.29036],[127.32605,35.29072],[127.32606,35.29094],[127.32611,35.29094],[127.32586,35.29298],[127.32596,35.29298],[127.3259,35.29335],[127.32582,35.29334],[127.32527,35.29788],[127.32518,35.29851],[127.3251,35.29875],[127.32517,35.29917],[127.32508,35.30004],[127.32506,35.30139],[127.32495,35.30245],[127.32493,35.30339],[127.3248,35.30388],[127.32422,35.30503],[127.32397,35.30524],[127.32402,35.30527],[127.3237,35.30552],[127.32372,35.30556],[127.32367,35.3056],[127.32353,35.30566],[127.32279,35.30576],[127.32255,35.30574],[127.32235,35.30567],[127.32237,35.30556],[127.3222,35.30509],[127.32208,35.30521],[127.32199,35.30521],[127.31937,35.3046],[127.3194,35.30471],[127.31926,35.30472],[127.31726,35.30421],[127.31703,35.30414],[127.317,35.30407],[127.31657,35.30403],[127.3153,35.30362],[127.31425,35.30336],[127.31351,35.30322],[127.31339,35.30324],[127.31084,35.30289],[127.30992,35.30283],[127.30975,35.30277],[127.30942,35.30278],[127.30942,35.30449],[127.30987,35.3045]]]}},{"type":"Feature","properties":{"하천등급":"지방하천","하천명":""},"geometry":{"type":"Polygon","coordinates":[[[127.32956,35.29805],[127.32964,35.29818],[127.32959,35.29847],[127.33026,35.29845],[127.33094,35.29861],[127.33131,35.29874],[127.33237,35.2993],[127.33273,35.29932],[127.33315,35.29925],[127.33373,35.29871],[127.33401,35.2986],[127.33461,35.29857],[127.3349,35.29868],[127.33531,35.29902],[127.33536,35.299],[127.33549,35.29906],[127.33602,35.29947],[127.33641,35.29957],[127.33645,35.29949],[127.33642,35.29946],[127.3369,35.29922],[127.33738,35.29871],[127.33788,35.29905],[127.3383,35.29943],[127.33858,35.29954],[127.33972,35.29957],[127.33992,35.29964],[127.34057,35.30034],[127.34162,35.30103],[127.34247,35.30166],[127.34285,35.30177],[127.34333,35.30183],[127.34363,35.30174],[127.34398,35.30144],[127.34421,35.30134],[127.34475,35.30125],[127.34519,35.30136],[127.34728,35.30327],[127.34773,35.3034],[127.34833,35.30379],[127.34905,35.30465],[127.34954,35.30483],[127.34987,35.30484],[127.3498,35.30481],[127.3498,35.30474],[127.34987,35.3047],[127.34983,35.30462],[127.34947,35.30456],[127.34921,35.30443],[127.34865,35.30378],[127.34844,35.30361],[127.34781,35.30323],[127.34743,35.30311],[127.34738,35.30302],[127.34706,35.30277],[127.34703,35.30269],[127.34616,35.30192],[127.34543,35.30119],[127.34471,35.30104],[127.34417,35.30111],[127.34388,35.30122],[127.3436,35.30148],[127.34331,35.3016],[127.34245,35.30144],[127.34193,35.30108],[127.34171,35.30086],[127.34066,35.30013],[127.34009,35.29937],[127.33978,35.29926],[127.3387,35.29922],[127.3385,35.29913],[127.33756,35.29846],[127.33731,35.29842],[127.3371,35.2985],[127.33667,35.29901],[127.33624,35.29921],[127.33612,35.29918],[127.33565,35.29888],[127.3354,35.29866],[127.33505,35.29845],[127.33471,35.29832],[127.33409,35.2983],[127.33372,35.29837],[127.33344,35.29851],[127.3328,35.29901],[127.33256,35.29901],[127.33221,35.29867],[127.33108,35.29812],[127.33044,35.29797],[127.32956,35.29794],[127.32956,35.29805]]]}},{"type":"Feature","properties":{"하천등급":"지방하천","하천명":""},"geometry":{"type":"Polygon","coordinates":[[[127.36036,35.33427],[127.36026,35.33422],[127.36026,35.33417],[127.35988,35.33407],[127.35983,35.33399],[127.35918,35.33378],[127.35858,35.3335],[127.35831,35.33326],[127.35809,35.33291],[127.35811,35.33264],[127.35825,35.33239],[127.3585,35.33212],[127.35847,35.33206],[127.35853,35.332],[127.35859,35.33205],[127.35944,35.33111],[127.35934,35.33106],[127.35939,35.33097],[127.35959,35.33096],[127.35985,35.33017],[127.35989,35.32976],[127.35982,35.32976],[127.35974,35.32938],[127.35977,35.32933],[127.35991,35.32931],[127.35993,35.32905],[127.35965,35.32883],[127.35949,35.32849],[127.35927,35.32838],[127.35838,35.32808],[127.35827,35.32799],[127.35781,35.3279],[127.35771,35.32784],[127.35757,35.32785],[127.35723,35.32773],[127.35719,35.32767],[127.35676,35.3276],[127.35366,35.32719],[127.35208,35.32729],[127.35147,35.32726],[127.35002,35.32689],[127.3498,35.3269],[127.34939,35.32667],[127.34891,35.32649],[127.34856,35.32622],[127.34851,35.32633],[127.34846,35.3263],[127.34848,35.32625],[127.34774,35.32574],[127.34767,35.32568],[127.34768,35.32563],[127.34571,35.32422],[127.3456,35.32418],[127.34546,35.32403],[127.34533,35.32401],[127.3452,35.32387],[127.34462,35.32357],[127.34398,35.32342],[127.34323,35.32342],[127.34273,35.32351],[127.34231,35.32371],[127.34184,35.3238],[127.34098,35.32414],[127.34014,35.32431],[127.33919,35.32456],[127.33904,35.32464],[127.33888,35.32465],[127.33887,35.32469],[127.3378,35.32455],[127.3373,35.32434],[127.33659,35.32388],[127.33612,35.32341],[127.33496,35.32183],[127.33461,35.32151],[127.33417,35.32122],[127.33365,35.321],[127.33361,35.32092],[127.33294,35.32069],[127.33018,35.32008],[127.32914,35.31966],[127.3279,35.31896],[127.32726,35.31831],[127.3271,35.31805],[127.32698,35.31773],[127.32678,35.31744],[127.32683,35.31725],[127.32672,35.31676],[127.32675,35.31645],[127.3271,35.31541],[127.32725,35.31516],[127.32723,35.31506],[127.32734,35.3147],[127.32745,35.31399],[127.32743,35.31357],[127.32734,35.31319],[127.32724,35.31297],[127.32718,35.31294],[127.32722,35.31272],[127.32714,35.31256],[127.327,35.3125],[127.32696,35.31242],[127.32688,35.31216],[127.32689,35.31197],[127.32681,35.31189],[127.32678,35.31177],[127.32619,35.31106],[127.32596,35.31066],[127.32581,35.31065],[127.32564,35.31043],[127.32558,35.31047],[127.32504,35.30983],[127.32367,35.31079],[127.32389,35.31091],[127.32381,35.31099],[127.32499,35.31195],[127.32542,35.31252],[127.32572,35.31314],[127.32589,35.31379],[127.32591,35.3148],[127.32525,35.3168],[127.32524,35.31714],[127.32537,35.31717],[127.32595,35.3186],[127.32605,35.31873],[127.32626,35.31934],[127.32648,35.31971],[127.32689,35.31963],[127.32685,35.31948],[127.32694,35.31935],[127.32702,35.31932],[127.32737,35.31946],[127.32751,35.31961],[127.32813,35.32004],[127.32964,35.32067],[127.3326,35.32127],[127.33362,35.32169],[127.33373,35.32171],[127.33376,35.32164],[127.33384,35.32169],[127.33382,35.32181],[127.33431,35.32216],[127.33467,35.32257],[127.33476,35.32259],[127.33475,35.32264],[127.3356,35.32388],[127.33606,35.32442],[127.33665,35.32484],[127.33666,35.32481],[127.33703,35.32505],[127.33775,35.32532],[127.33833,35.32539],[127.33885,35.32539],[127.33886,35.3253],[127.33915,35.32532],[127.34144,35.32478],[127.3415,35.32472],[127.34273,35.32434],[127.34364,35.32429],[127.34391,35.32433],[127.34445,35.32448],[127.345,35.32471],[127.3472,35.32627],[127.34751,35.32636],[127.34779,35.32653],[127.34835,35.32688],[127.34874,35.32721],[127.3488,35.32718],[127.34896,35.32728],[127.34934,35.32738],[127.34939,35.32747],[127.34957,35.32744],[127.35063,35.32776],[127.3516,35.32787],[127.35176,35.32796],[127.35374,35.32788],[127.35381,35.32784],[127.35494,35.32796],[127.35735,35.32838],[127.3585,35.32872],[127.35871,35.32883],[127.35887,35.32912],[127.35891,35.32912],[127.35907,35.32951],[127.35911,35.32975],[127.35909,35.3301],[127.35893,35.33054],[127.35865,35.33084],[127.35877,35.33091],[127.35872,35.33099],[127.35857,35.33101],[127.35853,35.33113],[127.35818,35.33161],[127.35822,35.33166],[127.35812,35.33176],[127.35813,35.33191],[127.35792,35.33214],[127.35773,35.33256],[127.3576,35.33318],[127.35767,35.33348],[127.35773,35.33346],[127.35778,35.33352],[127.35775,35.33362],[127.35809,35.33388],[127.35865,35.33419],[127.35926,35.33439],[127.35954,35.33445],[127.35957,35.33439],[127.35962,35.3344],[127.35959,35.33447],[127.35968,35.33452],[127.36069,35.33488],[127.36077,35.33487],[127.36101,35.335],[127.3613,35.3352],[127.36163,35.33552],[127.36168,35.33549],[127.36174,35.33554],[127.36167,35.3356],[127.36219,35.33604],[127.36255,35.33626],[127.36314,35.33648],[127.36392,35.33663],[127.36471,35.33689],[127.36598,35.33749],[127.36653,35.33784],[127.36719,35.33836],[127.36816,35.33836],[127.36781,35.33815],[127.36655,35.33718],[127.36614,35.33695],[127.3661,35.33697],[127.36592,35.33688],[127.36596,35.33682],[127.36466,35.33625],[127.36299,35.33584],[127.36266,35.33566],[127.36207,35.33511],[127.36138,35.33459],[127.36123,35.33453],[127.3612,35.33457],[127.36036,35.33427]]]}},{"type":"Feature","properties":{"하천등급":"지방하천","하천명":""},"geometry":{"type":"Polygon","coordinates":[[[127.30987,35.3045],[127.31122,35.30468],[127.31332,35.30531],[127.31453,35.30601],[127.3162,35.30618],[127.31971,35.30639],[127.32059,35.30658],[127.32214,35.30727],[127.32346,35.30741],[127.32451,35.3091],[127.32503,35.30983],[127.3253,35.30966],[127.32527,35.3095],[127.32531,35.30918],[127.3256,35.30857],[127.32642,35.30778],[127.32661,35.30752],[127.32686,35.30733],[127.32691,35.30737],[127.32763,35.30673],[127.32816,35.30619],[127.3283,35.30589],[127.32836,35.30568],[127.32837,35.30539],[127.3283,35.30537],[127.3282,35.30524],[127.32819,35.30499],[127.32822,35.30478],[127.32832,35.30455],[127.32834,35.30428],[127.3284,35.30421],[127.32838,35.30414],[127.32828,35.30407],[127.32811,35.30404],[127.3281,35.30372],[127.3277,35.30335],[127.32763,35.3032],[127.32763,35.30304],[127.32775,35.30285],[127.32829,35.30254],[127.32853,35.30231],[127.3287,35.30135],[127.32876,35.30131],[127.32882,35.30074],[127.329,35.30023],[127.32931,35.29963],[127.32959,35.29849],[127.32964,35.29818],[127.32955,35.29805],[127.32965,35.29708],[127.32979,35.29682],[127.32969,35.29664],[127.32977,35.29599],[127.32987,35.29582],[127.3298,35.29581],[127.32984,35.29531],[127.32995,35.29488],[127.33004,35.29483],[127.32997,35.29476],[127.33002,35.29465],[127.33008,35.29467],[127.33014,35.29453],[127.33017,35.29454],[127.33025,35.29426],[127.33031,35.29424],[127.33032,35.29419],[127.33026,35.29418],[127.33029,35.29404],[127.33044,35.29406],[127.33048,35.29392],[127.33067,35.29397],[127.33068,35.29394],[127.33043,35.29385],[127.3305,35.29359],[127.33057,35.2936],[127.33072,35.29326],[127.33088,35.29307],[127.33097,35.29272],[127.33149,35.29156],[127.3317,35.29133],[127.33169,35.29119],[127.33195,35.29064],[127.33208,35.29063],[127.3321,35.29059],[127.33212,35.29053],[127.33206,35.29047],[127.33231,35.28957],[127.33226,35.28949],[127.33244,35.28836],[127.32617,35.28836],[127.32617,35.28881],[127.32639,35.2896],[127.32638,35.28989],[127.32625,35.29029],[127.32613,35.29036],[127.32605,35.29072],[127.32606,35.29094],[127.32611,35.29094],[127.32586,35.29298],[127.32596,35.29298],[127.3259,35.29335],[127.32582,35.29334],[127.32527,35.29788],[127.32518,35.29851],[127.3251,35.29875],[127.32517,35.29917],[127.32508,35.30004],[127.32506,35.30139],[127.32495,35.30245],[127.32493,35.30339],[127.3248,35.30388],[127.32422,35.30503],[127.32397,35.30524],[127.32402,35.30527],[127.3237,35.30552],[127.32372,35.30556],[127.32367,35.3056],[127.32353,35.30566],[127.32279,35.30576],[127.32255,35.30574],[127.32235,35.30567],[127.32237,35.30556],[127.3222,35.30509],[127.32208,35.30521],[127.32199,35.30521],[127.31937,35.3046],[127.3194,35.30471],[127.31926,35.30472],[127.31726,35.30421],[127.31703,35.30414],[127.317,35.30407],[127.31657,35.30403],[127.3153,35.30362],[127.31425,35.30336],[127.31351,35.30322],[127.31339,35.30324],[127.31084,35.30289],[127.30992,35.30283],[127.30975,35.30277],[127.30942,35.30278],[127.30942,35.30449],[127.30987,35.3045]]]}},{"type":"Feature","properties":{"하천등급":"지방하천","하천명":""},"geometry":{"type":"Polygon","coordinates":[[[127.32956,35.29805],[127.32964,35.29818],[127.32959,35.29847],[127.33026,35.29845],[127.33094,35.29861],[127.33131,35.29874],[127.33237,35.2993],[127.33273,35.29932],[127.33315,35.29925],[127.33373,35.29871],[127.33401,35.2986],[127.33461,35.29857],[127.3349,35.29868],[127.33531,35.29902],[127.33536,35.299],[127.33549,35.29906],[127.33602,35.29947],[127.33641,35.29957],[127.33645,35.29949],[127.33642,35.29946],[127.3369,35.29922],[127.33738,35.29871],[127.33788,35.29905],[127.3383,35.29943],[127.33858,35.29954],[127.33972,35.29957],[127.33992,35.29964],[127.34057,35.30034],[127.34162,35.30103],[127.34247,35.30166],[127.34285,35.30177],[127.34333,35.30183],[127.34363,35.30174],[127.34398,35.30144],[127.34421,35.30134],[127.34475,35.30125],[127.34519,35.30136],[127.34728,35.30327],[127.34773,35.3034],[127.34833,35.30379],[127.34905,35.30465],[127.34954,35.30483],[127.34987,35.30484],[127.3498,35.30481],[127.3498,35.30474],[127.34987,35.3047],[127.34983,35.30462],[127.34947,35.30456],[127.34921,35.30443],[127.34865,35.30378],[127.34844,35.30361],[127.34781,35.30323],[127.34743,35.30311],[127.34738,35.30302],[127.34706,35.30277],[127.34703,35.30269],[127.34616,35.30192],[127.34543,35.30119],[127.34471,35.30104],[127.34417,35.30111],[127.34388,35.30122],[127.3436,35.30148],[127.34331,35.3016],[127.34245,35.30144],[127.34193,35.30108],[127.34171,35.30086],[127.34066,35.30013],[127.34009,35.29937],[127.33978,35.29926],[127.3387,35.29922],[127.3385,35.29913],[127.33756,35.29846],[127.33731,35.29842],[127.3371,35.2985],[127.33667,35.29901],[127.33624,35.29921],[127.33612,35.29918],[127.33565,35.29888],[127.3354,35.29866],[127.33505,35.29845],[127.33471,35.29832],[127.33409,35.2983],[127.33372,35.29837],[127.33344,35.29851],[127.3328,35.29901],[127.33256,35.29901],[127.33221,35.29867],[127.33108,35.29812],[127.33044,35.29797],[127.32956,35.29794],[127.32956,35.29805]]]}},{"type":"Feature","properties":{"하천등급":"지방하천","하천명":""},"geometry":{"type":"Polygon","coordinates":[[[127.36036,35.33427],[127.36026,35.33422],[127.36026,35.33417],[127.35988,35.33407],[127.35983,35.33399],[127.35918,35.33378],[127.35858,35.3335],[127.35831,35.33326],[127.35809,35.33291],[127.35811,35.33264],[127.35825,35.33239],[127.3585,35.33212],[127.35847,35.33206],[127.35853,35.332],[127.35859,35.33205],[127.35944,35.33111],[127.35934,35.33106],[127.35939,35.33097],[127.35959,35.33096],[127.35985,35.33017],[127.35989,35.32976],[127.35982,35.32976],[127.35974,35.32938],[127.35977,35.32933],[127.35991,35.32931],[127.35993,35.32905],[127.35965,35.32883],[127.35949,35.32849],[127.35927,35.32838],[127.35838,35.32808],[127.35827,35.32799],[127.35781,35.3279],[127.35771,35.32784],[127.35757,35.32785],[127.35723,35.32773],[127.35719,35.32767],[127.35676,35.3276],[127.35366,35.32719],[127.35208,35.32729],[127.35147,35.32726],[127.35002,35.32689],[127.3498,35.3269],[127.34939,35.32667],[127.34891,35.32649],[127.34856,35.32622],[127.34851,35.32633],[127.34846,35.3263],[127.34848,35.32625],[127.34774,35.32574],[127.34767,35.32568],[127.34768,35.32563],[127.34571,35.32422],[127.3456,35.32418],[127.34546,35.32403],[127.34533,35.32401],[127.3452,35.32387],[127.34462,35.32357],[127.34398,35.32342],[127.34323,35.32342],[127.34273,35.32351],[127.34231,35.32371],[127.34184,35.3238],[127.34098,35.32414],[127.34014,35.32431],[127.33919,35.32456],[127.33904,35.32464],[127.33888,35.32465],[127.33887,35.32469],[127.3378,35.32455],[127.3373,35.32434],[127.33659,35.32388],[127.33612,35.32341],[127.33496,35.32183],[127.33461,35.32151],[127.33417,35.32122],[127.33365,35.321],[127.33361,35.32092],[127.33294,35.32069],[127.33018,35.32008],[127.32914,35.31966],[127.3279,35.31896],[127.32726,35.31831],[127.3271,35.31805],[127.32698,35.31773],[127.32678,35.31744],[127.32683,35.31725],[127.32672,35.31676],[127.32675,35.31645],[127.3271,35.31541],[127.32725,35.31516],[127.32723,35.31506],[127.32734,35.3147],[127.32745,35.31399],[127.32743,35.31357],[127.32734,35.31319],[127.32724,35.31297],[127.32718,35.31294],[127.32722,35.31272],[127.32714,35.31256],[127.327,35.3125],[127.32696,35.31242],[127.32688,35.31216],[127.32689,35.31197],[127.32681,35.31189],[127.32678,35.31177],[127.32619,35.31106],[127.32596,35.31066],[127.32581,35.31065],[127.32564,35.31043],[127.32558,35.31047],[127.32504,35.30983],[127.32367,35.31079],[127.32389,35.31091],[127.32381,35.31099],[127.32499,35.31195],[127.32542,35.31252],[127.32572,35.31314],[127.32589,35.31379],[127.32591,35.3148],[127.32525,35.3168],[127.32524,35.31714],[127.32537,35.31717],[127.32595,35.3186],[127.32605,35.31873],[127.32626,35.31934],[127.32648,35.31971],[127.32689,35.31963],[127.32685,35.31948],[127.32694,35.31935],[127.32702,35.31932],[127.32737,35.31946],[127.32751,35.31961],[127.32813,35.32004],[127.32964,35.32067],[127.3326,35.32127],[127.33362,35.32169],[127.33373,35.32171],[127.33376,35.32164],[127.33384,35.32169],[127.33382,35.32181],[127.33431,35.32216],[127.33467,35.32257],[127.33476,35.32259],[127.33475,35.32264],[127.3356,35.32388],[127.33606,35.32442],[127.33665,35.32484],[127.33666,35.32481],[127.33703,35.32505],[127.33775,35.32532],[127.33833,35.32539],[127.33885,35.32539],[127.33886,35.3253],[127.33915,35.32532],[127.34144,35.32478],[127.3415,35.32472],[127.34273,35.32434],[127.34364,35.32429],[127.34391,35.32433],[127.34445,35.32448],[127.345,35.32471],[127.3472,35.32627],[127.34751,35.32636],[127.34779,35.32653],[127.34835,35.32688],[127.34874,35.32721],[127.3488,35.32718],[127.34896,35.32728],[127.34934,35.32738],[127.34939,35.32747],[127.34957,35.32744],[127.35063,35.32776],[127.3516,35.32787],[127.35176,35.32796],[127.35374,35.32788],[127.35381,35.32784],[127.35494,35.32796],[127.35735,35.32838],[127.3585,35.32872],[127.35871,35.32883],[127.35887,35.32912],[127.35891,35.32912],[127.35907,35.32951],[127.35911,35.32975],[127.35909,35.3301],[127.35893,35.33054],[127.35865,35.33084],[127.35877,35.33091],[127.35872,35.33099],[127.35857,35.33101],[127.35853,35.33113],[127.35818,35.33161],[127.35822,35.33166],[127.35812,35.33176],[127.35813,35.33191],[127.35792,35.33214],[127.35773,35.33256],[127.3576,35.33318],[127.35767,35.33348],[127.35773,35.33346],[127.35778,35.33352],[127.35775,35.33362],[127.35809,35.33388],[127.35865,35.33419],[127.35926,35.33439],[127.35954,35.33445],[127.35957,35.33439],[127.35962,35.3344],[127.35959,35.33447],[127.35968,35.33452],[127.36069,35.33488],[127.36077,35.33487],[127.36101,35.335],[127.3613,35.3352],[127.36163,35.33552],[127.36168,35.33549],[127.36174,35.33554],[127.36167,35.3356],[127.36219,35.33604],[127.36255,35.33626],[127.36314,35.33648],[127.36392,35.33663],[127.36471,35.33689],[127.36598,35.33749],[127.36653,35.33784],[127.36719,35.33836],[127.36816,35.33836],[127.36781,35.33815],[127.36655,35.33718],[127.36614,35.33695],[127.3661,35.33697],[127.36592,35.33688],[127.36596,35.33682],[127.36466,35.33625],[127.36299,35.33584],[127.36266,35.33566],[127.36207,35.33511],[127.36138,35.33459],[127.36123,35.33453],[127.3612,35.33457],[127.36036,35.33427]]]}},{"type":"Feature","properties":{"하천등급":"지방하천","하천명":""},"geometry":{"type":"Polygon","coordinates":[[[127.30987,35.3045],[127.31122,35.30468],[127.31332,35.30531],[127.31453,35.30601],[127.3162,35.30618],[127.31971,35.30639],[127.32059,35.30658],[127.32214,35.30727],[127.32346,35.30741],[127.32451,35.3091],[127.32503,35.30983],[127.3253,35.30966],[127.32527,35.3095],[127.32531,35.30918],[127.3256,35.30857],[127.32642,35.30778],[127.32661,35.30752],[127.32686,35.30733],[127.32691,35.30737],[127.32763,35.30673],[127.32816,35.30619],[127.3283,35.30589],[127.32836,35.30568],[127.32837,35.30539],[127.3283,35.30537],[127.3282,35.30524],[127.32819,35.30499],[127.32822,35.30478],[127.32832,35.30455],[127.32834,35.30428],[127.3284,35.30421],[127.32838,35.30414],[127.32828,35.30407],[127.32811,35.30404],[127.3281,35.30372],[127.3277,35.30335],[127.32763,35.3032],[127.32763,35.30304],[127.32775,35.30285],[127.32829,35.30254],[127.32853,35.30231],[127.3287,35.30135],[127.32876,35.30131],[127.32882,35.30074],[127.329,35.30023],[127.32931,35.29963],[127.32959,35.29849],[127.32964,35.29818],[127.32955,35.29805],[127.32965,35.29708],[127.32979,35.29682],[127.32969,35.29664],[127.32977,35.29599],[127.32987,35.29582],[127.3298,35.29581],[127.32984,35.29531],[127.32995,35.29488],[127.33004,35.29483],[127.32997,35.29476],[127.33002,35.29465],[127.33008,35.29467],[127.33014,35.29453],[127.33017,35.29454],[127.33025,35.29426],[127.33031,35.29424],[127.33032,35.29419],[127.33026,35.29418],[127.33029,35.29404],[127.33044,35.29406],[127.33048,35.29392],[127.33067,35.29397],[127.33068,35.29394],[127.33043,35.29385],[127.3305,35.29359],[127.33057,35.2936],[127.33072,35.29326],[127.33088,35.29307],[127.33097,35.29272],[127.33149,35.29156],[127.3317,35.29133],[127.33169,35.29119],[127.33195,35.29064],[127.33208,35.29063],[127.3321,35.29059],[127.33212,35.29053],[127.33206,35.29047],[127.33231,35.28957],[127.33226,35.28949],[127.33244,35.28836],[127.32617,35.28836],[127.32617,35.28881],[127.32639,35.2896],[127.32638,35.28989],[127.32625,35.29029],[127.32613,35.29036],[127.32605,35.29072],[127.32606,35.29094],[127.32611,35.29094],[127.32586,35.29298],[127.32596,35.29298],[127.3259,35.29335],[127.32582,35.29334],[127.32527,35.29788],[127.32518,35.29851],[127.3251,35.29875],[127.32517,35.29917],[127.32508,35.30004],[127.32506,35.30139],[127.32495,35.30245],[127.32493,35.30339],[127.3248,35.30388],[127.32422,35.30503],[127.32397,35.30524],[127.32402,35.30527],[127.3237,35.30552],[127.32372,35.30556],[127.32367,35.3056],[127.32353,35.30566],[127.32279,35.30576],[127.32255,35.30574],[127.32235,35.30567],[127.32237,35.30556],[127.3222,35.30509],[127.32208,35.30521],[127.32199,35.30521],[127.31937,35.3046],[127.3194,35.30471],[127.31926,35.30472],[127.31726,35.30421],[127.31703,35.30414],[127.317,35.30407],[127.31657,35.30403],[127.3153,35.30362],[127.31425,35.30336],[127.31351,35.30322],[127.31339,35.30324],[127.31084,35.30289],[127.30992,35.30283],[127.30975,35.30277],[127.30942,35.30278],[127.30942,35.30449],[127.30987,35.3045]]]}},{"type":"Feature","properties":{"하천등급":"지방하천","하천명":""},"geometry":{"type":"Polygon","coordinates":[[[127.32956,35.29805],[127.32964,35.29818],[127.32959,35.29847],[127.33026,35.29845],[127.33094,35.29861],[127.33131,35.29874],[127.33237,35.2993],[127.33273,35.29932],[127.33315,35.29925],[127.33373,35.29871],[127.33401,35.2986],[127.33461,35.29857],[127.3349,35.29868],[127.33531,35.29902],[127.33536,35.299],[127.33549,35.29906],[127.33602,35.29947],[127.33641,35.29957],[127.33645,35.29949],[127.33642,35.29946],[127.3369,35.29922],[127.33738,35.29871],[127.33788,35.29905],[127.3383,35.29943],[127.33858,35.29954],[127.33972,35.29957],[127.33992,35.29964],[127.34057,35.30034],[127.34162,35.30103],[127.34247,35.30166],[127.34285,35.30177],[127.34333,35.30183],[127.34363,35.30174],[127.34398,35.30144],[127.34421,35.30134],[127.34475,35.30125],[127.34519,35.30136],[127.34728,35.30327],[127.34773,35.3034],[127.34833,35.30379],[127.34905,35.30465],[127.34954,35.30483],[127.34987,35.30484],[127.3498,35.30481],[127.3498,35.30474],[127.34987,35.3047],[127.34983,35.30462],[127.34947,35.30456],[127.34921,35.30443],[127.34865,35.30378],[127.34844,35.30361],[127.34781,35.30323],[127.34743,35.30311],[127.34738,35.30302],[127.34706,35.30277],[127.34703,35.30269],[127.34616,35.30192],[127.34543,35.30119],[127.34471,35.30104],[127.34417,35.30111],[127.34388,35.30122],[127.3436,35.30148],[127.34331,35.3016],[127.34245,35.30144],[127.34193,35.30108],[127.34171,35.30086],[127.34066,35.30013],[127.34009,35.29937],[127.33978,35.29926],[127.3387,35.29922],[127.3385,35.29913],[127.33756,35.29846],[127.33731,35.29842],[127.3371,35.2985],[127.33667,35.29901],[127.33624,35.29921],[127.33612,35.29918],[127.33565,35.29888],[127.3354,35.29866],[127.33505,35.29845],[127.33471,35.29832],[127.33409,35.2983],[127.33372,35.29837],[127.33344,35.29851],[127.3328,35.29901],[127.33256,35.29901],[127.33221,35.29867],[127.33108,35.29812],[127.33044,35.29797],[127.32956,35.29794],[127.32956,35.29805]]]}},{"type":"Feature","properties":{"하천등급":"지방하천","하천명":""},"geometry":{"type":"Polygon","coordinates":[[[127.36036,35.33427],[127.36026,35.33422],[127.36026,35.33417],[127.35988,35.33407],[127.35983,35.33399],[127.35918,35.33378],[127.35858,35.3335],[127.35831,35.33326],[127.35809,35.33291],[127.35811,35.33264],[127.35825,35.33239],[127.3585,35.33212],[127.35847,35.33206],[127.35853,35.332],[127.35859,35.33205],[127.35944,35.33111],[127.35934,35.33106],[127.35939,35.33097],[127.35959,35.33096],[127.35985,35.33017],[127.35989,35.32976],[127.35982,35.32976],[127.35974,35.32938],[127.35977,35.32933],[127.35991,35.32931],[127.35993,35.32905],[127.35965,35.32883],[127.35949,35.32849],[127.35927,35.32838],[127.35838,35.32808],[127.35827,35.32799],[127.35781,35.3279],[127.35771,35.32784],[127.35757,35.32785],[127.35723,35.32773],[127.35719,35.32767],[127.35676,35.3276],[127.35366,35.32719],[127.35208,35.32729],[127.35147,35.32726],[127.35002,35.32689],[127.3498,35.3269],[127.34939,35.32667],[127.34891,35.32649],[127.34856,35.32622],[127.34851,35.32633],[127.34846,35.3263],[127.34848,35.32625],[127.34774,35.32574],[127.34767,35.32568],[127.34768,35.32563],[127.34571,35.32422],[127.3456,35.32418],[127.34546,35.32403],[127.34533,35.32401],[127.3452,35.32387],[127.34462,35.32357],[127.34398,35.32342],[127.34323,35.32342],[127.34273,35.32351],[127.34231,35.32371],[127.34184,35.3238],[127.34098,35.32414],[127.34014,35.32431],[127.33919,35.32456],[127.33904,35.32464],[127.33888,35.32465],[127.33887,35.32469],[127.3378,35.32455],[127.3373,35.32434],[127.33659,35.32388],[127.33612,35.32341],[127.33496,35.32183],[127.33461,35.32151],[127.33417,35.32122],[127.33365,35.321],[127.33361,35.32092],[127.33294,35.32069],[127.33018,35.32008],[127.32914,35.31966],[127.3279,35.31896],[127.32726,35.31831],[127.3271,35.31805],[127.32698,35.31773],[127.32678,35.31744],[127.32683,35.31725],[127.32672,35.31676],[127.32675,35.31645],[127.3271,35.31541],[127.32725,35.31516],[127.32723,35.31506],[127.32734,35.3147],[127.32745,35.31399],[127.32743,35.31357],[127.32734,35.31319],[127.32724,35.31297],[127.32718,35.31294],[127.32722,35.31272],[127.32714,35.31256],[127.327,35.3125],[127.32696,35.31242],[127.32688,35.31216],[127.32689,35.31197],[127.32681,35.31189],[127.32678,35.31177],[127.32619,35.31106],[127.32596,35.31066],[127.32581,35.31065],[127.32564,35.31043],[127.32558,35.31047],[127.32504,35.30983],[127.32367,35.31079],[127.32389,35.31091],[127.32381,35.31099],[127.32499,35.31195],[127.32542,35.31252],[127.32572,35.31314],[127.32589,35.31379],[127.32591,35.3148],[127.32525,35.3168],[127.32524,35.31714],[127.32537,35.31717],[127.32595,35.3186],[127.32605,35.31873],[127.32626,35.31934],[127.32648,35.31971],[127.32689,35.31963],[127.32685,35.31948],[127.32694,35.31935],[127.32702,35.31932],[127.32737,35.31946],[127.32751,35.31961],[127.32813,35.32004],[127.32964,35.32067],[127.3326,35.32127],[127.33362,35.32169],[127.33373,35.32171],[127.33376,35.32164],[127.33384,35.32169],[127.33382,35.32181],[127.33431,35.32216],[127.33467,35.32257],[127.33476,35.32259],[127.33475,35.32264],[127.3356,35.32388],[127.33606,35.32442],[127.33665,35.32484],[127.33666,35.32481],[127.33703,35.32505],[127.33775,35.32532],[127.33833,35.32539],[127.33885,35.32539],[127.33886,35.3253],[127.33915,35.32532],[127.34144,35.32478],[127.3415,35.32472],[127.34273,35.32434],[127.34364,35.32429],[127.34391,35.32433],[127.34445,35.32448],[127.345,35.32471],[127.3472,35.32627],[127.34751,35.32636],[127.34779,35.32653],[127.34835,35.32688],[127.34874,35.32721],[127.3488,35.32718],[127.34896,35.32728],[127.34934,35.32738],[127.34939,35.32747],[127.34957,35.32744],[127.35063,35.32776],[127.3516,35.32787],[127.35176,35.32796],[127.35374,35.32788],[127.35381,35.32784],[127.35494,35.32796],[127.35735,35.32838],[127.3585,35.32872],[127.35871,35.32883],[127.35887,35.32912],[127.35891,35.32912],[127.35907,35.32951],[127.35911,35.32975],[127.35909,35.3301],[127.35893,35.33054],[127.35865,35.33084],[127.35877,35.33091],[127.35872,35.33099],[127.35857,35.33101],[127.35853,35.33113],[127.35818,35.33161],[127.35822,35.33166],[127.35812,35.33176],[127.35813,35.33191],[127.35792,35.33214],[127.35773,35.33256],[127.3576,35.33318],[127.35767,35.33348],[127.35773,35.33346],[127.35778,35.33352],[127.35775,35.33362],[127.35809,35.33388],[127.35865,35.33419],[127.35926,35.33439],[127.35954,35.33445],[127.35957,35.33439],[127.35962,35.3344],[127.35959,35.33447],[127.35968,35.33452],[127.36069,35.33488],[127.36077,35.33487],[127.36101,35.335],[127.3613,35.3352],[127.36163,35.33552],[127.36168,35.33549],[127.36174,35.33554],[127.36167,35.3356],[127.36219,35.33604],[127.36255,35.33626],[127.36314,35.33648],[127.36392,35.33663],[127.36471,35.33689],[127.36598,35.33749],[127.36653,35.33784],[127.36719,35.33836],[127.36816,35.33836],[127.36781,35.33815],[127.36655,35.33718],[127.36614,35.33695],[127.3661,35.33697],[127.36592,35.33688],[127.36596,35.33682],[127.36466,35.33625],[127.36299,35.33584],[127.36266,35.33566],[127.36207,35.33511],[127.36138,35.33459],[127.36123,35.33453],[127.3612,35.33457],[127.36036,35.33427]]]}},{"type":"Feature","properties":{"하천등급":"지방하천","하천명":""},"geometry":{"type":"Polygon","coordinates":[[[127.30987,35.3045],[127.31122,35.30468],[127.31332,35.30531],[127.31453,35.30601],[127.3162,35.30618],[127.31971,35.30639],[127.32059,35.30658],[127.32214,35.30727],[127.32346,35.30741],[127.32451,35.3091],[127.32503,35.30983],[127.3253,35.30966],[127.32527,35.3095],[127.32531,35.30918],[127.3256,35.30857],[127.32642,35.30778],[127.32661,35.30752],[127.32686,35.30733],[127.32691,35.30737],[127.32763,35.30673],[127.32816,35.30619],[127.3283,35.30589],[127.32836,35.30568],[127.32837,35.30539],[127.3283,35.30537],[127.3282,35.30524],[127.32819,35.30499],[127.32822,35.30478],[127.32832,35.30455],[127.32834,35.30428],[127.3284,35.30421],[127.32838,35.30414],[127.32828,35.30407],[127.32811,35.30404],[127.3281,35.30372],[127.3277,35.30335],[127.32763,35.3032],[127.32763,35.30304],[127.32775,35.30285],[127.32829,35.30254],[127.32853,35.30231],[127.3287,35.30135],[127.32876,35.30131],[127.32882,35.30074],[127.329,35.30023],[127.32931,35.29963],[127.32959,35.29849],[127.32964,35.29818],[127.32955,35.29805],[127.32965,35.29708],[127.32979,35.29682],[127.32969,35.29664],[127.32977,35.29599],[127.32987,35.29582],[127.3298,35.29581],[127.32984,35.29531],[127.32995,35.29488],[127.33004,35.29483],[127.32997,35.29476],[127.33002,35.29465],[127.33008,35.29467],[127.33014,35.29453],[127.33017,35.29454],[127.33025,35.29426],[127.33031,35.29424],[127.33032,35.29419],[127.33026,35.29418],[127.33029,35.29404],[127.33044,35.29406],[127.33048,35.29392],[127.33067,35.29397],[127.33068,35.29394],[127.33043,35.29385],[127.3305,35.29359],[127.33057,35.2936],[127.33072,35.29326],[127.33088,35.29307],[127.33097,35.29272],[127.33149,35.29156],[127.3317,35.29133],[127.33169,35.29119],[127.33195,35.29064],[127.33208,35.29063],[127.3321,35.29059],[127.33212,35.29053],[127.33206,35.29047],[127.33231,35.28957],[127.33226,35.28949],[127.33244,35.28836],[127.32617,35.28836],[127.32617,35.28881],[127.32639,35.2896],[127.32638,35.28989],[127.32625,35.29029],[127.32613,35.29036],[127.32605,35.29072],[127.32606,35.29094],[127.32611,35.29094],[127.32586,35.29298],[127.32596,35.29298],[127.3259,35.29335],[127.32582,35.29334],[127.32527,35.29788],[127.32518,35.29851],[127.3251,35.29875],[127.32517,35.29917],[127.32508,35.30004],[127.32506,35.30139],[127.32495,35.30245],[127.32493,35.30339],[127.3248,35.30388],[127.32422,35.30503],[127.32397,35.30524],[127.32402,35.30527],[127.3237,35.30552],[127.32372,35.30556],[127.32367,35.3056],[127.32353,35.30566],[127.32279,35.30576],[127.32255,35.30574],[127.32235,35.30567],[127.32237,35.30556],[127.3222,35.30509],[127.32208,35.30521],[127.32199,35.30521],[127.31937,35.3046],[127.3194,35.30471],[127.31926,35.30472],[127.31726,35.30421],[127.31703,35.30414],[127.317,35.30407],[127.31657,35.30403],[127.3153,35.30362],[127.31425,35.30336],[127.31351,35.30322],[127.31339,35.30324],[127.31084,35.30289],[127.30992,35.30283],[127.30975,35.30277],[127.30942,35.30278],[127.30942,35.30449],[127.30987,35.3045]]]}},{"type":"Feature","properties":{"하천등급":"지방하천","하천명":""},"geometry":{"type":"Polygon","coordinates":[[[127.32956,35.29805],[127.32964,35.29818],[127.32959,35.29847],[127.33026,35.29845],[127.33094,35.29861],[127.33131,35.29874],[127.33237,35.2993],[127.33273,35.29932],[127.33315,35.29925],[127.33373,35.29871],[127.33401,35.2986],[127.33461,35.29857],[127.3349,35.29868],[127.33531,35.29902],[127.33536,35.299],[127.33549,35.29906],[127.33602,35.29947],[127.33641,35.29957],[127.33645,35.29949],[127.33642,35.29946],[127.3369,35.29922],[127.33738,35.29871],[127.33788,35.29905],[127.3383,35.29943],[127.33858,35.29954],[127.33972,35.29957],[127.33992,35.29964],[127.34057,35.30034],[127.34162,35.30103],[127.34247,35.30166],[127.34285,35.30177],[127.34333,35.30183],[127.34363,35.30174],[127.34398,35.30144],[127.34421,35.30134],[127.34475,35.30125],[127.34519,35.30136],[127.34728,35.30327],[127.34773,35.3034],[127.34833,35.30379],[127.34905,35.30465],[127.34954,35.30483],[127.34987,35.30484],[127.3498,35.30481],[127.3498,35.30474],[127.34987,35.3047],[127.34983,35.30462],[127.34947,35.30456],[127.34921,35.30443],[127.34865,35.30378],[127.34844,35.30361],[127.34781,35.30323],[127.34743,35.30311],[127.34738,35.30302],[127.34706,35.30277],[127.34703,35.30269],[127.34616,35.30192],[127.34543,35.30119],[127.34471,35.30104],[127.34417,35.30111],[127.34388,35.30122],[127.3436,35.30148],[127.34331,35.3016],[127.34245,35.30144],[127.34193,35.30108],[127.34171,35.30086],[127.34066,35.30013],[127.34009,35.29937],[127.33978,35.29926],[127.3387,35.29922],[127.3385,35.29913],[127.33756,35.29846],[127.33731,35.29842],[127.3371,35.2985],[127.33667,35.29901],[127.33624,35.29921],[127.33612,35.29918],[127.33565,35.29888],[127.3354,35.29866],[127.33505,35.29845],[127.33471,35.29832],[127.33409,35.2983],[127.33372,35.29837],[127.33344,35.29851],[127.3328,35.29901],[127.33256,35.29901],[127.33221,35.29867],[127.33108,35.29812],[127.33044,35.29797],[127.32956,35.29794],[127.32956,35.29805]]]}},{"type":"Feature","properties":{"하천등급":"지방하천","하천명":""},"geometry":{"type":"Polygon","coordinates":[[[127.36036,35.33427],[127.36026,35.33422],[127.36026,35.33417],[127.35988,35.33407],[127.35983,35.33399],[127.35918,35.33378],[127.35858,35.3335],[127.35831,35.33326],[127.35809,35.33291],[127.35811,35.33264],[127.35825,35.33239],[127.3585,35.33212],[127.35847,35.33206],[127.35853,35.332],[127.35859,35.33205],[127.35944,35.33111],[127.35934,35.33106],[127.35939,35.33097],[127.35959,35.33096],[127.35985,35.33017],[127.35989,35.32976],[127.35982,35.32976],[127.35974,35.32938],[127.35977,35.32933],[127.35991,35.32931],[127.35993,35.32905],[127.35965,35.32883],[127.35949,35.32849],[127.35927,35.32838],[127.35838,35.32808],[127.35827,35.32799],[127.35781,35.3279],[127.35771,35.32784],[127.35757,35.32785],[127.35723,35.32773],[127.35719,35.32767],[127.35676,35.3276],[127.35366,35.32719],[127.35208,35.32729],[127.35147,35.32726],[127.35002,35.32689],[127.3498,35.3269],[127.34939,35.32667],[127.34891,35.32649],[127.34856,35.32622],[127.34851,35.32633],[127.34846,35.3263],[127.34848,35.32625],[127.34774,35.32574],[127.34767,35.32568],[127.34768,35.32563],[127.34571,35.32422],[127.3456,35.32418],[127.34546,35.32403],[127.34533,35.32401],[127.3452,35.32387],[127.34462,35.32357],[127.34398,35.32342],[127.34323,35.32342],[127.34273,35.32351],[127.34231,35.32371],[127.34184,35.3238],[127.34098,35.32414],[127.34014,35.32431],[127.33919,35.32456],[127.33904,35.32464],[127.33888,35.32465],[127.33887,35.32469],[127.3378,35.32455],[127.3373,35.32434],[127.33659,35.32388],[127.33612,35.32341],[127.33496,35.32183],[127.33461,35.32151],[127.33417,35.32122],[127.33365,35.321],[127.33361,35.32092],[127.33294,35.32069],[127.33018,35.32008],[127.32914,35.31966],[127.3279,35.31896],[127.32726,35.31831],[127.3271,35.31805],[127.32698,35.31773],[127.32678,35.31744],[127.32683,35.31725],[127.32672,35.31676],[127.32675,35.31645],[127.3271,35.31541],[127.32725,35.31516],[127.32723,35.31506],[127.32734,35.3147],[127.32745,35.31399],[127.32743,35.31357],[127.32734,35.31319],[127.32724,35.31297],[127.32718,35.31294],[127.32722,35.31272],[127.32714,35.31256],[127.327,35.3125],[127.32696,35.31242],[127.32688,35.31216],[127.32689,35.31197],[127.32681,35.31189],[127.32678,35.31177],[127.32619,35.31106],[127.32596,35.31066],[127.32581,35.31065],[127.32564,35.31043],[127.32558,35.31047],[127.32504,35.30983],[127.32367,35.31079],[127.32389,35.31091],[127.32381,35.31099],[127.32499,35.31195],[127.32542,35.31252],[127.32572,35.31314],[127.32589,35.31379],[127.32591,35.3148],[127.32525,35.3168],[127.32524,35.31714],[127.32537,35.31717],[127.32595,35.3186],[127.32605,35.31873],[127.32626,35.31934],[127.32648,35.31971],[127.32689,35.31963],[127.32685,35.31948],[127.32694,35.31935],[127.32702,35.31932],[127.32737,35.31946],[127.32751,35.31961],[127.32813,35.32004],[127.32964,35.32067],[127.3326,35.32127],[127.33362,35.32169],[127.33373,35.32171],[127.33376,35.32164],[127.33384,35.32169],[127.33382,35.32181],[127.33431,35.32216],[127.33467,35.32257],[127.33476,35.32259],[127.33475,35.32264],[127.3356,35.32388],[127.33606,35.32442],[127.33665,35.32484],[127.33666,35.32481],[127.33703,35.32505],[127.33775,35.32532],[127.33833,35.32539],[127.33885,35.32539],[127.33886,35.3253],[127.33915,35.32532],[127.34144,35.32478],[127.3415,35.32472],[127.34273,35.32434],[127.34364,35.32429],[127.34391,35.32433],[127.34445,35.32448],[127.345,35.32471],[127.3472,35.32627],[127.34751,35.32636],[127.34779,35.32653],[127.34835,35.32688],[127.34874,35.32721],[127.3488,35.32718],[127.34896,35.32728],[127.34934,35.32738],[127.34939,35.32747],[127.34957,35.32744],[127.35063,35.32776],[127.3516,35.32787],[127.35176,35.32796],[127.35374,35.32788],[127.35381,35.32784],[127.35494,35.32796],[127.35735,35.32838],[127.3585,35.32872],[127.35871,35.32883],[127.35887,35.32912],[127.35891,35.32912],[127.35907,35.32951],[127.35911,35.32975],[127.35909,35.3301],[127.35893,35.33054],[127.35865,35.33084],[127.35877,35.33091],[127.35872,35.33099],[127.35857,35.33101],[127.35853,35.33113],[127.35818,35.33161],[127.35822,35.33166],[127.35812,35.33176],[127.35813,35.33191],[127.35792,35.33214],[127.35773,35.33256],[127.3576,35.33318],[127.35767,35.33348],[127.35773,35.33346],[127.35778,35.33352],[127.35775,35.33362],[127.35809,35.33388],[127.35865,35.33419],[127.35926,35.33439],[127.35954,35.33445],[127.35957,35.33439],[127.35962,35.3344],[127.35959,35.33447],[127.35968,35.33452],[127.36069,35.33488],[127.36077,35.33487],[127.36101,35.335],[127.3613,35.3352],[127.36163,35.33552],[127.36168,35.33549],[127.36174,35.33554],[127.36167,35.3356],[127.36219,35.33604],[127.36255,35.33626],[127.36314,35.33648],[127.36392,35.33663],[127.36471,35.33689],[127.36598,35.33749],[127.36653,35.33784],[127.36719,35.33836],[127.36816,35.33836],[127.36781,35.33815],[127.36655,35.33718],[127.36614,35.33695],[127.3661,35.33697],[127.36592,35.33688],[127.36596,35.33682],[127.36466,35.33625],[127.36299,35.33584],[127.36266,35.33566],[127.36207,35.33511],[127.36138,35.33459],[127.36123,35.33453],[127.3612,35.33457],[127.36036,35.33427]]]}},{"type":"Feature","properties":{"하천등급":"지방하천","하천명":""},"geometry":{"type":"Polygon","coordinates":[[[127.30987,35.3045],[127.31122,35.30468],[127.31332,35.30531],[127.31453,35.30601],[127.3162,35.30618],[127.31971,35.30639],[127.32059,35.30658],[127.32214,35.30727],[127.32346,35.30741],[127.32451,35.3091],[127.32503,35.30983],[127.3253,35.30966],[127.32527,35.3095],[127.32531,35.30918],[127.3256,35.30857],[127.32642,35.30778],[127.32661,35.30752],[127.32686,35.30733],[127.32691,35.30737],[127.32763,35.30673],[127.32816,35.30619],[127.3283,35.30589],[127.32836,35.30568],[127.32837,35.30539],[127.3283,35.30537],[127.3282,35.30524],[127.32819,35.30499],[127.32822,35.30478],[127.32832,35.30455],[127.32834,35.30428],[127.3284,35.30421],[127.32838,35.30414],[127.32828,35.30407],[127.32811,35.30404],[127.3281,35.30372],[127.3277,35.30335],[127.32763,35.3032],[127.32763,35.30304],[127.32775,35.30285],[127.32829,35.30254],[127.32853,35.30231],[127.3287,35.30135],[127.32876,35.30131],[127.32882,35.30074],[127.329,35.30023],[127.32931,35.29963],[127.32959,35.29849],[127.32964,35.29818],[127.32955,35.29805],[127.32965,35.29708],[127.32979,35.29682],[127.32969,35.29664],[127.32977,35.29599],[127.32987,35.29582],[127.3298,35.29581],[127.32984,35.29531],[127.32995,35.29488],[127.33004,35.29483],[127.32997,35.29476],[127.33002,35.29465],[127.33008,35.29467],[127.33014,35.29453],[127.33017,35.29454],[127.33025,35.29426],[127.33031,35.29424],[127.33032,35.29419],[127.33026,35.29418],[127.33029,35.29404],[127.33044,35.29406],[127.33048,35.29392],[127.33067,35.29397],[127.33068,35.29394],[127.33043,35.29385],[127.3305,35.29359],[127.33057,35.2936],[127.33072,35.29326],[127.33088,35.29307],[127.33097,35.29272],[127.33149,35.29156],[127.3317,35.29133],[127.33169,35.29119],[127.33195,35.29064],[127.33208,35.29063],[127.3321,35.29059],[127.33212,35.29053],[127.33206,35.29047],[127.33231,35.28957],[127.33226,35.28949],[127.33244,35.28836],[127.32617,35.28836],[127.32617,35.28881],[127.32639,35.2896],[127.32638,35.28989],[127.32625,35.29029],[127.32613,35.29036],[127.32605,35.29072],[127.32606,35.29094],[127.32611,35.29094],[127.32586,35.29298],[127.32596,35.29298],[127.3259,35.29335],[127.32582,35.29334],[127.32527,35.29788],[127.32518,35.29851],[127.3251,35.29875],[127.32517,35.29917],[127.32508,35.30004],[127.32506,35.30139],[127.32495,35.30245],[127.32493,35.30339],[127.3248,35.30388],[127.32422,35.30503],[127.32397,35.30524],[127.32402,35.30527],[127.3237,35.30552],[127.32372,35.30556],[127.32367,35.3056],[127.32353,35.30566],[127.32279,35.30576],[127.32255,35.30574],[127.32235,35.30567],[127.32237,35.30556],[127.3222,35.30509],[127.32208,35.30521],[127.32199,35.30521],[127.31937,35.3046],[127.3194,35.30471],[127.31926,35.30472],[127.31726,35.30421],[127.31703,35.30414],[127.317,35.30407],[127.31657,35.30403],[127.3153,35.30362],[127.31425,35.30336],[127.31351,35.30322],[127.31339,35.30324],[127.31084,35.30289],[127.30992,35.30283],[127.30975,35.30277],[127.30942,35.30278],[127.30942,35.30449],[127.30987,35.3045]]]}},{"type":"Feature","properties":{"하천등급":"지방하천","하천명":""},"geometry":{"type":"Polygon","coordinates":[[[127.32956,35.29805],[127.32964,35.29818],[127.32959,35.29847],[127.33026,35.29845],[127.33094,35.29861],[127.33131,35.29874],[127.33237,35.2993],[127.33273,35.29932],[127.33315,35.29925],[127.33373,35.29871],[127.33401,35.2986],[127.33461,35.29857],[127.3349,35.29868],[127.33531,35.29902],[127.33536,35.299],[127.33549,35.29906],[127.33602,35.29947],[127.33641,35.29957],[127.33645,35.29949],[127.33642,35.29946],[127.3369,35.29922],[127.33738,35.29871],[127.33788,35.29905],[127.3383,35.29943],[127.33858,35.29954],[127.33972,35.29957],[127.33992,35.29964],[127.34057,35.30034],[127.34162,35.30103],[127.34247,35.30166],[127.34285,35.30177],[127.34333,35.30183],[127.34363,35.30174],[127.34398,35.30144],[127.34421,35.30134],[127.34475,35.30125],[127.34519,35.30136],[127.34728,35.30327],[127.34773,35.3034],[127.34833,35.30379],[127.34905,35.30465],[127.34954,35.30483],[127.34987,35.30484],[127.3498,35.30481],[127.3498,35.30474],[127.34987,35.3047],[127.34983,35.30462],[127.34947,35.30456],[127.34921,35.30443],[127.34865,35.30378],[127.34844,35.30361],[127.34781,35.30323],[127.34743,35.30311],[127.34738,35.30302],[127.34706,35.30277],[127.34703,35.30269],[127.34616,35.30192],[127.34543,35.30119],[127.34471,35.30104],[127.34417,35.30111],[127.34388,35.30122],[127.3436,35.30148],[127.34331,35.3016],[127.34245,35.30144],[127.34193,35.30108],[127.34171,35.30086],[127.34066,35.30013],[127.34009,35.29937],[127.33978,35.29926],[127.3387,35.29922],[127.3385,35.29913],[127.33756,35.29846],[127.33731,35.29842],[127.3371,35.2985],[127.33667,35.29901],[127.33624,35.29921],[127.33612,35.29918],[127.33565,35.29888],[127.3354,35.29866],[127.33505,35.29845],[127.33471,35.29832],[127.33409,35.2983],[127.33372,35.29837],[127.33344,35.29851],[127.3328,35.29901],[127.33256,35.29901],[127.33221,35.29867],[127.33108,35.29812],[127.33044,35.29797],[127.32956,35.29794],[127.32956,35.29805]]]}},{"type":"Feature","properties":{"하천등급":"지방하천","하천명":""},"geometry":{"type":"Polygon","coordinates":[[[127.36036,35.33427],[127.36026,35.33422],[127.36026,35.33417],[127.35988,35.33407],[127.35983,35.33399],[127.35918,35.33378],[127.35858,35.3335],[127.35831,35.33326],[127.35809,35.33291],[127.35811,35.33264],[127.35825,35.33239],[127.3585,35.33212],[127.35847,35.33206],[127.35853,35.332],[127.35859,35.33205],[127.35944,35.33111],[127.35934,35.33106],[127.35939,35.33097],[127.35959,35.33096],[127.35985,35.33017],[127.35989,35.32976],[127.35982,35.32976],[127.35974,35.32938],[127.35977,35.32933],[127.35991,35.32931],[127.35993,35.32905],[127.35965,35.32883],[127.35949,35.32849],[127.35927,35.32838],[127.35838,35.32808],[127.35827,35.32799],[127.35781,35.3279],[127.35771,35.32784],[127.35757,35.32785],[127.35723,35.32773],[127.35719,35.32767],[127.35676,35.3276],[127.35366,35.32719],[127.35208,35.32729],[127.35147,35.32726],[127.35002,35.32689],[127.3498,35.3269],[127.34939,35.32667],[127.34891,35.32649],[127.34856,35.32622],[127.34851,35.32633],[127.34846,35.3263],[127.34848,35.32625],[127.34774,35.32574],[127.34767,35.32568],[127.34768,35.32563],[127.34571,35.32422],[127.3456,35.32418],[127.34546,35.32403],[127.34533,35.32401],[127.3452,35.32387],[127.34462,35.32357],[127.34398,35.32342],[127.34323,35.32342],[127.34273,35.32351],[127.34231,35.32371],[127.34184,35.3238],[127.34098,35.32414],[127.34014,35.32431],[127.33919,35.32456],[127.33904,35.32464],[127.33888,35.32465],[127.33887,35.32469],[127.3378,35.32455],[127.3373,35.32434],[127.33659,35.32388],[127.33612,35.32341],[127.33496,35.32183],[127.33461,35.32151],[127.33417,35.32122],[127.33365,35.321],[127.33361,35.32092],[127.33294,35.32069],[127.33018,35.32008],[127.32914,35.31966],[127.3279,35.31896],[127.32726,35.31831],[127.3271,35.31805],[127.32698,35.31773],[127.32678,35.31744],[127.32683,35.31725],[127.32672,35.31676],[127.32675,35.31645],[127.3271,35.31541],[127.32725,35.31516],[127.32723,35.31506],[127.32734,35.3147],[127.32745,35.31399],[127.32743,35.31357],[127.32734,35.31319],[127.32724,35.31297],[127.32718,35.31294],[127.32722,35.31272],[127.32714,35.31256],[127.327,35.3125],[127.32696,35.31242],[127.32688,35.31216],[127.32689,35.31197],[127.32681,35.31189],[127.32678,35.31177],[127.32619,35.31106],[127.32596,35.31066],[127.32581,35.31065],[127.32564,35.31043],[127.32558,35.31047],[127.32504,35.30983],[127.32367,35.31079],[127.32389,35.31091],[127.32381,35.31099],[127.32499,35.31195],[127.32542,35.31252],[127.32572,35.31314],[127.32589,35.31379],[127.32591,35.3148],[127.32525,35.3168],[127.32524,35.31714],[127.32537,35.31717],[127.32595,35.3186],[127.32605,35.31873],[127.32626,35.31934],[127.32648,35.31971],[127.32689,35.31963],[127.32685,35.31948],[127.32694,35.31935],[127.32702,35.31932],[127.32737,35.31946],[127.32751,35.31961],[127.32813,35.32004],[127.32964,35.32067],[127.3326,35.32127],[127.33362,35.32169],[127.33373,35.32171],[127.33376,35.32164],[127.33384,35.32169],[127.33382,35.32181],[127.33431,35.32216],[127.33467,35.32257],[127.33476,35.32259],[127.33475,35.32264],[127.3356,35.32388],[127.33606,35.32442],[127.33665,35.32484],[127.33666,35.32481],[127.33703,35.32505],[127.33775,35.32532],[127.33833,35.32539],[127.33885,35.32539],[127.33886,35.3253],[127.33915,35.32532],[127.34144,35.32478],[127.3415,35.32472],[127.34273,35.32434],[127.34364,35.32429],[127.34391,35.32433],[127.34445,35.32448],[127.345,35.32471],[127.3472,35.32627],[127.34751,35.32636],[127.34779,35.32653],[127.34835,35.32688],[127.34874,35.32721],[127.3488,35.32718],[127.34896,35.32728],[127.34934,35.32738],[127.34939,35.32747],[127.34957,35.32744],[127.35063,35.32776],[127.3516,35.32787],[127.35176,35.32796],[127.35374,35.32788],[127.35381,35.32784],[127.35494,35.32796],[127.35735,35.32838],[127.3585,35.32872],[127.35871,35.32883],[127.35887,35.32912],[127.35891,35.32912],[127.35907,35.32951],[127.35911,35.32975],[127.35909,35.3301],[127.35893,35.33054],[127.35865,35.33084],[127.35877,35.33091],[127.35872,35.33099],[127.35857,35.33101],[127.35853,35.33113],[127.35818,35.33161],[127.35822,35.33166],[127.35812,35.33176],[127.35813,35.33191],[127.35792,35.33214],[127.35773,35.33256],[127.3576,35.33318],[127.35767,35.33348],[127.35773,35.33346],[127.35778,35.33352],[127.35775,35.33362],[127.35809,35.33388],[127.35865,35.33419],[127.35926,35.33439],[127.35954,35.33445],[127.35957,35.33439],[127.35962,35.3344],[127.35959,35.33447],[127.35968,35.33452],[127.36069,35.33488],[127.36077,35.33487],[127.36101,35.335],[127.3613,35.3352],[127.36163,35.33552],[127.36168,35.33549],[127.36174,35.33554],[127.36167,35.3356],[127.36219,35.33604],[127.36255,35.33626],[127.36314,35.33648],[127.36392,35.33663],[127.36471,35.33689],[127.36598,35.33749],[127.36653,35.33784],[127.36719,35.33836],[127.36816,35.33836],[127.36781,35.33815],[127.36655,35.33718],[127.36614,35.33695],[127.3661,35.33697],[127.36592,35.33688],[127.36596,35.33682],[127.36466,35.33625],[127.36299,35.33584],[127.36266,35.33566],[127.36207,35.33511],[127.36138,35.33459],[127.36123,35.33453],[127.3612,35.33457],[127.36036,35.33427]]]}}]}