{"type":"FeatureCollection","xy_coordinate_resolution":1e-06,"features":[{"type":"Feature","properties":{"count":56,"area":100.0,"conf_n":40,"mean_conf":0.6551,"top":"styrofoam","top_share":0.946},"geometry":{"type":"Polygon","coordinates":[[[127.643436,34.632376],[127.643443,34.633278],[127.642352,34.633283],[127.642345,34.632382],[127.643436,34.632376]]]}},{"type":"Feature","properties":{"count":11,"area":41.2,"conf_n":10,"mean_conf":0.4444,"top":"rope","top_share":0.545},"geometry":{"type":"Polygon","coordinates":[[[127.644505,34.629666],[127.644512,34.630568],[127.643422,34.630573],[127.643415,34.629672],[127.644505,34.629666]]]}},{"type":"Feature","properties":{"count":79,"area":149.7,"conf_n":59,"mean_conf":0.6881,"top":"styrofoam","top_share":0.924},"geometry":{"type":"Polygon","coordinates":[[[127.644512,34.630568],[127.644519,34.631469],[127.643429,34.631475],[127.643422,34.630573],[127.644512,34.630568]]]}},{"type":"Feature","properties":{"count":141,"area":251.9,"conf_n":104,"mean_conf":0.665,"top":"styrofoam","top_share":0.844},"geometry":{"type":"Polygon","coordinates":[[[127.644519,34.631469],[127.644526,34.63237],[127.643436,34.632376],[127.643429,34.631475],[127.644519,34.631469]]]}},{"type":"Feature","properties":{"count":3,"area":2.6,"conf_n":2,"mean_conf":0.567,"top":"plastic_box","top_share":0.667},"geometry":{"type":"Polygon","coordinates":[[[127.645617,34.632365],[127.645624,34.633266],[127.644533,34.633272],[127.644526,34.63237],[127.645617,34.632365]]]}},{"type":"Feature","properties":{"count":3,"area":9.7,"conf_n":3,"mean_conf":0.7593,"top":"buoy_blue","top_share":0.667},"geometry":{"type":"Polygon","coordinates":[[[127.646602,34.618838],[127.646609,34.61974],[127.645519,34.619745],[127.645512,34.618844],[127.646602,34.618838]]]}},{"type":"Feature","properties":{"count":26,"area":30.5,"conf_n":22,"mean_conf":0.677,"top":"styrofoam","top_share":0.923},"geometry":{"type":"Polygon","coordinates":[[[127.646707,34.632359],[127.646714,34.63326],[127.645624,34.633266],[127.645617,34.632365],[127.646707,34.632359]]]}},{"type":"Feature","properties":{"count":83,"area":252.3,"conf_n":60,"mean_conf":0.6726,"top":"styrofoam","top_share":0.639},"geometry":{"type":"Polygon","coordinates":[[[127.646714,34.63326],[127.646721,34.634162],[127.645631,34.634167],[127.645624,34.633266],[127.646714,34.63326]]]}},{"type":"Feature","properties":{"count":7,"area":7.6,"conf_n":5,"mean_conf":0.5392,"top":"styrofoam","top_share":0.429},"geometry":{"type":"Polygon","coordinates":[[[127.646721,34.634162],[127.646728,34.635063],[127.645638,34.635069],[127.645631,34.634167],[127.646721,34.634162]]]}},{"type":"Feature","properties":{"count":10,"area":26.6,"conf_n":9,"mean_conf":0.5467,"top":"styrofoam","top_share":0.9},"geometry":{"type":"Polygon","coordinates":[[[127.647686,34.617931],[127.647693,34.618832],[127.646602,34.618838],[127.646595,34.617937],[127.647686,34.617931]]]}},{"type":"Feature","properties":{"count":103,"area":101.3,"conf_n":103,"mean_conf":0.6356,"top":"styrofoam","top_share":1.0},"geometry":{"type":"Polygon","coordinates":[[[127.647693,34.618832],[127.6477,34.619734],[127.646609,34.61974],[127.646602,34.618838],[127.647693,34.618832]]]}},{"type":"Feature","properties":{"count":72,"area":110.3,"conf_n":41,"mean_conf":0.6746,"top":"styrofoam","top_share":0.861},"geometry":{"type":"Polygon","coordinates":[[[127.647812,34.634156],[127.647819,34.635057],[127.646728,34.635063],[127.646721,34.634162],[127.647812,34.634156]]]}},{"type":"Feature","properties":{"count":34,"area":90.8,"conf_n":14,"mean_conf":0.6393,"top":"styrofoam","top_share":0.882},"geometry":{"type":"Polygon","coordinates":[[[127.647819,34.635057],[127.647826,34.635959],[127.646735,34.635964],[127.646728,34.635063],[127.647819,34.635057]]]}},{"type":"Feature","properties":{"count":33,"area":42.2,"conf_n":28,"mean_conf":0.6469,"top":"styrofoam","top_share":1.0},"geometry":{"type":"Polygon","coordinates":[[[127.648769,34.617024],[127.648776,34.617925],[127.647686,34.617931],[127.647679,34.61703],[127.648769,34.617024]]]}},{"type":"Feature","properties":{"count":4,"area":3.0,"conf_n":3,"mean_conf":0.578,"top":"styrofoam","top_share":1.0},"geometry":{"type":"Polygon","coordinates":[[[127.648909,34.635051],[127.648916,34.635953],[127.647826,34.635959],[127.647819,34.635057],[127.648909,34.635051]]]}},{"type":"Feature","properties":{"count":12,"area":102.4,"conf_n":6,"mean_conf":0.5737,"top":"styrofoam","top_share":0.583},"geometry":{"type":"Polygon","coordinates":[[[127.648916,34.635953],[127.648923,34.636854],[127.647833,34.63686],[127.647826,34.635959],[127.648916,34.635953]]]}},{"type":"Feature","properties":{"count":1,"area":4.4,"conf_n":0,"top":"styrofoam","top_share":1.0},"geometry":{"type":"Polygon","coordinates":[[[127.649845,34.615215],[127.649852,34.616117],[127.648762,34.616122],[127.648755,34.615221],[127.649845,34.615215]]]}},{"type":"Feature","properties":{"count":22,"area":27.5,"conf_n":17,"mean_conf":0.6453,"top":"styrofoam","top_share":0.909},"geometry":{"type":"Polygon","coordinates":[[[127.649852,34.616117],[127.649859,34.617018],[127.648769,34.617024],[127.648762,34.616122],[127.649852,34.616117]]]}},{"type":"Feature","properties":{"count":7,"area":5.8,"conf_n":5,"mean_conf":0.5164,"top":"styrofoam","top_share":0.714},"geometry":{"type":"Polygon","coordinates":[[[127.650007,34.635947],[127.650014,34.636848],[127.648923,34.636854],[127.648916,34.635953],[127.650007,34.635947]]]}},{"type":"Feature","properties":{"count":1,"area":1.1,"conf_n":0,"top":"styrofoam","top_share":1.0},"geometry":{"type":"Polygon","coordinates":[[[127.650921,34.613407],[127.650928,34.614308],[127.649838,34.614314],[127.649831,34.613412],[127.650921,34.613407]]]}},{"type":"Feature","properties":{"count":3,"area":2.3,"conf_n":2,"mean_conf":0.7585,"top":"styrofoam","top_share":1.0},"geometry":{"type":"Polygon","coordinates":[[[127.650928,34.614308],[127.650935,34.615209],[127.649845,34.615215],[127.649838,34.614314],[127.650928,34.614308]]]}},{"type":"Feature","properties":{"count":2,"area":2.0,"conf_n":2,"mean_conf":0.7385,"top":"styrofoam","top_share":0.5},"geometry":{"type":"Polygon","coordinates":[[[127.650935,34.615209],[127.650943,34.616111],[127.649852,34.616117],[127.649845,34.615215],[127.650935,34.615209]]]}},{"type":"Feature","properties":{"count":12,"area":19.4,"conf_n":10,"mean_conf":0.5956,"top":"styrofoam","top_share":0.667},"geometry":{"type":"Polygon","coordinates":[[[127.651998,34.611598],[127.652005,34.612499],[127.650914,34.612505],[127.650907,34.611604],[127.651998,34.611598]]]}},{"type":"Feature","properties":{"count":14,"area":13.3,"conf_n":12,"mean_conf":0.5426,"top":"styrofoam","top_share":1.0},"geometry":{"type":"Polygon","coordinates":[[[127.652005,34.612499],[127.652012,34.613401],[127.650921,34.613407],[127.650914,34.612505],[127.652005,34.612499]]]}},{"type":"Feature","properties":{"count":1,"area":0.6,"conf_n":1,"mean_conf":0.632,"top":"styrofoam","top_share":1.0},"geometry":{"type":"Polygon","coordinates":[[[127.652019,34.614302],[127.652026,34.615204],[127.650935,34.615209],[127.650928,34.614308],[127.652019,34.614302]]]}},{"type":"Feature","properties":{"count":2,"area":1.9,"conf_n":2,"mean_conf":0.447,"top":"buoy_blue","top_share":0.5},"geometry":{"type":"Polygon","coordinates":[[[127.653088,34.611592],[127.653095,34.612494],[127.652005,34.612499],[127.651998,34.611598],[127.653088,34.611592]]]}},{"type":"Feature","properties":{"count":42,"area":54.2,"conf_n":39,"mean_conf":0.6497,"top":"styrofoam","top_share":0.929},"geometry":{"type":"Polygon","coordinates":[[[127.677841,34.571795],[127.677848,34.572696],[127.676758,34.572702],[127.676751,34.571801],[127.677841,34.571795]]]}},{"type":"Feature","properties":{"count":2,"area":11.6,"conf_n":1,"mean_conf":0.693,"top":"plastic_box","top_share":0.5},"geometry":{"type":"Polygon","coordinates":[[[127.677848,34.572696],[127.677856,34.573597],[127.676766,34.573604],[127.676758,34.572702],[127.677848,34.572696]]]}},{"type":"Feature","properties":{"count":9,"area":8.5,"conf_n":9,"mean_conf":0.6868,"top":"styrofoam","top_share":0.889},"geometry":{"type":"Polygon","coordinates":[[[127.678931,34.571789],[127.678938,34.57269],[127.677848,34.572696],[127.677841,34.571795],[127.678931,34.571789]]]}},{"type":"Feature","properties":{"count":2,"area":4.0,"conf_n":1,"mean_conf":0.793,"top":"styrofoam","top_share":1.0},"geometry":{"type":"Polygon","coordinates":[[[127.678982,34.578098],[127.678989,34.579],[127.677899,34.579006],[127.677892,34.578104],[127.678982,34.578098]]]}},{"type":"Feature","properties":{"count":40,"area":103.6,"conf_n":40,"mean_conf":0.7485,"top":"styrofoam","top_share":0.975},"geometry":{"type":"Polygon","coordinates":[[[127.680006,34.56998],[127.680013,34.570881],[127.678923,34.570887],[127.678916,34.569986],[127.680006,34.56998]]]}},{"type":"Feature","properties":{"count":1,"area":1.8,"conf_n":0,"top":"styrofoam","top_share":1.0},"geometry":{"type":"Polygon","coordinates":[[[127.680013,34.570881],[127.68002,34.571783],[127.678931,34.571789],[127.678923,34.570887],[127.680013,34.570881]]]}},{"type":"Feature","properties":{"count":1,"area":1.0,"conf_n":1,"mean_conf":0.658,"top":"styrofoam","top_share":1.0},"geometry":{"type":"Polygon","coordinates":[[[127.68002,34.571783],[127.680028,34.572684],[127.678938,34.57269],[127.678931,34.571789],[127.68002,34.571783]]]}},{"type":"Feature","properties":{"count":9,"area":23.5,"conf_n":1,"mean_conf":0.724,"top":"styrofoam","top_share":0.889},"geometry":{"type":"Polygon","coordinates":[[[127.680072,34.578092],[127.680079,34.578994],[127.678989,34.579],[127.678982,34.578098],[127.680072,34.578092]]]}},{"type":"Feature","properties":{"count":16,"area":22.2,"conf_n":5,"mean_conf":0.6008,"top":"styrofoam","top_share":0.812},"geometry":{"type":"Polygon","coordinates":[[[127.680079,34.578994],[127.680086,34.579895],[127.678997,34.579901],[127.678989,34.579],[127.680079,34.578994]]]}},{"type":"Feature","properties":{"count":38,"area":78.2,"conf_n":35,"mean_conf":0.7095,"top":"styrofoam","top_share":1.0},"geometry":{"type":"Polygon","coordinates":[[[127.681088,34.569072],[127.681095,34.569974],[127.680006,34.56998],[127.679998,34.569078],[127.681088,34.569072]]]}},{"type":"Feature","properties":{"count":63,"area":183.8,"conf_n":63,"mean_conf":0.7769,"top":"styrofoam","top_share":1.0},"geometry":{"type":"Polygon","coordinates":[[[127.681095,34.569974],[127.681103,34.570875],[127.680013,34.570881],[127.680006,34.56998],[127.681095,34.569974]]]}},{"type":"Feature","properties":{"count":12,"area":26.7,"conf_n":11,"mean_conf":0.7105,"top":"styrofoam","top_share":0.917},"geometry":{"type":"Polygon","coordinates":[[[127.681154,34.577185],[127.681161,34.578086],[127.680072,34.578092],[127.680064,34.577191],[127.681154,34.577185]]]}},{"type":"Feature","properties":{"count":28,"area":53.4,"conf_n":22,"mean_conf":0.7515,"top":"styrofoam","top_share":0.714},"geometry":{"type":"Polygon","coordinates":[[[127.681161,34.578086],[127.681169,34.578988],[127.680079,34.578994],[127.680072,34.578092],[127.681161,34.578086]]]}},{"type":"Feature","properties":{"count":8,"area":19.1,"conf_n":4,"mean_conf":0.631,"top":"styrofoam","top_share":0.75},"geometry":{"type":"Polygon","coordinates":[[[127.681169,34.578988],[127.681176,34.579889],[127.680086,34.579895],[127.680079,34.578994],[127.681169,34.578988]]]}},{"type":"Feature","properties":{"count":2,"area":2.3,"conf_n":2,"mean_conf":0.557,"top":"styrofoam","top_share":1.0},"geometry":{"type":"Polygon","coordinates":[[[127.681279,34.592508],[127.681287,34.59341],[127.680197,34.593416],[127.680189,34.592514],[127.681279,34.592508]]]}},{"type":"Feature","properties":{"count":8,"area":6.8,"conf_n":8,"mean_conf":0.6413,"top":"styrofoam","top_share":0.625},"geometry":{"type":"Polygon","coordinates":[[[127.681287,34.59341],[127.681294,34.594311],[127.680204,34.594317],[127.680197,34.593416],[127.681287,34.59341]]]}},{"type":"Feature","properties":{"count":3,"area":2.1,"conf_n":3,"mean_conf":0.6303,"top":"styrofoam","top_share":1.0},"geometry":{"type":"Polygon","coordinates":[[[127.681294,34.594311],[127.681301,34.595212],[127.680211,34.595219],[127.680204,34.594317],[127.681294,34.594311]]]}},{"type":"Feature","properties":{"count":6,"area":24.4,"conf_n":6,"mean_conf":0.7053,"top":"styrofoam","top_share":1.0},"geometry":{"type":"Polygon","coordinates":[[[127.682178,34.569066],[127.682185,34.569968],[127.681095,34.569974],[127.681088,34.569072],[127.682178,34.569066]]]}},{"type":"Feature","properties":{"count":14,"area":30.2,"conf_n":14,"mean_conf":0.6748,"top":"styrofoam","top_share":0.786},"geometry":{"type":"Polygon","coordinates":[[[127.682185,34.569968],[127.682192,34.570869],[127.681103,34.570875],[127.681095,34.569974],[127.682185,34.569968]]]}},{"type":"Feature","properties":{"count":16,"area":121.6,"conf_n":11,"mean_conf":0.7385,"top":"styrofoam","top_share":0.875},"geometry":{"type":"Polygon","coordinates":[[[127.682244,34.577179],[127.682251,34.57808],[127.681161,34.578086],[127.681154,34.577185],[127.682244,34.577179]]]}},{"type":"Feature","properties":{"count":36,"area":48.6,"conf_n":34,"mean_conf":0.7243,"top":"styrofoam","top_share":0.944},"geometry":{"type":"Polygon","coordinates":[[[127.682251,34.57808],[127.682259,34.578981],[127.681169,34.578988],[127.681161,34.578086],[127.682251,34.57808]]]}},{"type":"Feature","properties":{"count":7,"area":13.3,"conf_n":7,"mean_conf":0.667,"top":"styrofoam","top_share":1.0},"geometry":{"type":"Polygon","coordinates":[[[127.682266,34.579883],[127.682273,34.580784],[127.681184,34.58079],[127.681176,34.579889],[127.682266,34.579883]]]}},{"type":"Feature","properties":{"count":10,"area":10.5,"conf_n":10,"mean_conf":0.6707,"top":"buoy_bottle","top_share":0.5},"geometry":{"type":"Polygon","coordinates":[[[127.682369,34.592502],[127.682377,34.593404],[127.681287,34.59341],[127.681279,34.592508],[127.682369,34.592502]]]}},{"type":"Feature","properties":{"count":6,"area":5.3,"conf_n":6,"mean_conf":0.7222,"top":"styrofoam","top_share":1.0},"geometry":{"type":"Polygon","coordinates":[[[127.683275,34.569962],[127.683282,34.570863],[127.682192,34.570869],[127.682185,34.569968],[127.683275,34.569962]]]}},{"type":"Feature","properties":{"count":3,"area":5.5,"conf_n":3,"mean_conf":0.5317,"top":"styrofoam","top_share":1.0},"geometry":{"type":"Polygon","coordinates":[[[127.683304,34.573567],[127.683312,34.574468],[127.682222,34.574475],[127.682214,34.573573],[127.683304,34.573567]]]}},{"type":"Feature","properties":{"count":1,"area":1.7,"conf_n":1,"mean_conf":0.71,"top":"styrofoam","top_share":1.0},"geometry":{"type":"Polygon","coordinates":[[[127.683437,34.589792],[127.683444,34.590693],[127.682354,34.590699],[127.682347,34.589798],[127.683437,34.589792]]]}},{"type":"Feature","properties":{"count":9,"area":15.2,"conf_n":9,"mean_conf":0.6469,"top":"styrofoam","top_share":0.889},"geometry":{"type":"Polygon","coordinates":[[[127.683444,34.590693],[127.683452,34.591595],[127.682362,34.591601],[127.682354,34.590699],[127.683444,34.590693]]]}},{"type":"Feature","properties":{"count":6,"area":7.2,"conf_n":6,"mean_conf":0.6303,"top":"styrofoam","top_share":0.667},"geometry":{"type":"Polygon","coordinates":[[[127.683452,34.591595],[127.683459,34.592496],[127.682369,34.592502],[127.682362,34.591601],[127.683452,34.591595]]]}},{"type":"Feature","properties":{"count":13,"area":246.1,"conf_n":12,"mean_conf":0.4707,"top":"styrofoam","top_share":0.615},"geometry":{"type":"Polygon","coordinates":[[[127.684364,34.569955],[127.684372,34.570857],[127.683282,34.570863],[127.683275,34.569962],[127.684364,34.569955]]]}},{"type":"Feature","properties":{"count":313,"area":743.6,"conf_n":313,"mean_conf":0.6707,"top":"styrofoam","top_share":0.738},"geometry":{"type":"Polygon","coordinates":[[[127.684394,34.573561],[127.684401,34.574462],[127.683312,34.574468],[127.683304,34.573567],[127.684394,34.573561]]]}},{"type":"Feature","properties":{"count":15,"area":33.3,"conf_n":13,"mean_conf":0.7105,"top":"styrofoam","top_share":0.8},"geometry":{"type":"Polygon","coordinates":[[[127.684401,34.574462],[127.684409,34.575364],[127.683319,34.57537],[127.683312,34.574468],[127.684401,34.574462]]]}},{"type":"Feature","properties":{"count":4,"area":3.8,"conf_n":4,"mean_conf":0.6387,"top":"styrofoam","top_share":0.75},"geometry":{"type":"Polygon","coordinates":[[[127.68452,34.588884],[127.684527,34.589786],[127.683437,34.589792],[127.68343,34.588891],[127.68452,34.588884]]]}},{"type":"Feature","properties":{"count":1,"area":1.9,"conf_n":1,"mean_conf":0.576,"top":"styrofoam","top_share":1.0},"geometry":{"type":"Polygon","coordinates":[[[127.684527,34.589786],[127.684534,34.590687],[127.683444,34.590693],[127.683437,34.589792],[127.684527,34.589786]]]}},{"type":"Feature","properties":{"count":39,"area":53.0,"conf_n":35,"mean_conf":0.6582,"top":"styrofoam","top_share":0.974},"geometry":{"type":"Polygon","coordinates":[[[127.685454,34.569949],[127.685461,34.570851],[127.684372,34.570857],[127.684364,34.569955],[127.685454,34.569949]]]}},{"type":"Feature","properties":{"count":30,"area":63.1,"conf_n":27,"mean_conf":0.6536,"top":"styrofoam","top_share":0.967},"geometry":{"type":"Polygon","coordinates":[[[127.685461,34.570851],[127.685469,34.571752],[127.684379,34.571758],[127.684372,34.570857],[127.685461,34.570851]]]}},{"type":"Feature","properties":{"count":19,"area":38.5,"conf_n":19,"mean_conf":0.7363,"top":"styrofoam","top_share":0.947},"geometry":{"type":"Polygon","coordinates":[[[127.685469,34.571752],[127.685476,34.572653],[127.684387,34.57266],[127.684379,34.571758],[127.685469,34.571752]]]}},{"type":"Feature","properties":{"count":43,"area":254.8,"conf_n":33,"mean_conf":0.6901,"top":"styrofoam","top_share":0.884},"geometry":{"type":"Polygon","coordinates":[[[127.685476,34.572653],[127.685484,34.573555],[127.684394,34.573561],[127.684387,34.57266],[127.685476,34.572653]]]}},{"type":"Feature","properties":{"count":2,"area":2.1,"conf_n":1,"mean_conf":0.442,"top":"styrofoam","top_share":1.0},"geometry":{"type":"Polygon","coordinates":[[[127.685491,34.574456],[127.685498,34.575358],[127.684409,34.575364],[127.684401,34.574462],[127.685491,34.574456]]]}},{"type":"Feature","properties":{"count":4,"area":2.4,"conf_n":4,"mean_conf":0.5533,"top":"styrofoam","top_share":1.0},"geometry":{"type":"Polygon","coordinates":[[[127.686551,34.570845],[127.686559,34.571746],[127.685469,34.571752],[127.685461,34.570851],[127.686551,34.570845]]]}},{"type":"Feature","properties":{"count":63,"area":87.8,"conf_n":57,"mean_conf":0.6446,"top":"styrofoam","top_share":0.968},"geometry":{"type":"Polygon","coordinates":[[[127.686559,34.571746],[127.686566,34.572647],[127.685476,34.572653],[127.685469,34.571752],[127.686559,34.571746]]]}},{"type":"Feature","properties":{"count":80,"area":316.1,"conf_n":75,"mean_conf":0.701,"top":"styrofoam","top_share":0.938},"geometry":{"type":"Polygon","coordinates":[[[127.686566,34.572647],[127.686573,34.573549],[127.685484,34.573555],[127.685476,34.572653],[127.686566,34.572647]]]}},{"type":"Feature","properties":{"count":23,"area":97.1,"conf_n":21,"mean_conf":0.5737,"top":"styrofoam","top_share":0.609},"geometry":{"type":"Polygon","coordinates":[[[127.687678,34.575345],[127.687685,34.576247],[127.686596,34.576253],[127.686588,34.575352],[127.687678,34.575345]]]}},{"type":"Feature","properties":{"count":1,"area":4.1,"conf_n":1,"mean_conf":0.452,"top":"buoy_red","top_share":1.0},"geometry":{"type":"Polygon","coordinates":[[[127.688768,34.575339],[127.688775,34.576241],[127.687685,34.576247],[127.687678,34.575345],[127.688768,34.575339]]]}},{"type":"Feature","properties":{"count":63,"area":122.7,"conf_n":61,"mean_conf":0.7138,"top":"styrofoam","top_share":1.0},"geometry":{"type":"Polygon","coordinates":[[[127.689857,34.575333],[127.689865,34.576234],[127.688775,34.576241],[127.688768,34.575339],[127.689857,34.575333]]]}},{"type":"Feature","properties":{"count":3,"area":25.3,"conf_n":2,"mean_conf":0.7615,"top":"styrofoam","top_share":0.667},"geometry":{"type":"Polygon","coordinates":[[[127.693127,34.575315],[127.693134,34.576216],[127.692044,34.576222],[127.692037,34.575321],[127.693127,34.575315]]]}},{"type":"Feature","properties":{"count":1,"area":2.7,"conf_n":1,"mean_conf":0.427,"top":"styrofoam","top_share":1.0},"geometry":{"type":"Polygon","coordinates":[[[127.694216,34.575308],[127.694224,34.57621],[127.693134,34.576216],[127.693127,34.575315],[127.694216,34.575308]]]}},{"type":"Feature","properties":{"count":29,"area":50.9,"conf_n":26,"mean_conf":0.6841,"top":"styrofoam","top_share":1.0},"geometry":{"type":"Polygon","coordinates":[[[127.695299,34.574401],[127.695306,34.575302],[127.694216,34.575308],[127.694209,34.574407],[127.695299,34.574401]]]}},{"type":"Feature","properties":{"count":4,"area":15.3,"conf_n":4,"mean_conf":0.689,"top":"styrofoam","top_share":0.75},"geometry":{"type":"Polygon","coordinates":[[[127.695306,34.575302],[127.695314,34.576204],[127.694224,34.57621],[127.694216,34.575308],[127.695306,34.575302]]]}},{"type":"Feature","properties":{"count":16,"area":118.5,"conf_n":8,"mean_conf":0.5627,"top":"styrofoam","top_share":0.812},"geometry":{"type":"Polygon","coordinates":[[[127.697433,34.56898],[127.697441,34.569881],[127.696351,34.569888],[127.696343,34.568986],[127.697433,34.56898]]]}},{"type":"Feature","properties":{"count":10,"area":62.2,"conf_n":3,"mean_conf":0.5737,"top":"styrofoam","top_share":0.9},"geometry":{"type":"Polygon","coordinates":[[[127.697448,34.570783],[127.697456,34.571684],[127.696366,34.57169],[127.696358,34.570789],[127.697448,34.570783]]]}},{"type":"Feature","properties":{"count":7,"area":34.6,"conf_n":2,"mean_conf":0.5685,"top":"styrofoam","top_share":0.857},"geometry":{"type":"Polygon","coordinates":[[[127.698515,34.568072],[127.698523,34.568974],[127.697433,34.56898],[127.697426,34.568079],[127.698515,34.568072]]]}},{"type":"Feature","properties":{"count":29,"area":237.1,"conf_n":21,"mean_conf":0.6536,"top":"styrofoam","top_share":0.69},"geometry":{"type":"Polygon","coordinates":[[[127.698523,34.568974],[127.69853,34.569875],[127.697441,34.569881],[127.697433,34.56898],[127.698523,34.568974]]]}},{"type":"Feature","properties":{"count":2,"area":2.1,"conf_n":2,"mean_conf":0.808,"top":"styrofoam","top_share":1.0},"geometry":{"type":"Polygon","coordinates":[[[127.69853,34.569875],[127.698538,34.570777],[127.697448,34.570783],[127.697441,34.569881],[127.69853,34.569875]]]}},{"type":"Feature","properties":{"count":5,"area":6.1,"conf_n":4,"mean_conf":0.623,"top":"styrofoam","top_share":1.0},"geometry":{"type":"Polygon","coordinates":[[[127.699605,34.568066],[127.699612,34.568968],[127.698523,34.568974],[127.698515,34.568072],[127.699605,34.568066]]]}},{"type":"Feature","properties":{"count":14,"area":22.1,"conf_n":13,"mean_conf":0.7028,"top":"styrofoam","top_share":0.929},"geometry":{"type":"Polygon","coordinates":[[[127.700694,34.56806],[127.700702,34.568961],[127.699612,34.568968],[127.699605,34.568066],[127.700694,34.56806]]]}},{"type":"Feature","properties":{"count":16,"area":23.8,"conf_n":16,"mean_conf":0.6462,"top":"styrofoam","top_share":1.0},"geometry":{"type":"Polygon","coordinates":[[[127.711629,34.572504],[127.711637,34.573405],[127.710547,34.573412],[127.71054,34.57251],[127.711629,34.572504]]]}},{"type":"Feature","properties":{"count":34,"area":40.1,"conf_n":29,"mean_conf":0.7143,"top":"styrofoam","top_share":0.912},"geometry":{"type":"Polygon","coordinates":[[[127.711637,34.573405],[127.711645,34.574307],[127.710555,34.574313],[127.710547,34.573412],[127.711637,34.573405]]]}},{"type":"Feature","properties":{"count":50,"area":164.6,"conf_n":46,"mean_conf":0.6429,"top":"styrofoam","top_share":0.98},"geometry":{"type":"Polygon","coordinates":[[[127.712711,34.571596],[127.712719,34.572497],[127.711629,34.572504],[127.711622,34.571602],[127.712711,34.571596]]]}},{"type":"Feature","properties":{"count":4,"area":16.0,"conf_n":3,"mean_conf":0.6917,"top":"styrofoam","top_share":1.0},"geometry":{"type":"Polygon","coordinates":[[[127.712719,34.572497],[127.712727,34.573399],[127.711637,34.573405],[127.711629,34.572504],[127.712719,34.572497]]]}},{"type":"Feature","properties":{"count":1,"area":6.2,"conf_n":1,"mean_conf":0.497,"top":"styrofoam","top_share":1.0},"geometry":{"type":"Polygon","coordinates":[[[127.712727,34.573399],[127.712734,34.5743],[127.711645,34.574307],[127.711637,34.573405],[127.712727,34.573399]]]}}]}