{"type":"FeatureCollection","note":"Natural Earth 50m admin 0 (public domain) - 대한민국 제외 인접 육지, 112-148E 24-50N 잘라냄","features":[{"type":"Feature","properties":{},"geometry":{"type":"MultiPolygon","coordinates":[[[[123.7537,24.3913],[123.7715,24.4145],[123.9349,24.362],[123.9281,24.3236],[123.8887,24.2801],[123.8256,24.2661],[123.7498,24.2833],[123.6807,24.288],[123.6798,24.3178],[123.7523,24.3485],[123.7537,24.3913]]],[[[124.2105,24.4586],[124.302,24.5871],[124.324,24.5664],[124.2932,24.5159],[124.2343,24.3581],[124.1856,24.3351],[124.1357,24.3476],[124.0848,24.4358],[124.1204,24.4696],[124.1702,24.4519],[124.2105,24.4586]]],[[[118.4512,24.4556],[118.4327,24.4144],[118.2951,24.4363],[118.2873,24.4766],[118.3394,24.4691],[118.4074,24.5221],[118.4512,24.4556]]],[[[118.1707,24.5185],[118.183,24.4963],[118.1495,24.4361],[118.0905,24.4461],[118.0888,24.4889],[118.0768,24.5014],[118.1038,24.5523],[118.1707,24.5185]]],[[[121.0954,25.0651],[121.3654,25.1592],[121.4496,25.249],[121.5171,25.2769],[121.5937,25.2753],[121.6871,25.1816],[121.7333,25.1541],[121.8528,25.1044],[121.9052,25.0564],[121.929,24.9737],[121.8563,24.8953],[121.8201,24.8245],[121.8134,24.7463],[121.8264,24.6405],[121.828,24.5344],[121.737,24.2853],[121.6394,24.1301],[121.6131,24.0527],[121.6049,24.0],[120.337,24.0],[120.6297,24.4785],[120.7574,24.6423],[120.8359,24.7227],[120.9016,24.8133],[120.9641,24.928],[121.0406,25.0328],[121.0954,25.0651]]],[[[125.4441,24.7432],[125.3594,24.7171],[125.2689,24.7325],[125.2836,24.8719],[125.3149,24.8524],[125.3346,24.8047],[125.4019,24.7769],[125.4441,24.7432]]],[[[119.7779,25.6532],[119.7975,25.6232],[119.8287,25.6074],[119.8384,25.5911],[119.8387,25.5597],[119.8091,25.5078],[119.8324,25.4796],[119.8209,25.457],[119.7467,25.4107],[119.7003,25.4327],[119.6994,25.4947],[119.723,25.5506],[119.696,25.5909],[119.7226,25.6388],[119.7779,25.6532]]],[[[127.8692,26.3806],[127.9048,26.3281],[127.8487,26.3189],[127.7901,26.2551],[127.7855,26.2087],[127.8064,26.1712],[127.8036,26.1525],[127.7294,26.0972],[127.6531,26.0947],[127.6549,26.1992],[127.7271,26.3079],[127.7289,26.4339],[127.7959,26.4485],[127.8204,26.4661],[127.926,26.5557],[127.9455,26.5939],[127.8908,26.6311],[127.8948,26.675],[127.9072,26.6936],[127.9943,26.6794],[128.0297,26.6469],[128.0468,26.6433],[128.0977,26.6678],[128.1216,26.7114],[128.2165,26.7969],[128.2549,26.8819],[128.3316,26.8121],[128.3109,26.7207],[128.2588,26.6528],[128.1625,26.6069],[128.127,26.5522],[128.0379,26.5336],[127.9513,26.4565],[127.8671,26.4425],[127.8692,26.3806]]],[[[121.2514,28.0864],[121.1643,28.0625],[121.1315,28.0626],[121.134,28.1353],[121.2055,28.2044],[121.2344,28.1813],[121.251,28.1452],[121.2514,28.0864]]],[[[122.1726,29.679],[122.169,29.6603],[122.0838,29.7253],[122.0427,29.7359],[122.0623,29.7728],[122.1196,29.7822],[122.1726,29.679]]],[[[122.394,29.8461],[122.3676,29.8527],[122.3318,29.935],[122.351,29.9552],[122.4016,29.9502],[122.4039,29.8924],[122.394,29.8461]]],[[[122.2845,30.068],[122.3223,30.0314],[122.2815,29.9438],[122.1578,30.0013],[122.024,30.0133],[121.9778,30.0638],[121.9694,30.1431],[122.1105,30.1397],[122.2845,30.068]]],[[[121.4642,31.7564],[121.4918,31.6937],[121.5423,31.6739],[121.5766,31.6373],[121.8083,31.5521],[121.8437,31.5264],[121.8627,31.4923],[121.7805,31.4638],[121.5199,31.5496],[121.3364,31.6438],[121.2269,31.7581],[121.2111,31.8054],[121.339,31.7974],[121.4642,31.7564]]],[[[130.6365,42.2749],[130.5692,42.2917],[130.4575,42.3017],[130.3147,42.2141],[130.2357,42.1832],[130.1799,42.097],[130.0683,42.0458],[130.0073,41.9912],[129.9282,41.8967],[129.8764,41.8055],[129.7563,41.7123],[129.6863,41.595],[129.6824,41.4943],[129.759,41.3915],[129.7658,41.3039],[129.7121,41.1237],[129.742,40.9323],[129.7087,40.8573],[129.3411,40.7263],[129.2451,40.661],[129.1098,40.4911],[128.9452,40.4279],[128.843,40.3585],[128.7014,40.3175],[128.6107,40.1979],[128.5112,40.1302],[128.393,40.089],[128.3045,40.0359],[128.1063,40.0326],[127.9666,39.9956],[127.8671,39.8959],[127.5682,39.782],[127.5274,39.6957],[127.5473,39.5628],[127.5489,39.4611],[127.5229,39.3774],[127.4574,39.401],[127.4223,39.3736],[127.3835,39.2961],[127.3945,39.2079],[127.497,39.1795],[127.581,39.1433],[127.6989,39.125],[127.7861,39.0841],[127.9717,38.898],[128.123,38.8164],[128.1625,38.7861],[128.2494,38.7452],[128.3295,38.6809],[128.3746,38.6234],[128.3395,38.6079],[128.2793,38.5238],[128.2231,38.417],[128.1687,38.3593],[128.1062,38.3273],[128.039,38.3085],[127.9053,38.3004],[127.7847,38.3077],[127.7455,38.3192],[127.5327,38.305],[127.294,38.3133],[127.1695,38.3045],[127.0903,38.2839],[127.0097,38.2405],[126.7543,37.979],[126.6668,37.9172],[126.6646,37.8007],[126.6339,37.7818],[126.6232,37.7902],[126.5728,37.7968],[126.3699,37.8784],[126.2031,37.8285],[126.161,37.7637],[126.1167,37.7429],[126.0503,37.8698],[125.9417,37.8737],[125.7691,37.9854],[125.695,37.9627],[125.6762,37.9177],[125.5815,37.815],[125.4493,37.7302],[125.4066,37.719],[125.3578,37.7248],[125.3648,37.7482],[125.3107,37.8435],[125.102,37.8821],[125.0268,37.9226],[124.9888,37.9314],[125.1932,38.0378],[125.2467,38.0568],[125.2067,38.0815],[125.1626,38.0937],[124.995,38.0778],[124.907,38.1126],[124.7795,38.1015],[124.6909,38.1292],[124.8745,38.2334],[124.8806,38.3417],[124.9737,38.4801],[125.0674,38.5567],[125.3097,38.6654],[125.4153,38.6804],[125.4918,38.6761],[125.5545,38.6862],[125.4887,38.7278],[125.4242,38.7469],[125.2989,38.743],[125.1688,38.8055],[125.1573,38.8715],[125.4097,39.2884],[125.4132,39.3263],[125.3736,39.4276],[125.3608,39.5266],[125.1801,39.5835],[125.1001,39.5903],[124.8679,39.7018],[124.7753,39.7581],[124.7389,39.7415],[124.7322,39.6522],[124.6992,39.6324],[124.6383,39.6151],[124.6076,39.7169],[124.5574,39.7906],[124.4038,39.8655],[124.3486,39.9069],[124.3751,39.9961],[124.35,40.0116],[124.2675,39.9242],[124.1058,39.841],[123.7602,39.8224],[123.6509,39.8816],[123.6112,39.8408],[123.5807,39.7861],[123.49,39.7679],[123.3481,39.7629],[123.2689,39.7269],[123.2266,39.6866],[123.0322,39.6735],[122.9609,39.6199],[122.84,39.6008],[122.3349,39.3661],[122.225,39.2673],[122.1209,39.1519],[121.9823,39.0532],[121.9227,39.0365],[121.8644,38.9965],[121.8052,38.9914],[121.7448,39.0097],[121.6772,39.0034],[121.6328,38.9548],[121.6704,38.8918],[121.6499,38.8651],[121.5172,38.8308],[121.3201,38.8082],[121.2363,38.7669],[121.2074,38.7435],[121.1636,38.7316],[121.1217,38.8133],[121.1067,38.9208],[121.1883,38.9467],[121.2633,38.9603],[121.6799,39.1087],[121.6276,39.2202],[121.6646,39.2687],[121.7578,39.3476],[121.8185,39.3865],[121.7854,39.4008],[121.5125,39.3749],[121.2755,39.3848],[121.2998,39.4522],[121.2863,39.5194],[121.2675,39.5447],[121.4064,39.6212],[121.4695,39.6401],[121.5176,39.639],[121.5143,39.6853],[121.4742,39.7549],[121.5174,39.8448],[121.801,39.9505],[121.8689,40.0464],[121.9828,40.1358],[122.1909,40.3583],[122.2033,40.396],[122.2639,40.5002],[122.275,40.5418],[122.1787,40.6027],[122.1404,40.6882],[121.8588,40.8421],[121.8349,40.9743],[121.8086,40.9685],[121.7656,40.8759],[121.7293,40.8461],[121.5989,40.8434],[121.5371,40.8784],[121.1745,40.9013],[121.0859,40.8416],[121.0029,40.7491],[120.9223,40.6831],[120.8413,40.6492],[120.7707,40.5891],[120.4791,40.231],[120.3689,40.2039],[119.8504,39.9875],[119.5911,39.9026],[119.3911,39.7525],[119.3224,39.6616],[119.2613,39.5609],[119.2246,39.4081],[119.0401,39.2224],[118.977,39.1826],[118.9123,39.1664],[118.8265,39.1721],[118.7524,39.1605],[118.6264,39.1769],[118.472,39.118],[118.2979,39.0671],[118.1479,39.1951],[118.0409,39.2268],[117.8657,39.1913],[117.7847,39.1345],[117.6167,38.8529],[117.5538,38.6915],[117.5578,38.6251],[117.6561,38.4242],[117.7667,38.3117],[118.0149,38.1834],[118.5433,38.0949],[118.6671,38.1264],[118.8,38.1267],[118.94,38.0428],[119.0275,37.904],[119.0385,37.7765],[119.0703,37.7486],[119.0892,37.7007],[119.0335,37.661],[118.9908,37.6414],[118.9549,37.4941],[118.9526,37.3312],[118.9981,37.2771],[119.1118,37.2012],[119.2874,37.1383],[119.4499,37.1248],[119.7605,37.1551],[119.8875,37.2534],[119.88,37.2958],[119.8829,37.3508],[120.1559,37.495],[120.3115,37.6227],[120.2871,37.6565],[120.2572,37.679],[120.2847,37.6921],[120.3701,37.701],[120.75,37.8339],[121.049,37.7252],[121.2195,37.6001],[121.3881,37.579],[121.5053,37.515],[121.6402,37.4604],[121.9648,37.4453],[122.0102,37.4958],[122.0566,37.5289],[122.1096,37.5223],[122.1691,37.4562],[122.3377,37.4053],[122.4933,37.408],[122.6023,37.4264],[122.667,37.4028],[122.5733,37.3179],[122.5873,37.1811],[122.5155,37.1378],[122.4467,37.0681],[122.4874,37.0223],[122.5234,37.0026],[122.5197,36.9468],[122.457,36.9151],[122.3409,36.8322],[122.2742,36.8338],[122.2423,36.8499],[122.2197,36.8795],[122.2032,36.9272],[122.1624,36.9586],[122.0495,36.9708],[121.9327,36.9595],[121.6696,36.8364],[121.4131,36.7384],[121.144,36.6604],[121.0538,36.6114],[120.9899,36.5979],[120.8785,36.6352],[120.8108,36.6328],[120.7967,36.6072],[120.8826,36.5389],[120.905,36.4853],[120.8958,36.4441],[120.8471,36.4261],[120.7762,36.4563],[120.7115,36.4133],[120.6822,36.3407],[120.681,36.1684],[120.6379,36.1299],[120.5193,36.1087],[120.3931,36.0539],[120.3482,36.0792],[120.3303,36.1101],[120.3435,36.1895],[120.3277,36.2282],[120.2701,36.2262],[120.1833,36.2024],[120.117,36.1503],[120.0941,36.1189],[120.1814,36.0175],[120.2647,36.0072],[120.2848,35.9844],[120.219,35.9349],[120.0547,35.8611],[120.0274,35.7994],[119.9787,35.7402],[119.9117,35.6932],[119.8662,35.6437],[119.7197,35.5887],[119.6084,35.4699],[119.5265,35.3586],[119.4297,35.3014],[119.3528,35.1138],[119.2158,35.0118],[119.1653,34.8488],[119.201,34.7484],[119.3514,34.7494],[119.4268,34.7142],[119.5829,34.5822],[119.7697,34.4962],[119.9637,34.4478],[120.2015,34.3257],[120.2667,34.274],[120.3227,34.169],[120.4257,33.8663],[120.4998,33.7165],[120.5048,33.6382],[120.6156,33.4905],[120.7345,33.2366],[120.8711,33.0165],[120.8974,32.8432],[120.853,32.7641],[120.8532,32.6614],[120.9899,32.567],[121.2934,32.4573],[121.3417,32.425],[121.401,32.3719],[121.4039,32.2062],[121.4508,32.1533],[121.4905,32.1211],[121.6742,32.051],[121.7511,31.9929],[121.8324,31.8998],[121.8563,31.8165],[121.8663,31.7036],[121.7636,31.6995],[121.6809,31.7122],[121.352,31.8588],[121.2664,31.8627],[121.1458,31.8423],[120.9735,31.8694],[120.7917,32.0317],[120.6605,32.0811],[120.5201,32.1059],[120.1841,31.9662],[120.0987,31.976],[120.0359,31.9363],[120.1916,31.9063],[120.3475,31.9521],[120.4972,32.0198],[120.7155,31.9837],[120.7522,31.9229],[120.7878,31.8198],[120.9375,31.7502],[121.0554,31.7194],[121.2049,31.6281],[121.351,31.4854],[121.6606,31.3197],[121.7859,31.1629],[121.8345,31.0616],[121.8779,30.917],[121.7694,30.8704],[121.5275,30.841],[121.4189,30.7898],[121.31,30.6997],[120.9977,30.5583],[120.8975,30.3926],[120.8215,30.3546],[120.63,30.3909],[120.4498,30.3878],[120.2455,30.2835],[120.1946,30.2413],[120.2605,30.263],[120.3525,30.2474],[120.4945,30.3031],[120.6334,30.1332],[120.9045,30.1606],[121.1594,30.3018],[121.258,30.3041],[121.3406,30.2824],[121.4327,30.2267],[121.6779,29.9791],[121.8123,29.9521],[121.9443,29.8941],[122.0173,29.8877],[122.0829,29.8704],[121.9058,29.7797],[121.6766,29.5838],[121.5746,29.537],[121.5062,29.4846],[121.6904,29.511],[121.8219,29.6046],[121.888,29.6278],[121.9412,29.6059],[121.9684,29.4906],[121.9178,29.135],[121.8535,29.1289],[121.7908,29.2257],[121.7175,29.2563],[121.656,29.2361],[121.5337,29.2367],[121.4871,29.1932],[121.4477,29.1313],[121.5209,29.1185],[121.6649,29.0106],[121.6797,28.9531],[121.641,28.9159],[121.54,28.9319],[121.6625,28.8514],[121.6301,28.7679],[121.5903,28.7348],[121.5191,28.7137],[121.4752,28.6414],[121.5381,28.5211],[121.6021,28.3666],[121.61,28.2921],[121.51,28.3243],[121.3546,28.2299],[121.2723,28.2221],[121.2168,28.3462],[121.1457,28.3267],[121.0984,28.2905],[121.0354,28.1573],[120.9586,28.037],[120.8925,28.0039],[120.813,28.0134],[120.7477,28.01],[120.7635,27.9774],[120.833,27.9378],[120.833,27.8915],[120.6852,27.7446],[120.6613,27.6879],[120.6648,27.6395],[120.5875,27.5808],[120.6291,27.4821],[120.6075,27.4124],[120.5398,27.3184],[120.4687,27.2563],[120.3846,27.1555],[120.2787,27.0971],[120.1386,26.8861],[120.0975,26.7807],[120.0867,26.6716],[120.043,26.6338],[119.9678,26.5864],[119.8822,26.6104],[119.8795,26.683],[119.8424,26.6893],[119.8213,26.7369],[119.8151,26.7976],[119.8242,26.8464],[119.7887,26.8315],[119.7667,26.7747],[119.7104,26.7287],[119.6516,26.7473],[119.5882,26.785],[119.5899,26.7305],[119.6236,26.6759],[119.6382,26.6212],[119.726,26.6094],[119.7848,26.5466],[119.8312,26.4502],[119.8403,26.4142],[119.8765,26.3709],[119.8811,26.3342],[119.7973,26.3001],[119.6927,26.2364],[119.5671,26.1273],[119.4631,26.0547],[119.3697,26.0541],[119.3131,26.0625],[119.2321,26.1044],[119.1395,26.1218],[119.2638,25.9748],[119.332,25.9487],[119.4178,25.9543],[119.5009,26.0092],[119.6188,26.0036],[119.6482,25.9187],[119.6169,25.8229],[119.5528,25.6987],[119.5395,25.5913],[119.6191,25.4375],[119.6225,25.3912],[119.5928,25.368],[119.4992,25.4086],[119.4218,25.4596],[119.3438,25.4463],[119.2631,25.468],[119.1801,25.4498],[119.1463,25.4143],[119.1693,25.3557],[119.2436,25.307],[119.2855,25.2322],[119.2355,25.206],[119.0246,25.2234],[118.9775,25.2093],[118.9145,25.1268],[118.9557,25.0048],[118.9091,24.9289],[118.8221,24.9111],[118.7075,24.8498],[118.6369,24.8355],[118.6402,24.8091],[118.6918,24.7823],[118.7191,24.7461],[118.657,24.6214],[118.5604,24.5804],[118.412,24.6007],[118.2953,24.5728],[118.1945,24.6258],[118.0871,24.627],[118.0139,24.5599],[118.006,24.482],[117.8427,24.4743],[117.8482,24.4325],[117.879,24.3959],[118.0242,24.3796],[118.0506,24.3271],[118.0561,24.2461],[117.9041,24.1064],[117.8395,24.0123],[117.7417,24.0148],[117.7272,24.0],[112.0,24.0],[112.0,50.0],[140.5512,50.0],[140.4627,49.9115],[140.4646,49.8256],[140.5113,49.7617],[140.5172,49.5961],[140.4311,49.3315],[140.3991,49.2898],[140.3644,49.2208],[140.3486,49.1592],[140.3256,49.12],[140.309,49.0539],[140.3337,48.9948],[140.3783,48.9641],[140.2242,48.7729],[140.1706,48.5237],[140.1133,48.4227],[139.9984,48.3238],[139.7607,48.1806],[139.6763,48.0899],[139.5205,47.9753],[139.3727,47.8874],[139.167,47.6349],[139.0014,47.3833],[138.5868,47.0572],[138.5297,46.9762],[138.5005,46.8898],[138.3918,46.7451],[138.3369,46.5434],[138.2102,46.4629],[138.1063,46.2507],[137.7691,45.9285],[137.6854,45.8184],[137.4252,45.64],[137.147,45.3935],[136.8035,45.1711],[136.7372,45.08],[136.6041,44.9782],[136.4604,44.8221],[136.2512,44.6668],[136.2087,44.562],[136.1423,44.4891],[135.987,44.4398],[135.8746,44.3735],[135.5332,43.9715],[135.4891,43.8988],[135.4834,43.835],[135.2602,43.6846],[135.1311,43.5257],[134.917,43.4266],[134.6918,43.2906],[134.1564,43.0421],[134.0104,42.9475],[133.7094,42.8299],[133.5867,42.8282],[133.3295,42.7639],[133.16,42.697],[133.0594,42.7228],[132.9966,42.808],[132.9239,42.8053],[132.8636,42.7938],[132.709,42.8758],[132.5765,42.8716],[132.4813,42.9098],[132.3038,42.8833],[132.3344,43.2387],[132.3096,43.3135],[132.2332,43.2451],[132.0287,43.1189],[131.9473,43.0954],[131.8666,43.0952],[131.8983,43.1708],[132.0131,43.28],[131.939,43.302],[131.7947,43.2553],[131.7221,43.2026],[131.5164,42.9964],[131.3933,42.8223],[131.2925,42.7721],[131.2453,42.6974],[131.1583,42.626],[131.0248,42.6452],[130.9457,42.6339],[130.7562,42.6733],[130.7094,42.6564],[130.8342,42.5229],[130.7299,42.3258],[130.6365,42.2749]]],[[[124.8489,39.5076],[124.8461,39.5589],[124.8896,39.6021],[124.9346,39.6078],[124.9053,39.5363],[124.8489,39.5076]]],[[[129.0164,27.7702],[128.9981,27.7208],[128.9563,27.7025],[128.9,27.7278],[128.8828,27.8424],[128.9076,27.898],[128.9517,27.9103],[128.9897,27.8111],[129.0164,27.7702]]],[[[129.3306,28.0816],[129.2324,28.1011],[129.1925,28.1925],[129.2574,28.1762],[129.2773,28.1447],[129.324,28.1049],[129.3306,28.0816]]],[[[129.3225,28.3596],[129.4646,28.3953],[129.5097,28.3975],[129.5605,28.4311],[129.5771,28.4613],[129.598,28.4759],[129.6896,28.5175],[129.7146,28.4696],[129.7104,28.4321],[129.6417,28.4113],[129.5746,28.3612],[129.5127,28.2987],[129.4567,28.2723],[129.4391,28.2548],[129.4525,28.209],[129.3664,28.1277],[129.2749,28.2009],[129.1646,28.2498],[129.2171,28.2629],[129.2479,28.2825],[129.2509,28.3136],[129.3225,28.3596]]],[[[130.6228,30.263],[130.5082,30.2414],[130.4456,30.2647],[130.3881,30.3882],[130.4972,30.4655],[130.6436,30.389],[130.6732,30.3669],[130.6228,30.263]]],[[[131.0604,30.8285],[131.0826,30.7909],[131.0574,30.6425],[130.9926,30.53],[130.9598,30.3969],[130.8722,30.3863],[130.8703,30.4442],[130.9399,30.5751],[130.9474,30.6712],[131.0122,30.7923],[131.0604,30.8285]]],[[[129.7068,31.7183],[129.7873,31.7871],[129.7937,31.7425],[129.718,31.6571],[129.6868,31.6396],[129.7068,31.7183]]],[[[130.0213,32.4688],[130.0098,32.5216],[130.1678,32.5412],[130.1967,32.4916],[130.1995,32.3406],[130.0825,32.2297],[130.0035,32.194],[129.9934,32.2282],[129.9602,32.2437],[130.0173,32.2918],[130.0153,32.3137],[129.9793,32.3462],[130.0213,32.4688]]],[[[131.6963,33.6028],[131.7242,33.5538],[131.7106,33.5023],[131.6155,33.3918],[131.5374,33.2741],[131.7171,33.2521],[131.8966,33.2546],[131.8547,33.1816],[131.8479,33.1181],[131.9027,33.0878],[131.9493,33.0471],[131.9372,33.0102],[131.9104,32.9737],[132.0086,32.919],[132.0021,32.8824],[131.9767,32.8439],[131.7321,32.5928],[131.6604,32.4656],[131.5646,32.223],[131.5057,32.002],[131.4603,31.8835],[131.4753,31.7784],[131.46,31.6708],[131.3372,31.4047],[131.2497,31.4096],[131.1397,31.4418],[131.0708,31.4369],[131.0352,31.3777],[131.0984,31.2562],[130.9022,31.1121],[130.6857,31.0151],[130.6842,31.0593],[130.7045,31.0941],[130.7357,31.1221],[130.7584,31.1558],[130.7897,31.2691],[130.7742,31.3832],[130.709,31.5261],[130.7042,31.5774],[130.7798,31.6041],[130.7963,31.6241],[130.7969,31.6713],[130.7763,31.7063],[130.7146,31.7177],[130.6551,31.7184],[130.6135,31.6654],[130.5561,31.5631],[130.5281,31.4597],[130.5404,31.4031],[130.5659,31.3524],[130.6445,31.2675],[130.6215,31.2175],[130.5888,31.1785],[130.3106,31.2669],[130.2506,31.2732],[130.2007,31.2919],[130.1473,31.4085],[130.2941,31.4507],[130.3066,31.4878],[130.322,31.6015],[130.2689,31.6963],[130.1879,31.7688],[130.2109,31.849],[130.1958,31.9499],[130.1944,32.0908],[130.2141,32.115],[130.3191,32.1435],[130.3949,32.219],[130.462,32.3049],[130.5604,32.4561],[130.6405,32.6192],[130.5633,32.6264],[130.4979,32.6569],[130.5694,32.7341],[130.5473,32.8316],[130.4404,32.9514],[130.3817,33.0926],[130.2873,33.1548],[130.2375,33.1776],[130.1769,33.1445],[130.1269,33.1048],[130.1731,33.013],[130.1678,32.9318],[130.175,32.8513],[130.2222,32.8468],[130.2801,32.8668],[130.3265,32.8526],[130.3535,32.8104],[130.3608,32.7559],[130.3404,32.7019],[130.2977,32.675],[130.2455,32.6771],[130.193,32.7063],[130.1521,32.7479],[130.0541,32.7708],[129.9508,32.7217],[129.8525,32.6217],[129.7686,32.571],[129.8081,32.6453],[129.8268,32.7253],[129.7859,32.7816],[129.69,32.8752],[129.6678,32.9294],[129.6623,32.9949],[129.6791,33.06],[129.7777,32.9855],[129.8283,32.8927],[129.9008,32.8519],[129.9917,32.8516],[129.9219,32.988],[129.8968,33.0224],[129.7987,33.0836],[129.665,33.1866],[129.5801,33.2363],[129.6102,33.3437],[129.66,33.365],[129.8441,33.3218],[129.8575,33.3752],[129.8366,33.4038],[129.8257,33.437],[129.9191,33.4835],[130.0721,33.5218],[130.1034,33.5397],[130.1306,33.5782],[130.168,33.5983],[130.2751,33.5977],[130.365,33.6345],[130.4395,33.7342],[130.4572,33.789],[130.4838,33.8346],[130.6695,33.9155],[130.7156,33.9278],[130.8396,33.9178],[130.9531,33.872],[131.0581,33.6729],[131.1746,33.6026],[131.3092,33.5728],[131.366,33.5709],[131.4187,33.5844],[131.4988,33.6236],[131.583,33.6524],[131.6431,33.6378],[131.6963,33.6028]]],[[[130.3811,32.4237],[130.2926,32.4193],[130.2561,32.431],[130.2417,32.4628],[130.3654,32.5272],[130.4614,32.5157],[130.4186,32.4577],[130.3811,32.4237]]],[[[128.8945,32.6521],[128.7904,32.6367],[128.7505,32.5861],[128.693,32.6047],[128.6573,32.6284],[128.6491,32.662],[128.6653,32.7839],[128.7041,32.7569],[128.8061,32.776],[128.8386,32.7629],[128.8794,32.6933],[128.8945,32.6521]]],[[[129.1527,33.0033],[129.1819,32.9931],[129.1535,32.9462],[129.1116,32.9289],[129.077,32.8403],[129.052,32.8295],[129.0196,32.9196],[128.9973,32.9519],[129.035,32.9691],[129.1098,33.1326],[129.1236,33.0677],[129.1527,33.0033]]],[[[129.5699,33.361],[129.5081,33.2843],[129.4918,33.223],[129.4214,33.1758],[129.3704,33.176],[129.417,33.2311],[129.4231,33.2574],[129.4619,33.3312],[129.538,33.3578],[129.5699,33.361]]],[[[134.7389,33.8205],[134.5487,33.7293],[134.3771,33.6084],[134.2427,33.4395],[134.2057,33.347],[134.1816,33.2472],[134.1241,33.2868],[133.9587,33.4483],[133.854,33.4927],[133.6856,33.5163],[133.632,33.511],[133.2859,33.36],[133.2399,33.2496],[133.1456,33.0832],[133.1009,33.0282],[133.0512,33.0125],[133.016,32.9839],[132.9772,32.842],[132.8699,32.7546],[132.8043,32.752],[132.6922,32.7759],[132.6418,32.7625],[132.709,32.9025],[132.602,32.9195],[132.4951,32.9166],[132.4926,33.0077],[132.4278,33.0594],[132.4758,33.1265],[132.4771,33.1812],[132.5053,33.2113],[132.515,33.2554],[132.5114,33.2931],[132.4454,33.3046],[132.4052,33.3312],[132.4128,33.4305],[132.3749,33.4341],[132.2811,33.4168],[132.0858,33.3401],[132.0326,33.34],[132.1145,33.3946],[132.2879,33.4695],[132.3659,33.5125],[132.536,33.6329],[132.6431,33.6899],[132.6989,33.7909],[132.7162,33.8522],[132.7523,33.9062],[132.7843,33.9924],[132.8395,34.0212],[132.9352,34.0953],[132.9901,34.0881],[133.0513,33.9971],[133.1337,33.9273],[133.1931,33.9332],[133.2988,33.969],[133.3498,33.9771],[133.4721,33.9728],[133.582,34.0171],[133.6268,34.0694],[133.6435,34.1347],[133.6026,34.2438],[133.6556,34.2329],[133.7063,34.2374],[133.8256,34.3068],[133.9483,34.348],[134.0759,34.3584],[134.2192,34.319],[134.3574,34.2563],[134.4957,34.2147],[134.6375,34.2266],[134.6353,34.0439],[134.6554,33.9826],[134.6953,33.9277],[134.6748,33.8478],[134.7389,33.8205]]],[[[129.7266,33.7073],[129.6748,33.7397],[129.7,33.8289],[129.7173,33.8584],[129.7764,33.8292],[129.7957,33.7488],[129.7266,33.7073]]],[[[132.2088,33.8729],[132.2006,33.9278],[132.208,33.9478],[132.266,33.9452],[132.3146,33.9086],[132.4305,33.9235],[132.4449,33.9132],[132.411,33.8799],[132.36,33.847],[132.2673,33.8715],[132.2088,33.8729]]],[[[132.5784,34.1152],[132.5494,34.0751],[132.4609,34.0873],[132.4963,34.122],[132.5235,34.1641],[132.5435,34.1727],[132.5602,34.1269],[132.5784,34.1152]]],[[[129.2795,34.1234],[129.2145,34.0828],[129.1864,34.145],[129.2148,34.3207],[129.3371,34.2848],[129.3351,34.2308],[129.2795,34.1234]]],[[[129.4511,34.6866],[129.4725,34.6713],[129.4802,34.6495],[129.4691,34.6155],[129.4754,34.5404],[129.3814,34.4165],[129.3856,34.3537],[129.3653,34.3055],[129.2975,34.3396],[129.2667,34.3705],[129.3294,34.5219],[129.3259,34.6073],[129.4511,34.6866]]],[[[133.3705,36.2039],[133.3247,36.1665],[133.2393,36.1788],[133.1899,36.2326],[133.2062,36.2934],[133.2957,36.3401],[133.3812,36.2464],[133.3705,36.2039]]],[[[142.1699,26.6157],[142.1071,26.7215],[142.1253,26.7265],[142.1617,26.71],[142.2021,26.6488],[142.1882,26.6165],[142.1699,26.6157]]],[[[139.8736,33.0935],[139.8238,33.0455],[139.7757,33.0782],[139.7689,33.1072],[139.7774,33.1251],[139.8089,33.1292],[139.8736,33.0935]]],[[[134.9041,34.5191],[134.9607,34.5449],[135.0047,34.544],[134.9055,34.3983],[134.9328,34.2881],[134.8244,34.2029],[134.7307,34.2089],[134.6835,34.247],[134.6679,34.2941],[134.7572,34.3682],[134.8343,34.4727],[134.9041,34.5191]]],[[[134.1821,34.5192],[134.326,34.5344],[134.3723,34.5224],[134.3332,34.4638],[134.3153,34.4689],[134.2519,34.423],[134.2381,34.467],[134.1883,34.4963],[134.1821,34.5192]]],[[[139.4457,34.6795],[139.3924,34.6899],[139.3669,34.7205],[139.37,34.7754],[139.4262,34.7759],[139.4564,34.7265],[139.4457,34.6795]]],[[[141.4628,40.6111],[141.5423,40.5307],[141.6463,40.4736],[141.7971,40.2912],[141.8779,40.0672],[141.9351,39.9585],[141.9778,39.8444],[141.9908,39.7922],[141.9919,39.7399],[141.9791,39.6684],[141.9932,39.6105],[141.977,39.4288],[141.9095,39.2187],[141.9008,39.1113],[141.8421,39.09],[141.8065,39.0404],[141.7762,39.0174],[141.7425,38.9996],[141.6936,38.9952],[141.6586,38.9749],[141.6223,38.8651],[141.5797,38.8165],[141.5463,38.7628],[141.5188,38.632],[141.5088,38.4979],[141.4675,38.4042],[141.3682,38.3797],[141.2543,38.3814],[141.1084,38.3379],[141.0773,38.3125],[140.9621,38.1489],[140.929,38.0529],[140.9279,37.9496],[140.96,37.8226],[141.0034,37.6984],[141.0363,37.4672],[141.0017,37.1146],[140.9684,37.0021],[140.8951,36.9257],[140.8396,36.8903],[140.7918,36.8469],[140.7299,36.7319],[140.6273,36.5028],[140.6192,36.3856],[140.5735,36.2313],[140.5904,36.1424],[140.622,36.0592],[140.7596,35.8457],[140.874,35.725],[140.6393,35.6613],[140.5969,35.632],[140.4574,35.5103],[140.4129,35.3948],[140.4165,35.267],[140.393,35.2211],[140.3547,35.1814],[140.3147,35.155],[140.1589,35.0965],[140.0592,35.0383],[139.9598,34.9473],[139.9204,34.8996],[139.8439,34.9149],[139.7992,34.9569],[139.8433,35.0099],[139.8297,35.0722],[139.8515,35.2323],[139.8265,35.2967],[139.9062,35.3453],[139.9441,35.423],[140.0863,35.5404],[140.0969,35.5852],[140.0437,35.6334],[139.9875,35.6682],[139.9098,35.6684],[139.8348,35.6581],[139.7863,35.6121],[139.7701,35.5496],[139.7739,35.5204],[139.7678,35.4948],[139.65,35.4091],[139.6655,35.3195],[139.7,35.274],[139.744,35.2524],[139.7309,35.2215],[139.675,35.1493],[139.6359,35.1421],[139.5641,35.2433],[139.4744,35.2985],[139.3635,35.2981],[139.2494,35.278],[139.1627,35.2107],[139.1341,35.1549],[139.1158,35.0971],[139.122,34.9565],[139.086,34.8392],[138.9826,34.6984],[138.8967,34.6284],[138.8375,34.6192],[138.7951,34.651],[138.761,34.6992],[138.8045,34.8757],[138.8027,34.9748],[138.9036,35.0252],[138.8209,35.0957],[138.7196,35.1241],[138.5771,35.0865],[138.537,35.0441],[138.5096,34.9872],[138.3486,34.8477],[138.2532,34.7327],[138.1891,34.5963],[137.979,34.6409],[137.8643,34.6509],[137.7485,34.6474],[137.5434,34.6642],[137.3181,34.6364],[137.0617,34.5828],[137.0771,34.6214],[137.2878,34.7035],[137.2954,34.7276],[137.2752,34.7725],[137.2227,34.7747],[137.0966,34.759],[137.0322,34.7659],[137.006,34.8141],[136.9633,34.8349],[136.9348,34.8152],[136.9441,34.7215],[136.9129,34.709],[136.8713,34.7331],[136.8846,34.8059],[136.8562,34.9125],[136.8529,34.9787],[136.8971,35.0355],[136.8519,35.0595],[136.8042,35.0503],[136.7436,35.023],[136.69,34.9841],[136.577,34.7896],[136.533,34.6784],[136.6158,34.5891],[136.8416,34.4642],[136.8803,34.4336],[136.8812,34.3805],[136.8537,34.3241],[136.7922,34.2993],[136.5444,34.2577],[136.3299,34.1769],[136.2679,34.0949],[136.0726,33.7782],[135.9162,33.5617],[135.6953,33.487],[135.4528,33.5534],[135.3942,33.6288],[135.3468,33.722],[135.2566,33.8062],[135.1754,33.898],[135.1279,34.007],[135.1354,34.1826],[135.1001,34.2884],[135.1319,34.3166],[135.2656,34.3808],[135.3093,34.4168],[135.3848,34.5004],[135.4118,34.547],[135.4159,34.6175],[135.3552,34.6543],[135.1982,34.6529],[135.0417,34.631],[134.9299,34.6618],[134.785,34.7471],[134.74,34.7652],[134.5838,34.7706],[134.4723,34.7548],[134.3627,34.7237],[134.2469,34.7139],[134.2083,34.6977],[134.0745,34.5931],[133.9683,34.5273],[133.8764,34.4946],[133.6779,34.4859],[133.5786,34.4647],[133.4744,34.4301],[133.4453,34.4332],[133.3356,34.3854],[133.2098,34.344],[133.1424,34.3024],[133.0189,34.3296],[132.7746,34.2552],[132.6565,34.2461],[132.5345,34.2871],[132.4213,34.3534],[132.3126,34.325],[132.2381,34.227],[132.202,34.032],[132.1594,33.9442],[132.1465,33.8388],[132.0902,33.8555],[131.7632,34.0453],[131.7405,34.0521],[131.4762,34.0194],[131.4079,34.0036],[131.3228,33.9652],[131.2326,33.948],[131.1504,33.9756],[131.0719,34.0207],[130.9964,34.0073],[130.9188,33.9757],[130.8893,34.2618],[130.9043,34.2996],[131.0042,34.3926],[131.1322,34.4074],[131.2618,34.3935],[131.3544,34.4132],[131.4325,34.4698],[131.515,34.5501],[131.608,34.6155],[131.8561,34.7263],[132.0647,34.9],[132.1582,34.9665],[132.2596,35.0223],[132.4141,35.1563],[132.619,35.3068],[132.6977,35.4183],[132.7466,35.449],[132.9229,35.5113],[133.1569,35.5588],[133.2672,35.5565],[133.3765,35.4588],[133.4354,35.4722],[133.4949,35.4975],[133.6154,35.5114],[133.7394,35.4953],[133.8603,35.4949],[133.9812,35.5072],[134.2141,35.5393],[134.3365,35.5779],[134.4561,35.6279],[134.8822,35.6632],[135.1743,35.7471],[135.2205,35.7411],[135.2654,35.7218],[135.2688,35.6597],[135.232,35.5919],[135.2678,35.5509],[135.327,35.5255],[135.6019,35.5177],[135.6803,35.5031],[135.795,35.5495],[135.9031,35.6069],[136.0162,35.6825],[136.0953,35.7676],[136.0223,35.8741],[136.0062,35.9906],[136.0675,36.1168],[136.1562,36.2233],[136.2618,36.2877],[136.359,36.3618],[136.5559,36.572],[136.6981,36.742],[136.7493,36.951],[136.7192,37.1984],[136.8435,37.3821],[136.9623,37.4137],[137.1986,37.4975],[137.3227,37.5221],[137.3412,37.4854],[137.3375,37.4375],[137.1521,37.2832],[137.0458,37.2197],[136.924,37.172],[136.8999,37.1177],[136.9944,37.0268],[137.0186,36.9596],[137.0167,36.8372],[137.1237,36.7741],[137.2463,36.7532],[137.2977,36.7538],[137.3426,36.7704],[137.5141,36.9516],[137.9132,37.0646],[138.1096,37.1511],[138.2181,37.1734],[138.3199,37.2184],[138.5483,37.3921],[138.6328,37.4722],[138.7094,37.5606],[138.7706,37.6634],[138.8188,37.7747],[138.8851,37.8439],[139.2472,38.0091],[139.3639,38.099],[139.401,38.1426],[139.4458,38.2687],[139.4768,38.3998],[139.5208,38.5025],[139.5802,38.5989],[139.6598,38.697],[139.7491,38.7881],[139.802,38.8816],[139.8786,39.1049],[139.9123,39.2286],[139.9386,39.2731],[139.9771,39.3106],[140.0108,39.3581],[140.0365,39.4111],[140.0647,39.6244],[140.0547,39.7493],[139.9947,39.8551],[139.9452,39.8851],[139.8104,39.8777],[139.7415,39.9209],[139.7555,39.9589],[139.8257,39.966],[139.8736,39.9857],[139.908,40.0217],[139.9725,40.137],[140.0111,40.2604],[140.0145,40.3149],[139.9641,40.4143],[139.9239,40.5339],[139.9229,40.5984],[139.9667,40.6728],[140.0293,40.7332],[140.0854,40.7474],[140.1461,40.7516],[140.2013,40.7749],[140.2523,40.8088],[140.2812,40.8461],[140.3436,41.0057],[140.3152,41.1609],[140.3444,41.2033],[140.3859,41.2298],[140.4413,41.2097],[140.5642,41.2118],[140.6276,41.1954],[140.6396,41.1556],[140.6794,40.8933],[140.7024,40.8578],[140.7486,40.8303],[140.8008,40.8343],[140.8458,40.8751],[140.8762,40.9295],[140.936,40.9408],[141.1186,40.8823],[141.1832,40.924],[141.2254,40.9885],[141.2621,41.1027],[141.2442,41.2056],[141.2004,41.2436],[141.1551,41.2367],[141.115,41.2085],[141.0704,41.1931],[140.8006,41.1388],[140.8019,41.2537],[140.8596,41.4254],[140.8915,41.4798],[140.9369,41.5056],[141.0502,41.4757],[141.1059,41.4559],[141.2688,41.3538],[141.4555,41.4047],[141.4199,41.2512],[141.4,41.0963],[141.4137,40.8394],[141.4305,40.7233],[141.4628,40.6111]]],[[[138.2462,37.9946],[138.25,38.0785],[138.3063,38.1611],[138.4613,38.2915],[138.5036,38.3159],[138.5101,38.259],[138.4628,38.1243],[138.4536,38.0757],[138.5752,38.0655],[138.497,37.9039],[138.344,37.8221],[138.249,37.8196],[138.2252,37.8294],[138.2828,37.8542],[138.2879,37.8958],[138.3223,37.9695],[138.3217,37.9908],[138.2462,37.9946]]],[[[139.5051,42.0964],[139.4584,42.0756],[139.4346,42.0841],[139.4115,42.1597],[139.4313,42.1996],[139.4958,42.2274],[139.5584,42.2352],[139.5051,42.0964]]],[[[146.1008,43.4402],[146.0323,43.4071],[146.028,43.4204],[146.0886,43.449],[146.1008,43.4402]]],[[[145.9436,43.4265],[145.8939,43.4198],[145.8691,43.4579],[145.9312,43.457],[145.9436,43.4265]]],[[[144.7985,43.9402],[144.8719,43.9819],[145.1016,44.1662],[145.3428,44.3339],[145.3695,44.3274],[145.3696,44.2813],[145.352,44.2298],[145.2452,44.0762],[145.1264,43.8694],[145.1011,43.7646],[145.1396,43.6625],[145.2141,43.5782],[145.2729,43.4629],[145.3408,43.3025],[145.4361,43.2822],[145.4879,43.2797],[145.5833,43.3278],[145.6736,43.3889],[145.7513,43.3963],[145.833,43.3859],[145.7256,43.3435],[145.6242,43.2913],[145.5374,43.1927],[145.5051,43.1742],[145.3475,43.1767],[145.2301,43.1355],[145.1271,43.0889],[145.0288,43.0316],[144.9214,43.0009],[144.8071,42.9937],[144.6308,42.9469],[144.5162,42.9436],[144.3016,42.9844],[144.1973,42.9736],[143.9693,42.8814],[143.7621,42.7481],[143.581,42.5987],[143.4295,42.4189],[143.3687,42.3251],[143.3321,42.2204],[143.3137,42.0843],[143.2787,42.0378],[143.2365,42.0002],[143.1117,42.0222],[142.9063,42.1184],[142.5082,42.258],[142.0879,42.4717],[141.8514,42.5791],[141.4066,42.5469],[140.9861,42.3421],[140.9484,42.3596],[140.7876,42.5],[140.7098,42.5556],[140.6168,42.5713],[140.4805,42.5594],[140.3854,42.4872],[140.3506,42.4351],[140.3235,42.3761],[140.3152,42.3343],[140.3267,42.2934],[140.4166,42.2007],[140.5275,42.1318],[140.5777,42.1187],[140.6843,42.1235],[140.7338,42.1164],[140.9123,41.9778],[141.1077,41.848],[141.151,41.8051],[141.0787,41.7598],[140.9995,41.7374],[140.9075,41.7433],[140.8164,41.7604],[140.6599,41.8156],[140.593,41.7686],[140.4892,41.6722],[140.4316,41.5674],[140.385,41.5193],[140.2701,41.456],[140.1486,41.4232],[140.0852,41.4341],[140.0366,41.4738],[140.0092,41.5213],[139.9953,41.5764],[140.0213,41.6958],[140.0842,41.8032],[140.1084,41.9129],[140.0568,42.0673],[140.0241,42.0996],[139.8951,42.19],[139.8354,42.2781],[139.8209,42.3876],[139.8285,42.4481],[139.8602,42.5817],[139.8911,42.6492],[140.015,42.6848],[140.1146,42.733],[140.2241,42.7955],[140.3286,42.8668],[140.4322,42.9541],[140.4864,43.0499],[140.3975,43.1673],[140.3793,43.2371],[140.3924,43.3031],[140.4869,43.3382],[140.5846,43.3117],[140.7807,43.215],[140.8191,43.2055],[140.9538,43.201],[141.1382,43.1799],[141.245,43.1851],[141.2963,43.1997],[141.3741,43.2796],[141.4123,43.3815],[141.3983,43.5125],[141.3977,43.6426],[141.4468,43.7486],[141.6007,43.919],[141.6447,44.0194],[141.6608,44.2636],[141.7163,44.3712],[141.7609,44.4825],[141.7822,44.7164],[141.719,44.9411],[141.6558,45.0512],[141.583,45.156],[141.5938,45.256],[141.6525,45.3486],[141.654,45.3766],[141.668,45.4013],[141.7781,45.4189],[141.8295,45.4388],[141.8787,45.4833],[141.9377,45.5095],[141.9809,45.4835],[142.0164,45.4379],[142.1716,45.3256],[142.416,45.125],[142.7041,44.8192],[142.8848,44.6701],[143.0751,44.5349],[143.2886,44.3966],[143.5119,44.2775],[143.6546,44.2213],[143.7591,44.1316],[143.8243,44.117],[144.0055,44.1166],[144.1014,44.1016],[144.4818,43.9496],[144.5967,43.9302],[144.7152,43.928],[144.7985,43.9402]]],[[[146.3498,43.6441],[146.3588,43.6254],[146.3323,43.6199],[146.2738,43.6298],[146.3102,43.6519],[146.3498,43.6441]]],[[[146.899,43.8041],[146.714,43.7438],[146.683,43.7164],[146.6086,43.7405],[146.6135,43.797],[146.622,43.813],[146.8246,43.8605],[146.8841,43.8291],[146.899,43.8041]]],[[[146.1123,44.2459],[145.9141,44.1037],[145.8873,44.0478],[145.767,43.9407],[145.5868,43.8451],[145.5559,43.6646],[145.4393,43.7371],[145.4262,43.8104],[145.4617,43.8709],[145.6663,43.9991],[145.7483,44.0715],[145.7733,44.129],[145.852,44.193],[145.8902,44.2486],[145.9404,44.2727],[146.1121,44.5001],[146.2076,44.4977],[146.356,44.4246],[146.5678,44.4404],[146.5162,44.3747],[146.4365,44.3757],[146.2962,44.281],[146.1729,44.2687],[146.1123,44.2459]]],[[[147.3102,44.6776],[147.2074,44.5536],[147.0984,44.5312],[146.8975,44.4043],[146.9335,44.5131],[146.9742,44.5657],[147.1409,44.6633],[147.1548,44.7662],[147.2466,44.8561],[147.4305,44.9452],[147.5578,45.0625],[147.6579,45.093],[147.7694,45.1907],[147.8855,45.2256],[147.8727,45.3003],[147.924,45.3833],[147.9646,45.3777],[148.0,45.3329],[148.0,45.0656],[147.9138,44.9904],[147.7841,44.9586],[147.6578,44.9771],[147.6219,44.9447],[147.6096,44.8866],[147.5631,44.8355],[147.3102,44.6776]]],[[[141.3292,45.1505],[141.2954,45.1193],[141.226,45.1122],[141.1453,45.1539],[141.1354,45.2062],[141.1937,45.2479],[141.2519,45.2325],[141.3101,45.1786],[141.3292,45.1505]]],[[[141.0728,45.3329],[141.034,45.2693],[140.9821,45.3638],[140.9717,45.4655],[141.0567,45.4496],[141.0699,45.4],[141.0728,45.3329]]],[[[144.4317,49.0511],[144.6068,48.9358],[144.6855,48.8712],[144.7066,48.8195],[144.7138,48.6403],[144.6727,48.6786],[144.621,48.8148],[144.5363,48.8936],[144.2838,49.0698],[144.1255,49.2085],[144.0487,49.2492],[143.9678,49.2763],[143.8191,49.3086],[143.7323,49.312],[143.3822,49.2907],[143.2363,49.2628],[143.105,49.1988],[143.0269,49.1054],[142.9717,48.9178],[142.5742,48.0722],[142.5459,47.8849],[142.5569,47.7379],[142.579,47.684],[142.6701,47.5369],[142.7454,47.4524],[142.8008,47.4162],[142.864,47.3918],[142.9055,47.3619],[142.9403,47.3228],[143.0056,47.2227],[143.0893,47.0008],[143.1779,46.844],[143.2177,46.7949],[143.3187,46.8074],[143.3844,46.8057],[143.4473,46.792],[143.4856,46.7521],[143.5403,46.5751],[143.5787,46.4061],[143.5807,46.3607],[143.5086,46.2302],[143.4906,46.1746],[143.4823,46.1158],[143.4635,46.0695],[143.4316,46.0287],[143.4187,46.222],[143.3703,46.3585],[143.3521,46.4762],[143.2823,46.559],[143.0479,46.5926],[142.8293,46.6053],[142.7955,46.6202],[142.7474,46.6707],[142.6919,46.7108],[142.6357,46.7162],[142.578,46.7008],[142.4788,46.6442],[142.4064,46.5547],[142.35,46.4587],[142.304,46.3576],[142.2086,46.0889],[142.1497,45.9993],[142.0771,45.917],[142.0156,45.9616],[141.9616,46.0135],[141.93,46.0883],[141.9163,46.1708],[141.8304,46.4511],[141.8665,46.6942],[142.011,47.0303],[142.0387,47.1403],[142.0169,47.2447],[141.9842,47.3477],[141.9625,47.5438],[141.9641,47.5875],[142.0156,47.7006],[142.076,47.8083],[142.1492,47.9021],[142.1817,48.0134],[142.1354,48.2901],[142.0287,48.4771],[141.8973,48.6547],[141.873,48.702],[141.8663,48.7501],[141.9796,48.9722],[142.0201,49.0785],[142.0665,49.3121],[142.1423,49.5691],[142.1495,50.0],[143.9855,50.0],[144.0479,49.8958],[144.1413,49.6615],[144.1996,49.5498],[144.2721,49.3113],[144.3412,49.1805],[144.4317,49.0511]]]]}}]}