{"type":"FeatureCollection","lx":{"source":"https://rapidmapping.emergency.copernicus.eu/backend/EMSR798/AOI11/GRA_PRODUCT/EMSR798_AOI11_GRA_PRODUCT_v1.zip","fetched_at":"2026-09-24T10:19:43+09:00","sha256":"07dc7245cf8284f993e37b27e4e76a3cff9b99ff4e4d7534a00d158d4ba97d60","license":"© European Union, Copernicus Emergency Management Service (출처 표기 시 자유 이용) · 건물 형상 © OpenStreetMap contributors, Overture Maps Foundation (ODbL/CDLA)","overture":"https://overturemaps-extras-us-west-2.s3.us-west-2.amazonaws.com/tiles/2026-09-23.0/buildings.pmtiles","join":"최근접 ≤ 15 m (UTM 46N) · Overture z14 MVT","event":{"id":"EMSR798","glide":"EQ-2025-000043-MMR","name":"Earthquakes in Myanmar","date":"2025-03-28","aoi":"AOI11 Meiktila"},"counts":{"Destroyed":{"value":4,"unit":"count","basis":"measured","as_of":"2026-09-24","source":"Copernicus EMS EMSR798 AOI11 GRA v1 builtUpP"},"Damaged":{"value":23,"unit":"count","basis":"measured","as_of":"2026-09-24","source":"Copernicus EMS EMSR798 AOI11 GRA v1 builtUpP"},"Possibly damaged":{"value":11,"unit":"count","basis":"measured","as_of":"2026-09-24","source":"Copernicus EMS EMSR798 AOI11 GRA v1 builtUpP"}},"total":{"value":38,"unit":"count","basis":"measured","as_of":"2026-09-24","source":"Copernicus EMS EMSR798 AOI11 GRA v1 builtUpP"},"joined":{"value":38,"unit":"count","basis":"measured","as_of":"2026-09-24","source":"shapely STRtree.query_nearest","note":"nearest Overture building ≤ 15 m"},"overture_buildings_in_bbox":{"value":42614,"unit":"count","basis":"measured","as_of":"2026-09-24","source":"https://overturemaps-extras-us-west-2.s3.us-west-2.amazonaws.com/tiles/2026-09-23.0/buildings.pmtiles"},"pts_bbox":[95.83293,20.86882,95.90242,20.91047]},"features":[{"type":"Feature","id":0,"properties":{"id":"ems-00","damage_gra":"Damaged","grade_rank":1,"obj_type":"11-Residential Buildings","det_method":"Photo-interpretation","lnglat":[95.882978,20.870824],"joined":true,"join_m":0.0,"ov_id":"a6f28bff-12ee-4035-b194-8defce718a8b","height_m":null},"geometry":{"type":"Polygon","coordinates":[[[95.883066,20.870887],[95.883034,20.870772],[95.882937,20.870802],[95.882975,20.870912],[95.883066,20.870887]]]}},{"type":"Feature","id":1,"properties":{"id":"ems-01","damage_gra":"Damaged","grade_rank":1,"obj_type":"11-Residential Buildings","det_method":"Photo-interpretation","lnglat":[95.897119,20.872106],"joined":true,"join_m":0.0,"ov_id":"8b45b439-27dd-4b47-a225-acc0b1ddd52b","height_m":null},"geometry":{"type":"Polygon","coordinates":[[[95.897153,20.872155],[95.897153,20.87207],[95.897024,20.872075],[95.89703,20.872155],[95.897153,20.872155]]]}},{"type":"Feature","id":2,"properties":{"id":"ems-02","damage_gra":"Destroyed","grade_rank":0,"obj_type":"11-Residential Buildings","det_method":"Photo-interpretation","lnglat":[95.89153,20.872297],"joined":true,"join_m":0.0,"ov_id":"cd84aa25-0910-4ad7-b06a-269bd1ef73bd","height_m":null},"geometry":{"type":"Polygon","coordinates":[[[95.891515,20.872346],[95.891601,20.872336],[95.89159,20.872256],[95.891504,20.872261],[95.891515,20.872346]]]}},{"type":"Feature","id":3,"properties":{"id":"ems-03","damage_gra":"Possibly damaged","grade_rank":2,"obj_type":"11-Residential Buildings","det_method":"Photo-interpretation","lnglat":[95.893403,20.875394],"joined":true,"join_m":0.0,"ov_id":"0a4fd448-8286-4107-90e3-17b3f9f2c5eb","height_m":null},"geometry":{"type":"Polygon","coordinates":[[[95.893409,20.875469],[95.893462,20.875418],[95.893414,20.875373],[95.89336,20.875423],[95.893409,20.875469]]]}},{"type":"Feature","id":4,"properties":{"id":"ems-04","damage_gra":"Damaged","grade_rank":1,"obj_type":"11-Residential Buildings","det_method":"Photo-interpretation","lnglat":[95.895223,20.876482],"joined":true,"join_m":6.0,"ov_id":"1253625d-79a9-4cc7-80bc-fba495f856be","height_m":null},"geometry":{"type":"Polygon","coordinates":[[[95.895141,20.876596],[95.895195,20.876531],[95.895141,20.876486],[95.895088,20.876551],[95.895141,20.876596]]]}},{"type":"Feature","id":5,"properties":{"id":"ems-05","damage_gra":"Damaged","grade_rank":1,"obj_type":"11-Residential Buildings","det_method":"Photo-interpretation","lnglat":[95.896144,20.877138],"joined":true,"join_m":0.0,"ov_id":"e59ed9cb-efd1-42af-ab7e-68bd80ba30f2","height_m":null},"geometry":{"type":"Polygon","coordinates":[[[95.896171,20.877098],[95.896091,20.877052],[95.896043,20.877133],[95.896123,20.877178],[95.896171,20.877098]]]}},{"type":"Feature","id":6,"properties":{"id":"ems-06","damage_gra":"Damaged","grade_rank":1,"obj_type":"11-Residential Buildings","det_method":"Photo-interpretation","lnglat":[95.875034,20.879669],"joined":true,"join_m":0.0,"ov_id":"f90dfac6-4319-454d-8078-266de960460e","height_m":null},"geometry":{"type":"Polygon","coordinates":[[[95.8751,20.879724],[95.875095,20.879614],[95.874998,20.879614],[95.875003,20.879729],[95.8751,20.879724]]]}},{"type":"Feature","id":7,"properties":{"id":"ems-07","damage_gra":"Damaged","grade_rank":1,"obj_type":"11-Residential Buildings","det_method":"Photo-interpretation","lnglat":[95.875432,20.879675],"joined":true,"join_m":0.0,"ov_id":"04fe9678-7d54-40f4-a66b-ee64c3aefbe0","height_m":null},"geometry":{"type":"Polygon","coordinates":[[[95.875486,20.879739],[95.875486,20.879624],[95.875384,20.879629],[95.87539,20.879739],[95.875486,20.879739]]]}},{"type":"Feature","id":8,"properties":{"id":"ems-08","damage_gra":"Destroyed","grade_rank":0,"obj_type":"12-Non-residential Buildings","det_method":"Photo-interpretation","lnglat":[95.873957,20.880344],"joined":true,"join_m":0.0,"ov_id":"6c3234e1-05af-43b7-9474-9a3ecd6032ea","height_m":null},"geometry":{"type":"Polygon","coordinates":[[[95.874129,20.880601],[95.874124,20.880526],[95.874022,20.880531],[95.874016,20.880255],[95.874124,20.880255],[95.874124,20.88018],[95.873834,20.880185],[95.873834,20.88025],[95.87392,20.88025],[95.873925,20.880531],[95.873839,20.880531],[95.873845,20.880606],[95.874129,20.880601]]]}},{"type":"Feature","id":9,"properties":{"id":"ems-09","damage_gra":"Damaged","grade_rank":1,"obj_type":"11-Residential Buildings","det_method":"Photo-interpretation","lnglat":[95.864626,20.880966],"joined":true,"join_m":3.2,"ov_id":"6b893707-9bf6-4597-a9a2-f28d3bc00d49","height_m":null},"geometry":{"type":"Polygon","coordinates":[[[95.864596,20.881092],[95.86465,20.881012],[95.864548,20.880957],[95.864494,20.881037],[95.864596,20.881092]]]}},{"type":"Feature","id":10,"properties":{"id":"ems-10","damage_gra":"Possibly damaged","grade_rank":2,"obj_type":"11-Residential Buildings","det_method":"Photo-interpretation","lnglat":[95.834932,20.871227],"joined":true,"join_m":0.0,"ov_id":"fbe3ed91-bb24-4d6c-b0a5-f1938c833369","height_m":null},"geometry":{"type":"Polygon","coordinates":[[[95.834888,20.871258],[95.834979,20.871258],[95.834979,20.871178],[95.834888,20.871178],[95.834888,20.871258]]]}},{"type":"Feature","id":11,"properties":{"id":"ems-11","damage_gra":"Damaged","grade_rank":1,"obj_type":"11-Residential Buildings","det_method":"Photo-interpretation","lnglat":[95.844011,20.873699],"joined":true,"join_m":0.0,"ov_id":"4198a716-d6d7-4df2-a55c-84148847165d","height_m":null},"geometry":{"type":"Polygon","coordinates":[[[95.844018,20.873824],[95.844115,20.873624],[95.844018,20.873584],[95.843922,20.873784],[95.844018,20.873824]]]}},{"type":"Feature","id":12,"properties":{"id":"ems-12","damage_gra":"Damaged","grade_rank":1,"obj_type":"11-Residential Buildings","det_method":"Photo-interpretation","lnglat":[95.837647,20.876902],"joined":true,"join_m":0.0,"ov_id":"907d9d63-554c-4932-92ae-6ea883ec7ac7","height_m":null},"geometry":{"type":"Polygon","coordinates":[[[95.837678,20.876952],[95.837678,20.876912],[95.837656,20.876912],[95.837656,20.876877],[95.837678,20.876877],[95.837678,20.876842],[95.837581,20.876842],[95.837581,20.876952],[95.837678,20.876952]]]}},{"type":"Feature","id":13,"properties":{"id":"ems-13","damage_gra":"Possibly damaged","grade_rank":2,"obj_type":"11-Residential Buildings","det_method":"Photo-interpretation","lnglat":[95.858148,20.880072],"joined":true,"join_m":0.0,"ov_id":"49d1ecef-b795-41d8-9705-698b0f3493ce","height_m":null},"geometry":{"type":"Polygon","coordinates":[[[95.858229,20.88015],[95.858207,20.880005],[95.858095,20.88002],[95.858116,20.880165],[95.858229,20.88015]]]}},{"type":"Feature","id":14,"properties":{"id":"ems-14","damage_gra":"Damaged","grade_rank":1,"obj_type":"11-Residential Buildings","det_method":"Photo-interpretation","lnglat":[95.848552,20.880213],"joined":true,"join_m":0.0,"ov_id":"535c32c8-e820-482a-8312-44c13b6cbef6","height_m":null},"geometry":{"type":"Polygon","coordinates":[[[95.848589,20.88026],[95.84861,20.880175],[95.848508,20.88016],[95.848492,20.880245],[95.848589,20.88026]]]}},{"type":"Feature","id":15,"properties":{"id":"ems-15","damage_gra":"Possibly damaged","grade_rank":2,"obj_type":"11-Residential Buildings","det_method":"Photo-interpretation","lnglat":[95.838054,20.88033],"joined":true,"join_m":2.2,"ov_id":"644d1150-8f13-4b16-aff5-174bf0dd056b","height_m":null},"geometry":{"type":"Polygon","coordinates":[[[95.838134,20.880416],[95.838091,20.880335],[95.838016,20.88037],[95.838059,20.880451],[95.838134,20.880416]]]}},{"type":"Feature","id":16,"properties":{"id":"ems-16","damage_gra":"Damaged","grade_rank":1,"obj_type":"11-Residential Buildings","det_method":"Photo-interpretation","lnglat":[95.8505,20.880419],"joined":true,"join_m":0.0,"ov_id":"2002f37c-dc33-49e2-ab62-191dde87088e","height_m":null},"geometry":{"type":"Polygon","coordinates":[[[95.850681,20.880451],[95.850681,20.88028],[95.850354,20.88028],[95.850354,20.880355],[95.850311,20.880355],[95.850311,20.880451],[95.850681,20.880451]]]}},{"type":"Feature","id":17,"properties":{"id":"ems-17","damage_gra":"Damaged","grade_rank":1,"obj_type":"11-Residential Buildings","det_method":"Photo-interpretation","lnglat":[95.857633,20.880588],"joined":true,"join_m":0.0,"ov_id":"30a4f70b-c857-4dab-815b-760ec19d0870","height_m":null},"geometry":{"type":"Polygon","coordinates":[[[95.857708,20.880726],[95.857703,20.880436],[95.857607,20.880436],[95.857612,20.880726],[95.857708,20.880726]]]}},{"type":"Feature","id":18,"properties":{"id":"ems-18","damage_gra":"Possibly damaged","grade_rank":2,"obj_type":"11-Residential Buildings","det_method":"Photo-interpretation","lnglat":[95.837457,20.880693],"joined":true,"join_m":0.0,"ov_id":"0f25daca-7407-4904-9d8f-0b21def37bbc","height_m":null},"geometry":{"type":"Polygon","coordinates":[[[95.837501,20.880736],[95.837501,20.880656],[95.837447,20.880651],[95.837447,20.880736],[95.837501,20.880736]]]}},{"type":"Feature","id":19,"properties":{"id":"ems-19","damage_gra":"Damaged","grade_rank":1,"obj_type":"11-Residential Buildings","det_method":"Photo-interpretation","lnglat":[95.848426,20.881476],"joined":true,"join_m":0.0,"ov_id":"5c21d379-0586-461c-bd41-149c56193db3","height_m":null},"geometry":{"type":"Polygon","coordinates":[[[95.848466,20.881533],[95.848498,20.881423],[95.848417,20.881403],[95.848385,20.881513],[95.848466,20.881533]]]}},{"type":"Feature","id":20,"properties":{"id":"ems-20","damage_gra":"Possibly damaged","grade_rank":2,"obj_type":"12-Non-residential Buildings","det_method":"Photo-interpretation","lnglat":[95.859333,20.881513],"joined":true,"join_m":3.2,"ov_id":"ba9bd6f1-bf9c-4a0d-8655-89d082473acc","height_m":null},"geometry":{"type":"Polygon","coordinates":[[[95.859312,20.881548],[95.859286,20.881463],[95.859125,20.881503],[95.859146,20.881588],[95.859312,20.881548]]]}},{"type":"Feature","id":21,"properties":{"id":"ems-21","damage_gra":"Damaged","grade_rank":1,"obj_type":"11-Residential Buildings","det_method":"Photo-interpretation","lnglat":[95.861403,20.881533],"joined":true,"join_m":0.0,"ov_id":"248bd2bf-569d-44ed-97a4-a4b96ff37503","height_m":null},"geometry":{"type":"Polygon","coordinates":[[[95.861383,20.881613],[95.861464,20.881493],[95.861297,20.881398],[95.861222,20.881518],[95.861383,20.881613]]]}},{"type":"Feature","id":22,"properties":{"id":"ems-22","damage_gra":"Damaged","grade_rank":1,"obj_type":"11-Residential Buildings","det_method":"Photo-interpretation","lnglat":[95.861701,20.88173],"joined":true,"join_m":0.0,"ov_id":"05d99ac1-d4f3-438a-b04c-8b0c2389e200","height_m":null},"geometry":{"type":"Polygon","coordinates":[[[95.86171,20.881854],[95.861807,20.881674],[95.861726,20.881634],[95.86163,20.881819],[95.86171,20.881854]]]}},{"type":"Feature","id":23,"properties":{"id":"ems-23","damage_gra":"Damaged","grade_rank":1,"obj_type":"11-Residential Buildings","det_method":"Photo-interpretation","lnglat":[95.850117,20.882618],"joined":true,"join_m":0.0,"ov_id":"4e8f511c-68bd-4c26-a094-e071c836faab","height_m":null},"geometry":{"type":"Polygon","coordinates":[[[95.850177,20.882651],[95.850193,20.882561],[95.850112,20.882551],[95.850096,20.882641],[95.850177,20.882651]]]}},{"type":"Feature","id":24,"properties":{"id":"ems-24","damage_gra":"Damaged","grade_rank":1,"obj_type":"11-Residential Buildings","det_method":"Photo-interpretation","lnglat":[95.863689,20.893906],"joined":true,"join_m":0.0,"ov_id":"ecb1822e-2796-4de2-99c9-41bb6cb59023","height_m":null},"geometry":{"type":"Polygon","coordinates":[[[95.863749,20.893948],[95.863749,20.893898],[95.863663,20.893893],[95.863658,20.893948],[95.863749,20.893948]]]}},{"type":"Feature","id":25,"properties":{"id":"ems-25","damage_gra":"Possibly damaged","grade_rank":2,"obj_type":"11-Residential Buildings","det_method":"Photo-interpretation","lnglat":[95.860905,20.894743],"joined":true,"join_m":5.2,"ov_id":"3ab34d08-dba5-4e92-8fa7-20495c017aa4","height_m":null},"geometry":{"type":"Polygon","coordinates":[[[95.860981,20.89482],[95.860906,20.89479],[95.860847,20.894905],[95.860922,20.894935],[95.860943,20.89489],[95.860965,20.8949],[95.860997,20.89483],[95.860981,20.89482]]]}},{"type":"Feature","id":26,"properties":{"id":"ems-26","damage_gra":"Possibly damaged","grade_rank":2,"obj_type":"11-Residential Buildings","det_method":"Photo-interpretation","lnglat":[95.858262,20.896966],"joined":true,"join_m":0.0,"ov_id":"07574372-8c1c-4b65-a42a-e5e495f388b2","height_m":null},"geometry":{"type":"Polygon","coordinates":[[[95.858304,20.89704],[95.858304,20.896905],[95.858218,20.8969],[95.858213,20.897035],[95.858304,20.89704]]]}},{"type":"Feature","id":27,"properties":{"id":"ems-27","damage_gra":"Destroyed","grade_rank":0,"obj_type":"11-Residential Buildings","det_method":"Photo-interpretation","lnglat":[95.860551,20.9008],"joined":true,"join_m":1.1,"ov_id":"b0965384-4d63-4a2e-a3cd-990b90a69fef","height_m":null},"geometry":{"type":"Polygon","coordinates":[[[95.860568,20.900874],[95.860573,20.900814],[95.860509,20.900803],[95.860498,20.900864],[95.860568,20.900874]]]}},{"type":"Feature","id":28,"properties":{"id":"ems-28","damage_gra":"Damaged","grade_rank":1,"obj_type":"11-Residential Buildings","det_method":"Photo-interpretation","lnglat":[95.863606,20.905297],"joined":true,"join_m":0.0,"ov_id":"d8b217e5-e3f4-4d29-93d0-56eccb2afaa8","height_m":null},"geometry":{"type":"Polygon","coordinates":[[[95.863652,20.905384],[95.863679,20.905324],[95.863577,20.905284],[95.86355,20.905344],[95.863652,20.905384]]]}},{"type":"Feature","id":29,"properties":{"id":"ems-29","damage_gra":"Destroyed","grade_rank":0,"obj_type":"11-Residential Buildings","det_method":"Photo-interpretation","lnglat":[95.866562,20.88141],"joined":true,"join_m":1.2,"ov_id":"b73e7bad-d86d-4755-8172-12d4e249a68a","height_m":null},"geometry":{"type":"Polygon","coordinates":[[[95.866678,20.881488],[95.866683,20.881358],[95.866576,20.881353],[95.86657,20.881488],[95.866678,20.881488]]]}},{"type":"Feature","id":30,"properties":{"id":"ems-30","damage_gra":"Damaged","grade_rank":1,"obj_type":"12-Non-residential Buildings","det_method":"Photo-interpretation","lnglat":[95.886283,20.884272],"joined":true,"join_m":0.0,"ov_id":"bd9d7e4e-2d94-4561-9f2f-b5de34e65272","height_m":null},"geometry":{"type":"Polygon","coordinates":[[[95.886456,20.884375],[95.88644,20.884205],[95.886065,20.884235],[95.886081,20.884405],[95.886456,20.884375]]]}},{"type":"Feature","id":31,"properties":{"id":"ems-31","damage_gra":"Damaged","grade_rank":1,"obj_type":"12-Non-residential Buildings","det_method":"Photo-interpretation","lnglat":[95.868329,20.885652],"joined":true,"join_m":0.0,"ov_id":"1ca34db6-931f-4a0a-8307-dd10ddf66a76","height_m":null},"geometry":{"type":"Polygon","coordinates":[[[95.868389,20.885778],[95.868432,20.885563],[95.868266,20.885533],[95.868223,20.885748],[95.868389,20.885778]]]}},{"type":"Feature","id":32,"properties":{"id":"ems-32","damage_gra":"Damaged","grade_rank":1,"obj_type":"11-Residential Buildings","det_method":"Photo-interpretation","lnglat":[95.876457,20.894704],"joined":true,"join_m":0.0,"ov_id":"8f8c45b1-67b3-41f8-9b96-3a858917aacf","height_m":null},"geometry":{"type":"Polygon","coordinates":[[[95.876505,20.894765],[95.876521,20.894674],[95.876446,20.894659],[95.876425,20.894755],[95.876505,20.894765]]]}},{"type":"Feature","id":33,"properties":{"id":"ems-33","damage_gra":"Damaged","grade_rank":1,"obj_type":"11-Residential Buildings","det_method":"Photo-interpretation","lnglat":[95.87847,20.896142],"joined":true,"join_m":0.0,"ov_id":"e5c59aeb-0622-416c-9f75-fdcbea1052c2","height_m":null},"geometry":{"type":"Polygon","coordinates":[[[95.878453,20.896203],[95.878506,20.896198],[95.878538,20.896153],[95.878533,20.896108],[95.878485,20.896078],[95.878431,20.896088],[95.878404,20.896128],[95.87841,20.896173],[95.878453,20.896203]]]}},{"type":"Feature","id":34,"properties":{"id":"ems-34","damage_gra":"Damaged","grade_rank":1,"obj_type":"11-Residential Buildings","det_method":"Photo-interpretation","lnglat":[95.881929,20.897764],"joined":true,"join_m":0.0,"ov_id":"dfc2fec7-6893-4ae2-b431-8e2bb506804e","height_m":null},"geometry":{"type":"Polygon","coordinates":[[[95.882004,20.897787],[95.882009,20.897716],[95.881918,20.897711],[95.881913,20.897782],[95.882004,20.897787]]]}},{"type":"Feature","id":35,"properties":{"id":"ems-35","damage_gra":"Possibly damaged","grade_rank":2,"obj_type":"11-Residential Buildings","det_method":"Photo-interpretation","lnglat":[95.900417,20.904037],"joined":true,"join_m":4.8,"ov_id":"609f3ee8-1091-4c73-ac3b-ed3d44ddc0e1","height_m":null},"geometry":{"type":"Polygon","coordinates":[[[95.90049,20.903951],[95.900441,20.903865],[95.900323,20.903921],[95.900372,20.904011],[95.90049,20.903951]]]}},{"type":"Feature","id":36,"properties":{"id":"ems-36","damage_gra":"Possibly damaged","grade_rank":2,"obj_type":"11-Residential Buildings","det_method":"Photo-interpretation","lnglat":[95.86458,20.906981],"joined":true,"join_m":0.0,"ov_id":"2af3d24a-e39f-4ae6-a9fd-1c05768cecb2","height_m":null},"geometry":{"type":"Polygon","coordinates":[[[95.864618,20.907068],[95.864661,20.906962],[95.86457,20.906932],[95.864532,20.907033],[95.864618,20.907068]]]}},{"type":"Feature","id":37,"properties":{"id":"ems-37","damage_gra":"Possibly damaged","grade_rank":2,"obj_type":"11-Residential Buildings","det_method":"Photo-interpretation","lnglat":[95.885995,20.908471],"joined":true,"join_m":0.0,"ov_id":"ebaf1d57-8f63-434a-8d6e-b541d9c9dd2b","height_m":null},"geometry":{"type":"Polygon","coordinates":[[[95.886065,20.908556],[95.886086,20.908481],[95.885984,20.908456],[95.885963,20.908526],[95.886065,20.908556]]]}}]}