{"type":"FeatureCollection","lx":{"source":"https://rapidmapping.emergency.copernicus.eu/backend/EMSR798/AOI11/GRA_PRODUCT/EMSR798_AOI11_GRA_PRODUCT_v1.zip","fetched_at":"2026-09-24T10:19:43+09:00","license":"© European Union, Copernicus Emergency Management Service"},"features":[{"type":"Feature","properties":{"kind":"aoi","emsr_id":"EMSR798","glide_no":"EQ-2025-000043-MMR","area_id":"11","locality":"Meiktila","map_type":"Grading"},"geometry":{"type":"Polygon","coordinates":[[[95.848005,20.906279],[95.846671,20.916403],[95.853924,20.917634],[95.853978,20.917477],[95.856992,20.910595],[95.85704,20.910546],[95.859478,20.915484],[95.865237,20.914964],[95.865233,20.914809],[95.863792,20.909235],[95.863834,20.908953],[95.863877,20.908719],[95.866251,20.905306],[95.86634,20.905261],[95.870733,20.906139],[95.871092,20.906095],[95.876279,20.907178],[95.880844,20.912017],[95.885433,20.914994],[95.885771,20.915045],[95.886315,20.9152],[95.886458,20.915201],[95.894316,20.913686],[95.900447,20.918316],[95.902576,20.909498],[95.900956,20.89863],[95.901469,20.894576],[95.901888,20.891183],[95.898533,20.888985],[95.900237,20.880337],[95.897865,20.878708],[95.900598,20.874958],[95.900964,20.87033],[95.899111,20.868017],[95.893153,20.86819],[95.892775,20.868276],[95.886231,20.869481],[95.885946,20.86948],[95.882563,20.86799],[95.881274,20.866648],[95.880956,20.866646],[95.879807,20.868377],[95.879805,20.868513],[95.879756,20.868829],[95.879635,20.871797],[95.879207,20.871984],[95.879016,20.872081],[95.876934,20.87516],[95.876883,20.875258],[95.875828,20.877457],[95.872582,20.878999],[95.872483,20.878997],[95.872288,20.878942],[95.871889,20.878943],[95.871588,20.878949],[95.871288,20.878951],[95.871088,20.878952],[95.869009,20.878669],[95.866255,20.876922],[95.866071,20.876817],[95.863637,20.875784],[95.863345,20.873951],[95.861806,20.872062],[95.858321,20.872784],[95.857016,20.874958],[95.856455,20.876615],[95.854553,20.876892],[95.855013,20.874302],[95.852919,20.873044],[95.85284,20.873115],[95.850226,20.873833],[95.850087,20.873832],[95.849739,20.873832],[95.847121,20.873363],[95.847465,20.871709],[95.85173,20.871022],[95.851769,20.870988],[95.852354,20.868601],[95.852364,20.868537],[95.850472,20.867739],[95.850429,20.867613],[95.849578,20.865339],[95.849584,20.865309],[95.848963,20.861371],[95.848703,20.861369],[95.845509,20.861129],[95.843711,20.85839],[95.84256,20.857121],[95.83892,20.856958],[95.833872,20.85775],[95.833632,20.858067],[95.833155,20.858702],[95.832796,20.85918],[95.829332,20.860384],[95.829078,20.860711],[95.828729,20.861114],[95.825006,20.86595],[95.824878,20.866462],[95.824709,20.873204],[95.827515,20.876215],[95.832193,20.875568],[95.833607,20.878728],[95.834453,20.881675],[95.839613,20.881393],[95.839708,20.881393],[95.845194,20.880812],[95.846867,20.881003],[95.848687,20.882935],[95.850441,20.884111],[95.851817,20.884602],[95.851764,20.881958],[95.85209,20.880781],[95.853281,20.880679],[95.853388,20.880679],[95.855723,20.88071],[95.856392,20.88305],[95.85639,20.883133],[95.857889,20.887869],[95.857891,20.88806],[95.857892,20.888166],[95.857405,20.891184],[95.854334,20.894028],[95.854106,20.894326],[95.852603,20.898261],[95.849868,20.903007],[95.849792,20.903222],[95.848172,20.906058],[95.848005,20.906279]]]}},{"type":"Feature","properties":{"kind":"image_footprint","obj_type":"Image Footprint","or_src_id":1},"geometry":{"type":"Polygon","coordinates":[[[95.875828,20.877457],[95.875143,20.877782],[95.872583,20.879024],[95.869073,20.878687],[95.86356,20.875752],[95.861796,20.872044],[95.858286,20.872837],[95.856462,20.876625],[95.854578,20.876863],[95.855034,20.874305],[95.852853,20.872996],[95.850295,20.873809],[95.847182,20.873373],[95.847459,20.871707],[95.851762,20.870993],[95.852357,20.868495],[95.850434,20.867682],[95.848986,20.861376],[95.845576,20.861138],[95.842581,20.857133],[95.838874,20.856955],[95.833837,20.857827],[95.832786,20.859215],[95.829296,20.860425],[95.824993,20.865977],[95.824716,20.873254],[95.827551,20.876208],[95.832136,20.87555],[95.83442,20.881641],[95.844921,20.880785],[95.846983,20.881039],[95.848728,20.883006],[95.851806,20.884624],[95.852028,20.880848],[95.855676,20.880753],[95.857866,20.887701],[95.85739,20.891286],[95.854122,20.894332],[95.852631,20.898234],[95.847967,20.90642],[95.84673,20.916413],[95.853932,20.917619],[95.856914,20.910798],[95.859515,20.915493],[95.865226,20.914922],[95.863798,20.90937],[95.866305,20.905246],[95.875961,20.907112],[95.876279,20.907178],[95.880844,20.912017],[95.886527,20.915187],[95.894316,20.913686],[95.900447,20.918316],[95.902576,20.909498],[95.900956,20.89863],[95.901469,20.894576],[95.901888,20.891183],[95.898533,20.888985],[95.900237,20.880337],[95.897865,20.878708],[95.900598,20.874958],[95.900964,20.87033],[95.899111,20.868017],[95.893153,20.86819],[95.886167,20.869449],[95.885925,20.869492],[95.883011,20.867866],[95.881274,20.866648],[95.880956,20.866646],[95.879807,20.868377],[95.879805,20.868513],[95.879756,20.868829],[95.879635,20.871797],[95.876883,20.875258],[95.875828,20.877457]]]}},{"type":"Feature","properties":{"kind":"image_footprint","obj_type":"Image Footprint","or_src_id":2},"geometry":{"type":"Polygon","coordinates":[[[95.819842,20.92322],[95.820712,20.924127],[95.893655,20.925109],[95.907605,20.925393],[95.908407,20.924938],[95.908471,20.923815],[95.906833,20.84327],[95.832259,20.844039],[95.819943,20.844202],[95.819152,20.845177],[95.819842,20.92322]]]}}]}