{"type":"FeatureCollection","features":[{"type":"Feature","properties":{"h":12,"src":"default","b":"train_station","name":"금지역"},"geometry":{"type":"Polygon","coordinates":[[[127.290274,35.328994],[127.290344,35.329362],[127.290169,35.329382],[127.290096,35.329017],[127.290274,35.328994]]]}},{"type":"Feature","properties":{"h":12,"src":"default","b":"school","name":"금지초등학교"},"geometry":{"type":"Polygon","coordinates":[[[127.292926,35.33344],[127.29294,35.333323],[127.294002,35.333444],[127.293972,35.333549],[127.292926,35.33344]]]}},{"type":"Feature","properties":{"h":12,"src":"default","b":"school","name":"금지동초등학교"},"geometry":{"type":"Polygon","coordinates":[[[127.298709,35.356371],[127.299181,35.356837],[127.299292,35.356775],[127.29882,35.356299],[127.298709,35.356371]]]}},{"type":"Feature","properties":{"h":12,"src":"default","b":"school","name":"금지중학교"},"geometry":{"type":"Polygon","coordinates":[[[127.300855,35.349691],[127.30088,35.349594],[127.301931,35.349751],[127.301902,35.349856],[127.300855,35.349691]]]}},{"type":"Feature","properties":{"h":6.5,"src":"default","b":"yes"},"geometry":{"type":"Polygon","coordinates":[[[127.339679,35.364901],[127.339919,35.36483],[127.339858,35.364693],[127.339618,35.364764],[127.339679,35.364901]]]}},{"type":"Feature","properties":{"h":6.5,"src":"default","b":"yes"},"geometry":{"type":"Polygon","coordinates":[[[127.357163,35.369532],[127.357237,35.369512],[127.357103,35.369187],[127.356946,35.36923],[127.35703,35.369436],[127.357082,35.369422],[127.357108,35.369486],[127.357141,35.369477],[127.357163,35.369532]]]}},{"type":"Feature","properties":{"h":6.5,"src":"default","b":"yes"},"geometry":{"type":"Polygon","coordinates":[[[127.357252,35.369711],[127.357355,35.369677],[127.357284,35.369535],[127.357181,35.369569],[127.357252,35.369711]]]}},{"type":"Feature","properties":{"h":6.5,"src":"default","b":"yes"},"geometry":{"type":"Polygon","coordinates":[[[127.356956,35.369077],[127.356936,35.368879],[127.357041,35.368872],[127.357061,35.36907],[127.356956,35.369077]]]}},{"type":"Feature","properties":{"h":6.5,"src":"default","b":"yes"},"geometry":{"type":"Polygon","coordinates":[[[127.356957,35.3684],[127.357213,35.368404],[127.357215,35.368312],[127.356959,35.368308],[127.356957,35.3684]]]}},{"type":"Feature","properties":{"h":6.5,"src":"default","b":"yes"},"geometry":{"type":"Polygon","coordinates":[[[127.356929,35.368713],[127.357049,35.368447],[127.356881,35.368397],[127.356761,35.368663],[127.356929,35.368713]]]}},{"type":"Feature","properties":{"h":6.5,"src":"default","b":"yes"},"geometry":{"type":"Polygon","coordinates":[[[127.357544,35.369822],[127.357637,35.369829],[127.357657,35.369636],[127.357563,35.369629],[127.357544,35.369822]]]}}]}