{"type":"FeatureCollection","features":[{"type":"Feature","properties":{"h":18.2,"src":"default","b":"train_station","a":1612},"geometry":{"type":"Polygon","coordinates":[[[127.3611,35.411086],[127.361373,35.411],[127.36143,35.411124],[127.361461,35.411115],[127.361566,35.411339],[127.361535,35.411349],[127.361587,35.411462],[127.361317,35.411544],[127.361264,35.411431],[127.361226,35.411442],[127.361195,35.411378],[127.361145,35.411275],[127.361118,35.41122],[127.361157,35.411207],[127.361128,35.411145],[127.3611,35.411086]]]}},{"type":"Feature","properties":{"h":9.6,"src":"default","b":"yes","a":1132},"geometry":{"type":"Polygon","coordinates":[[[127.360501,35.41101],[127.360863,35.410893],[127.360831,35.410827],[127.360942,35.410794],[127.361082,35.411091],[127.3611,35.411086],[127.361128,35.411145],[127.361048,35.41117],[127.361102,35.411288],[127.361145,35.411275],[127.361195,35.411378],[127.361048,35.411423],[127.360828,35.410958],[127.360522,35.411057],[127.360501,35.41101]]]}},{"type":"Feature","properties":{"h":16.8,"src":"default","b":"train_station","a":622,"name":"산성역"},"geometry":{"type":"Polygon","coordinates":[[[127.362435,35.440605],[127.362739,35.440289],[127.362779,35.440317],[127.362683,35.440421],[127.362767,35.440479],[127.362733,35.440514],[127.36277,35.44054],[127.362599,35.440712],[127.362435,35.440605]]]}},{"type":"Feature","properties":{"h":10.1,"src":"default","b":"yes","a":2032,"name":"켄싱턴 리조트 남원"},"geometry":{"type":"Polygon","coordinates":[[[127.38439,35.401964],[127.384882,35.402221],[127.384934,35.402155],[127.385189,35.402288],[127.385338,35.4021],[127.384913,35.401878],[127.38484,35.40197],[127.384518,35.401802],[127.38439,35.401964]]]}},{"type":"Feature","properties":{"h":8.9,"src":"default","b":"yes","a":488,"name":"동막골"},"geometry":{"type":"Polygon","coordinates":[[[127.387443,35.407303],[127.38748,35.4074],[127.387721,35.407579],[127.387803,35.40759],[127.387852,35.40755],[127.387492,35.407253],[127.387443,35.407303]]]}},{"type":"Feature","properties":{"h":10.1,"src":"default","b":"yes","a":2047,"name":"KBS남원문화센터"},"geometry":{"type":"Polygon","coordinates":[[[127.385318,35.422069],[127.385364,35.42198],[127.385406,35.421954],[127.385734,35.422067],[127.385817,35.422096],[127.385852,35.422064],[127.385829,35.42194],[127.385855,35.421923],[127.385892,35.421929],[127.385915,35.421954],[127.386002,35.421957],[127.386098,35.421984],[127.386203,35.422039],[127.386228,35.422064],[127.386266,35.422068],[127.386284,35.422082],[127.386286,35.422098],[127.386265,35.422121],[127.386228,35.422134],[127.386214,35.422157],[127.386154,35.422174],[127.386137,35.422205],[127.386165,35.422215],[127.386091,35.422358],[127.385356,35.422106],[127.385367,35.422086],[127.385318,35.422069]]]}},{"type":"Feature","properties":{"h":12.2,"src":"default","b":"yes","a":32816},"geometry":{"type":"Polygon","coordinates":[[[127.381727,35.38615],[127.384103,35.386938],[127.384692,35.385756],[127.382316,35.384969],[127.381727,35.38615]]]}},{"type":"Feature","properties":{"h":35.2,"src":"default","b":"apartments","a":1052},"geometry":{"type":"Polygon","coordinates":[[[127.385364,35.413673],[127.385744,35.413669],[127.385866,35.413592],[127.385858,35.413128],[127.385727,35.413129],[127.385734,35.413565],[127.385362,35.413569],[127.385364,35.413673]]]}},{"type":"Feature","properties":{"h":35.1,"src":"default","b":"apartments","a":1034},"geometry":{"type":"Polygon","coordinates":[[[127.384701,35.413175],[127.385118,35.413164],[127.385193,35.413143],[127.385577,35.413133],[127.385573,35.413013],[127.385114,35.413025],[127.385115,35.413051],[127.384697,35.413062],[127.384701,35.413175]]]}},{"type":"Feature","properties":{"h":33.1,"src":"default","b":"apartments","a":514},"geometry":{"type":"Polygon","coordinates":[[[127.385694,35.413005],[127.385839,35.413004],[127.385837,35.412649],[127.385693,35.41265],[127.385694,35.413005]]]}},{"type":"Feature","properties":{"h":35.4,"src":"default","b":"apartments","a":1131},"geometry":{"type":"Polygon","coordinates":[[[127.384646,35.412703],[127.384937,35.412698],[127.384978,35.412675],[127.385553,35.412665],[127.38555,35.412537],[127.384939,35.412549],[127.38494,35.412581],[127.384642,35.412587],[127.384646,35.412703]]]}},{"type":"Feature","properties":{"h":9,"src":"default","b":"yes","a":558,"name":"(폐쇄)서남대학교남원병원"},"geometry":{"type":"Polygon","coordinates":[[[127.385009,35.413787],[127.385154,35.413785],[127.385148,35.4134],[127.385004,35.413402],[127.385009,35.413787]]]}},{"type":"Feature","properties":{"h":9.6,"src":"default","b":"yes","a":1186,"name":"남원공용버스터미널"},"geometry":{"type":"Polygon","coordinates":[[[127.388027,35.409875],[127.388038,35.409861],[127.38801,35.409787],[127.387603,35.409582],[127.387705,35.409448],[127.388285,35.40974],[127.38814,35.409931],[127.388027,35.409875]]]}},{"type":"Feature","properties":{"h":9.4,"src":"default","b":"yes","a":924,"name":"남원고속버스터미널"},"geometry":{"type":"Polygon","coordinates":[[[127.394063,35.421728],[127.394328,35.421458],[127.394535,35.421594],[127.394272,35.421861],[127.394186,35.421804],[127.39417,35.421821],[127.394137,35.4218],[127.394151,35.421786],[127.394063,35.421728]]]}},{"type":"Feature","properties":{"h":9.4,"src":"default","b":"yes","a":926,"name":"구.남원역"},"geometry":{"type":"Polygon","coordinates":[[[127.381965,35.413278],[127.382058,35.413186],[127.382224,35.413296],[127.382251,35.41327],[127.382416,35.41338],[127.382385,35.413411],[127.382589,35.413547],[127.382504,35.413631],[127.382303,35.413497],[127.382281,35.413519],[127.382113,35.413408],[127.382132,35.413389],[127.381965,35.413278]]]}},{"type":"Feature","properties":{"h":10.7,"src":"default","b":"yes","a":4644,"name":"국립민속국악원"},"geometry":{"type":"Polygon","coordinates":[[[127.390945,35.401754],[127.391159,35.401728],[127.391163,35.401749],[127.391315,35.401731],[127.39131,35.401706],[127.391364,35.401699],[127.391369,35.401724],[127.391597,35.401696],[127.391613,35.401784],[127.391573,35.401789],[127.391608,35.401981],[127.391673,35.401973],[127.391698,35.402108],[127.391637,35.402116],[127.391672,35.402306],[127.391693,35.402303],[127.391711,35.402402],[127.391599,35.402416],[127.391594,35.402388],[127.391539,35.402395],[127.391552,35.402466],[127.391413,35.402483],[127.391399,35.402409],[127.391329,35.402418],[127.391333,35.402438],[127.391236,35.40245],[127.39124,35.402472],[127.39108,35.402491],[127.390945,35.401754]]]}},{"type":"Feature","properties":{"h":26.5,"src":"default","b":"hospital","a":5050},"geometry":{"type":"Polygon","coordinates":[[[127.406648,35.43204],[127.40665,35.431872],[127.406746,35.431873],[127.406747,35.431807],[127.406643,35.431806],[127.406646,35.431633],[127.407049,35.431638],[127.407047,35.431785],[127.407201,35.431787],[127.407203,35.431645],[127.407699,35.43165],[127.407697,35.431809],[127.407774,35.431821],[127.407923,35.43182],[127.40792,35.43205],[127.407765,35.432048],[127.407763,35.432127],[127.407213,35.432121],[127.407214,35.43204],[127.407048,35.432038],[127.407047,35.432111],[127.406802,35.432108],[127.406803,35.432042],[127.406648,35.43204]]]}},{"type":"Feature","properties":{"h":8,"src":"default","b":"yes","a":152},"geometry":{"type":"Polygon","coordinates":[[[127.383256,35.404849],[127.383377,35.404847],[127.383381,35.40473],[127.383241,35.40473],[127.383243,35.404778],[127.383256,35.404779],[127.383256,35.404849]]]}},{"type":"Feature","properties":{"h":10.5,"src":"default","b":"yes","a":3481,"name":"남원시청"},"geometry":{"type":"Polygon","coordinates":[[[127.389964,35.416018],[127.390172,35.416139],[127.390226,35.416081],[127.390436,35.416201],[127.390512,35.416116],[127.390624,35.41618],[127.390554,35.416269],[127.390733,35.416371],[127.390673,35.416444],[127.390899,35.416578],[127.390745,35.416767],[127.390388,35.416559],[127.390417,35.416523],[127.39018,35.416391],[127.390123,35.416459],[127.389753,35.416253],[127.389964,35.416018]]]}},{"type":"Feature","properties":{"h":9.1,"src":"default","b":"yes","a":627},"geometry":{"type":"Polygon","coordinates":[[[127.390314,35.41677],[127.39061,35.416944],[127.390705,35.416931],[127.390798,35.416836],[127.390776,35.416823],[127.390943,35.416627],[127.390912,35.416609],[127.390742,35.416802],[127.39066,35.416756],[127.390622,35.416798],[127.390596,35.416818],[127.390384,35.416695],[127.390314,35.41677]]]}},{"type":"Feature","properties":{"h":7.3,"src":"default","b":"yes","a":65},"geometry":{"type":"Polygon","coordinates":[[[127.390042,35.415665],[127.390101,35.415699],[127.390168,35.415628],[127.390108,35.415594],[127.390042,35.415665]]]}},{"type":"Feature","properties":{"h":32.6,"src":"default","b":"apartments","a":439,"name":"5"},"geometry":{"type":"Polygon","coordinates":[[[127.369233,35.412146],[127.369371,35.412146],[127.369371,35.411829],[127.369233,35.411829],[127.369233,35.412146]]]}},{"type":"Feature","properties":{"h":36.3,"src":"default","b":"apartments","a":1533,"name":"1"},"geometry":{"type":"Polygon","coordinates":[[[127.369253,35.411224],[127.369254,35.411298],[127.369366,35.411298],[127.369366,35.411386],[127.37002,35.411383],[127.370018,35.411212],[127.369421,35.411215],[127.369421,35.411144],[127.369318,35.411144],[127.369317,35.411043],[127.369178,35.411043],[127.369179,35.411225],[127.369253,35.411224]]]}},{"type":"Feature","properties":{"h":36.4,"src":"default","b":"apartments","a":1583,"name":"2"},"geometry":{"type":"Polygon","coordinates":[[[127.369316,35.41166],[127.370223,35.411655],[127.370222,35.411481],[127.369315,35.411486],[127.369316,35.41166]]]}},{"type":"Feature","properties":{"h":35.2,"src":"default","b":"apartments","a":1051,"name":"3"},"geometry":{"type":"Polygon","coordinates":[[[127.369522,35.411966],[127.370142,35.411963],[127.370141,35.411794],[127.369521,35.411797],[127.369522,35.411966]]]}},{"type":"Feature","properties":{"h":9,"src":"default","b":"yes","a":557},"geometry":{"type":"Polygon","coordinates":[[[127.387496,35.401305],[127.387528,35.401442],[127.387919,35.401383],[127.387888,35.401246],[127.387496,35.401305]]]}},{"type":"Feature","properties":{"h":8,"src":"default","b":"yes","a":152},"geometry":{"type":"Polygon","coordinates":[[[127.388931,35.401738],[127.389004,35.401863],[127.389103,35.401824],[127.389031,35.4017],[127.388931,35.401738]]]}},{"type":"Feature","properties":{"h":8,"src":"default","b":"yes","a":144},"geometry":{"type":"Polygon","coordinates":[[[127.389165,35.401893],[127.389017,35.401961],[127.389068,35.402034],[127.389216,35.401967],[127.389165,35.401893]]]}},{"type":"Feature","properties":{"h":8.2,"src":"default","b":"yes","a":199},"geometry":{"type":"Polygon","coordinates":[[[127.389208,35.401718],[127.389121,35.401758],[127.389239,35.401932],[127.389326,35.401893],[127.389208,35.401718]]]}},{"type":"Feature","properties":{"h":8.7,"src":"default","b":"yes","a":378},"geometry":{"type":"Polygon","coordinates":[[[127.38932,35.401699],[127.389342,35.401805],[127.389688,35.401759],[127.389666,35.401653],[127.38932,35.401699]]]}},{"type":"Feature","properties":{"h":8.2,"src":"default","b":"yes","a":187},"geometry":{"type":"Polygon","coordinates":[[[127.389154,35.401207],[127.389184,35.401353],[127.389308,35.401336],[127.389279,35.40119],[127.389154,35.401207]]]}},{"type":"Feature","properties":{"h":10.1,"src":"default","b":"yes","a":2098,"name":"춘향문화예술회관"},"geometry":{"type":"Polygon","coordinates":[[[127.389873,35.402499],[127.390352,35.402438],[127.390361,35.402488],[127.390533,35.402466],[127.390523,35.402416],[127.390578,35.402409],[127.390525,35.402132],[127.38982,35.402221],[127.389873,35.402499]]]}},{"type":"Feature","properties":{"h":8.8,"src":"default","b":"yes","a":426},"geometry":{"type":"Polygon","coordinates":[[[127.389674,35.402052],[127.389634,35.402057],[127.389649,35.402137],[127.390057,35.402087],[127.390042,35.402007],[127.389904,35.402024],[127.389897,35.401985],[127.389666,35.402014],[127.389674,35.402052]]]}},{"type":"Feature","properties":{"h":9.2,"src":"default","b":"yes","a":677},"geometry":{"type":"Polygon","coordinates":[[[127.388846,35.402171],[127.388751,35.402037],[127.388373,35.402214],[127.388468,35.402348],[127.388846,35.402171]]]}},{"type":"Feature","properties":{"h":7.9,"src":"default","b":"yes","a":137},"geometry":{"type":"Polygon","coordinates":[[[127.392283,35.40313],[127.39228,35.403195],[127.392366,35.403229],[127.392365,35.403201],[127.392406,35.40318],[127.392452,35.403186],[127.39244,35.403117],[127.392358,35.403088],[127.392353,35.403122],[127.39231,35.403142],[127.392283,35.40313]]]}},{"type":"Feature","properties":{"h":7.3,"src":"default","b":"yes","a":61},"geometry":{"type":"Polygon","coordinates":[[[127.382155,35.411159],[127.382272,35.411154],[127.382268,35.411102],[127.382151,35.411107],[127.382155,35.411159]]]}},{"type":"Feature","properties":{"h":7.4,"src":"default","b":"yes","a":76},"geometry":{"type":"Polygon","coordinates":[[[127.381913,35.411026],[127.382056,35.411016],[127.38205,35.410964],[127.381908,35.410973],[127.381913,35.411026]]]}},{"type":"Feature","properties":{"h":8.4,"src":"default","b":"yes","a":266},"geometry":{"type":"Polygon","coordinates":[[[127.381625,35.410589],[127.381983,35.410582],[127.381981,35.410508],[127.381623,35.410515],[127.381625,35.410589]]]}},{"type":"Feature","properties":{"h":9.7,"src":"default","b":"yes","a":1359},"geometry":{"type":"Polygon","coordinates":[[[127.382324,35.410945],[127.382599,35.410942],[127.382596,35.410734],[127.382592,35.410509],[127.382244,35.410513],[127.382248,35.410738],[127.382321,35.410737],[127.382324,35.410945]]]}},{"type":"Feature","properties":{"h":8.6,"src":"default","b":"yes","a":344},"geometry":{"type":"Polygon","coordinates":[[[127.38219,35.410452],[127.382547,35.410441],[127.382542,35.410345],[127.382185,35.410356],[127.38219,35.410452]]]}},{"type":"Feature","properties":{"h":9.2,"src":"default","b":"yes","a":716},"geometry":{"type":"Polygon","coordinates":[[[127.381577,35.410311],[127.382119,35.410294],[127.382112,35.410162],[127.38157,35.41018],[127.381577,35.410311]]]}},{"type":"Feature","properties":{"h":9.7,"src":"default","b":"yes","a":1246},"geometry":{"type":"Polygon","coordinates":[[[127.381661,35.40968],[127.381653,35.409511],[127.381462,35.409517],[127.38147,35.409687],[127.381423,35.409688],[127.381434,35.409916],[127.381483,35.409914],[127.381485,35.409956],[127.381444,35.409957],[127.381447,35.410043],[127.381607,35.410038],[127.381606,35.41002],[127.381674,35.410018],[127.381669,35.409914],[127.381721,35.409912],[127.38171,35.409678],[127.381661,35.40968]]]}},{"type":"Feature","properties":{"h":8.7,"src":"default","b":"yes","a":373,"name":"광한루"},"geometry":{"type":"Polygon","coordinates":[[[127.379662,35.404017],[127.379873,35.403996],[127.379864,35.403932],[127.379965,35.403922],[127.379954,35.403848],[127.379641,35.403879],[127.379662,35.404017]]]}},{"type":"Feature","properties":{"h":8.1,"src":"default","b":"yes","a":164,"name":"완월정"},"geometry":{"type":"Polygon","coordinates":[[[127.379518,35.403008],[127.379606,35.403004],[127.379603,35.402956],[127.379635,35.402955],[127.379631,35.402888],[127.379598,35.402889],[127.379595,35.402844],[127.379507,35.402848],[127.379518,35.403008]]]}},{"type":"Feature","properties":{"h":3.3,"src":"levels","b":"yes","a":141,"name":"부용정"},"geometry":{"type":"Polygon","coordinates":[[[127.379177,35.404788],[127.379327,35.404781],[127.379326,35.404732],[127.379324,35.404687],[127.379175,35.404694],[127.379176,35.404727],[127.379177,35.404788]]]}},{"type":"Feature","properties":{"h":8.4,"src":"default","b":"yes","a":238,"name":"Front"},"geometry":{"type":"Polygon","coordinates":[[[127.379541,35.404784],[127.37969,35.404779],[127.379682,35.404593],[127.379587,35.404591],[127.37959,35.40468],[127.379532,35.40468],[127.379541,35.404784]]]}},{"type":"Feature","properties":{"h":13.5,"src":"default","b":"construction","a":1382},"geometry":{"type":"Polygon","coordinates":[[[127.380511,35.404952],[127.380516,35.404463],[127.380798,35.404465],[127.380793,35.404953],[127.380511,35.404952]]]}},{"type":"Feature","properties":{"h":8.2,"src":"default","b":"yes","a":193,"name":"광한루원 관리사무소"},"geometry":{"type":"Polygon","coordinates":[[[127.379847,35.402199],[127.380008,35.402282],[127.380075,35.402197],[127.379911,35.402114],[127.379886,35.402147],[127.379847,35.402199]]]}},{"type":"Feature","properties":{"h":34.7,"src":"default","b":"apartments","a":904},"geometry":{"type":"Polygon","coordinates":[[[127.393659,35.415862],[127.39367,35.415771],[127.393825,35.415784],[127.393828,35.415759],[127.394458,35.41581],[127.394454,35.415844],[127.394619,35.415858],[127.394609,35.415941],[127.394312,35.415917],[127.394316,35.415883],[127.393945,35.415854],[127.393941,35.415885],[127.393659,35.415862]]]}},{"type":"Feature","properties":{"h":9.1,"src":"default","b":"yes","a":646},"geometry":{"type":"Polygon","coordinates":[[[127.395014,35.416227],[127.39491,35.41621],[127.394719,35.416005],[127.394883,35.415903],[127.395123,35.416159],[127.395014,35.416227]]]}},{"type":"Feature","properties":{"h":34,"src":"default","b":"apartments","a":711},"geometry":{"type":"Polygon","coordinates":[[[127.393508,35.41631],[127.39352,35.416228],[127.394302,35.416298],[127.39429,35.416384],[127.393945,35.416353],[127.39394,35.416387],[127.393823,35.416377],[127.393828,35.416339],[127.393508,35.41631]]]}},{"type":"Feature","properties":{"h":34,"src":"default","b":"apartments","a":705},"geometry":{"type":"Polygon","coordinates":[[[127.394371,35.41638],[127.394382,35.416299],[127.395164,35.416369],[127.395152,35.416455],[127.394807,35.416423],[127.394803,35.416458],[127.394685,35.416447],[127.39469,35.416409],[127.394371,35.41638]]]}},{"type":"Feature","properties":{"h":31.7,"src":"default","b":"apartments","a":313},"geometry":{"type":"Polygon","coordinates":[[[127.393229,35.416631],[127.39327,35.416357],[127.393387,35.416368],[127.393351,35.416618],[127.39329,35.416612],[127.393287,35.416637],[127.393229,35.416631]]]}},{"type":"Feature","properties":{"h":31.7,"src":"default","b":"apartments","a":314},"geometry":{"type":"Polygon","coordinates":[[[127.393389,35.416177],[127.39343,35.415902],[127.393548,35.415914],[127.393511,35.416163],[127.39345,35.416157],[127.393447,35.416182],[127.393389,35.416177]]]}},{"type":"Feature","properties":{"h":34.6,"src":"default","b":"apartments","a":847},"geometry":{"type":"Polygon","coordinates":[[[127.393296,35.416784],[127.393302,35.416736],[127.393335,35.416739],[127.393341,35.41669],[127.394186,35.416765],[127.394173,35.416862],[127.393296,35.416784]]]}},{"type":"Feature","properties":{"h":34.9,"src":"default","b":"apartments","a":952},"geometry":{"type":"Polygon","coordinates":[[[127.394235,35.416866],[127.394248,35.416777],[127.395301,35.416873],[127.395288,35.416962],[127.394235,35.416866]]]}},{"type":"Feature","properties":{"h":7.9,"src":"default","b":"yes","a":135},"geometry":{"type":"Polygon","coordinates":[[[127.395377,35.416662],[127.395397,35.416517],[127.395489,35.416526],[127.395469,35.41667],[127.395377,35.416662]]]}},{"type":"Feature","properties":{"h":8.3,"src":"default","b":"yes","a":226},"geometry":{"type":"Polygon","coordinates":[[[127.394388,35.415677],[127.394402,35.415547],[127.394574,35.415559],[127.39456,35.415689],[127.394388,35.415677]]]}},{"type":"Feature","properties":{"h":7.9,"src":"default","b":"yes","a":141},"geometry":{"type":"Polygon","coordinates":[[[127.393202,35.416254],[127.393221,35.416104],[127.393314,35.416112],[127.393295,35.416261],[127.393202,35.416254]]]}},{"type":"Feature","properties":{"h":34.4,"src":"default","b":"apartments","a":812},"geometry":{"type":"Polygon","coordinates":[[[127.393453,35.417309],[127.393466,35.417221],[127.394037,35.417278],[127.393986,35.417619],[127.393869,35.417607],[127.393907,35.417354],[127.393453,35.417309]]]}},{"type":"Feature","properties":{"h":34.1,"src":"default","b":"apartments","a":733},"geometry":{"type":"Polygon","coordinates":[[[127.394596,35.417515],[127.394616,35.417365],[127.394195,35.417328],[127.394209,35.417221],[127.39465,35.417259],[127.394641,35.417329],[127.394757,35.417339],[127.394733,35.417527],[127.394596,35.417515]]]}},{"type":"Feature","properties":{"h":33.3,"src":"default","b":"apartments","a":549},"geometry":{"type":"Polygon","coordinates":[[[127.393989,35.417789],[127.394,35.417702],[127.394407,35.417736],[127.394397,35.417816],[127.394454,35.41782],[127.394434,35.417981],[127.394313,35.417971],[127.394333,35.417817],[127.393989,35.417789]]]}},{"type":"Feature","properties":{"h":32.1,"src":"default","b":"apartments","a":363},"geometry":{"type":"Polygon","coordinates":[[[127.394403,35.418227],[127.39427,35.418104],[127.394356,35.418042],[127.39449,35.418167],[127.394538,35.418133],[127.394671,35.418256],[127.394592,35.418313],[127.394457,35.418188],[127.394403,35.418227]]]}},{"type":"Feature","properties":{"h":9.7,"src":"default","b":"yes","a":1288},"geometry":{"type":"Polygon","coordinates":[[[127.395016,35.417487],[127.395073,35.417327],[127.395814,35.417501],[127.395757,35.417661],[127.395016,35.417487]]]}},{"type":"Feature","properties":{"h":8.9,"src":"default","b":"yes","a":497},"geometry":{"type":"Polygon","coordinates":[[[127.395996,35.417463],[127.395904,35.41743],[127.395905,35.417401],[127.395807,35.417388],[127.395765,35.417351],[127.395674,35.417342],[127.395691,35.417231],[127.39601,35.417251],[127.395993,35.417405],[127.396017,35.417412],[127.395996,35.417463]]]}},{"type":"Feature","properties":{"h":7.9,"src":"default","b":"yes","a":136},"geometry":{"type":"Polygon","coordinates":[[[127.396256,35.417961],[127.396178,35.417906],[127.396284,35.417807],[127.396362,35.417862],[127.396256,35.417961]]]}},{"type":"Feature","properties":{"h":32.6,"src":"default","b":"apartments","a":426},"geometry":{"type":"Polygon","coordinates":[[[127.396188,35.418141],[127.395834,35.417876],[127.395907,35.417811],[127.396262,35.418076],[127.396188,35.418141]]]}},{"type":"Feature","properties":{"h":32.5,"src":"default","b":"apartments","a":425},"geometry":{"type":"Polygon","coordinates":[[[127.395574,35.418121],[127.39562,35.418042],[127.396059,35.418214],[127.396013,35.418292],[127.395574,35.418121]]]}},{"type":"Feature","properties":{"h":32.8,"src":"default","b":"apartments","a":457},"geometry":{"type":"Polygon","coordinates":[[[127.395368,35.418307],[127.395417,35.418228],[127.395876,35.418417],[127.395827,35.418496],[127.395368,35.418307]]]}},{"type":"Feature","properties":{"h":33,"src":"default","b":"apartments","a":494},"geometry":{"type":"Polygon","coordinates":[[[127.395144,35.418489],[127.395197,35.418403],[127.395656,35.418589],[127.395604,35.418675],[127.395144,35.418489]]]}},{"type":"Feature","properties":{"h":32.8,"src":"default","b":"apartments","a":466},"geometry":{"type":"Polygon","coordinates":[[[127.394933,35.418677],[127.394982,35.418597],[127.395447,35.418787],[127.395398,35.418867],[127.394933,35.418677]]]}},{"type":"Feature","properties":{"h":7.6,"src":"default","b":"yes","a":86},"geometry":{"type":"Polygon","coordinates":[[[127.39542,35.418869],[127.39546,35.418804],[127.395566,35.418847],[127.395526,35.418912],[127.39542,35.418869]]]}},{"type":"Feature","properties":{"h":32.9,"src":"default","b":"apartments","a":488},"geometry":{"type":"Polygon","coordinates":[[[127.395543,35.418925],[127.395594,35.418842],[127.396057,35.419036],[127.395996,35.419118],[127.395543,35.418925]]]}},{"type":"Feature","properties":{"h":32.8,"src":"default","b":"apartments","a":460},"geometry":{"type":"Polygon","coordinates":[[[127.395734,35.418719],[127.395786,35.41864],[127.396239,35.418838],[127.396187,35.418916],[127.395734,35.418719]]]}},{"type":"Feature","properties":{"h":32.7,"src":"default","b":"apartments","a":455},"geometry":{"type":"Polygon","coordinates":[[[127.39595,35.418524],[127.396002,35.418446],[127.396452,35.418644],[127.3964,35.418722],[127.39595,35.418524]]]}},{"type":"Feature","properties":{"h":32.4,"src":"default","b":"apartments","a":412},"geometry":{"type":"Polygon","coordinates":[[[127.396319,35.418143],[127.396389,35.418082],[127.396747,35.418358],[127.396676,35.418418],[127.396319,35.418143]]]}},{"type":"Feature","properties":{"h":32.6,"src":"default","b":"apartments","a":441},"geometry":{"type":"Polygon","coordinates":[[[127.396526,35.417928],[127.396594,35.417863],[127.396833,35.418031],[127.396811,35.418053],[127.396936,35.418141],[127.396858,35.418215],[127.396719,35.418117],[127.396751,35.418087],[127.396526,35.417928]]]}},{"type":"Feature","properties":{"h":8.9,"src":"default","b":"yes","a":475},"geometry":{"type":"Polygon","coordinates":[[[127.396447,35.417812],[127.396356,35.417742],[127.396417,35.417689],[127.396197,35.41752],[127.396277,35.41745],[127.396527,35.417642],[127.396535,35.417736],[127.396447,35.417812]]]}},{"type":"Feature","properties":{"h":16.8,"src":"default","b":"school","a":626},"geometry":{"type":"Polygon","coordinates":[[[127.389558,35.412837],[127.389549,35.412717],[127.390069,35.412691],[127.390078,35.41281],[127.389558,35.412837]]]}},{"type":"Feature","properties":{"h":17.6,"src":"default","b":"school","a":1033},"geometry":{"type":"Polygon","coordinates":[[[127.390217,35.412473],[127.390258,35.412105],[127.390535,35.412126],[127.390495,35.412494],[127.390217,35.412473]]]}},{"type":"Feature","properties":{"h":15.7,"src":"default","b":"school","a":287},"geometry":{"type":"Polygon","coordinates":[[[127.390207,35.412762],[127.390196,35.412637],[127.390423,35.412623],[127.390435,35.412748],[127.390207,35.412762]]]}},{"type":"Feature","properties":{"h":18,"src":"default","b":"school","a":1348},"geometry":{"type":"Polygon","coordinates":[[[127.389036,35.413347],[127.389029,35.41326],[127.39044,35.413186],[127.390447,35.413281],[127.389699,35.41332],[127.389704,35.413388],[127.389636,35.413392],[127.38963,35.413316],[127.389036,35.413347]]]}},{"type":"Feature","properties":{"h":17.5,"src":"default","b":"school","a":966},"geometry":{"type":"Polygon","coordinates":[[[127.389064,35.413138],[127.389053,35.413041],[127.389381,35.413016],[127.389484,35.412979],[127.389532,35.412925],[127.389532,35.412857],[127.389645,35.412857],[127.389646,35.412965],[127.389684,35.412965],[127.389754,35.412999],[127.389764,35.41307],[127.389721,35.413131],[127.389632,35.413137],[127.389552,35.413093],[127.389535,35.413102],[127.389064,35.413138]]]}},{"type":"Feature","properties":{"h":16.9,"src":"default","b":"school","a":662},"geometry":{"type":"Polygon","coordinates":[[[127.389823,35.413073],[127.389815,35.412952],[127.390328,35.412928],[127.390337,35.413046],[127.390187,35.413053],[127.390188,35.413076],[127.389983,35.413085],[127.389982,35.413066],[127.389823,35.413073]]]}},{"type":"Feature","properties":{"h":15.6,"src":"default","b":"public","a":275,"name":"동충동 행정복지센터"},"geometry":{"type":"Polygon","coordinates":[[[127.382788,35.410944],[127.382785,35.410723],[127.382909,35.410722],[127.382912,35.410943],[127.382788,35.410944]]]}},{"type":"Feature","properties":{"h":8.9,"src":"default","b":"yes","a":449},"geometry":{"type":"Polygon","coordinates":[[[127.378631,35.404171],[127.37862,35.404097],[127.378521,35.404106],[127.378505,35.403998],[127.378827,35.403966],[127.378842,35.40407],[127.378748,35.404079],[127.37876,35.404159],[127.378631,35.404171]]]}},{"type":"Feature","properties":{"h":7.6,"src":"default","b":"yes","a":96,"name":"영주각"},"geometry":{"type":"Polygon","coordinates":[[[127.380084,35.403426],[127.380062,35.403345],[127.380175,35.403324],[127.380197,35.403405],[127.380084,35.403426]]]}},{"type":"Feature","properties":{"h":7.9,"src":"default","b":"yes","a":140},"geometry":{"type":"Polygon","coordinates":[[[127.379823,35.402159],[127.379665,35.402084],[127.379713,35.402018],[127.37987,35.402093],[127.379823,35.402159]]]}},{"type":"Feature","properties":{"h":7.7,"src":"default","b":"yes","a":107},"geometry":{"type":"Polygon","coordinates":[[[127.378957,35.40201],[127.37897,35.401886],[127.379055,35.401892],[127.379042,35.402016],[127.378957,35.40201]]]}},{"type":"Feature","properties":{"h":7.7,"src":"default","b":"yes","a":99},"geometry":{"type":"Polygon","coordinates":[[[127.37867,35.401947],[127.378671,35.401894],[127.378859,35.401896],[127.378858,35.401948],[127.37867,35.401947]]]}},{"type":"Feature","properties":{"h":7.2,"src":"default","b":"yes","a":55},"geometry":{"type":"Polygon","coordinates":[[[127.378421,35.402604],[127.378424,35.402524],[127.378493,35.402526],[127.378489,35.402606],[127.378421,35.402604]]]}},{"type":"Feature","properties":{"h":8,"src":"default","b":"yes","a":144},"geometry":{"type":"Polygon","coordinates":[[[127.378458,35.402476],[127.378463,35.402337],[127.378566,35.402339],[127.378561,35.402479],[127.378458,35.402476]]]}},{"type":"Feature","properties":{"h":7.5,"src":"default","b":"yes","a":84},"geometry":{"type":"Polygon","coordinates":[[[127.378731,35.402478],[127.378738,35.402366],[127.378813,35.402369],[127.378806,35.402481],[127.378731,35.402478]]]}},{"type":"Feature","properties":{"h":6.7,"src":"default","b":"yes","a":29},"geometry":{"type":"Polygon","coordinates":[[[127.379538,35.403594],[127.379518,35.403567],[127.379541,35.403541],[127.379574,35.403541],[127.379595,35.403569],[127.37957,35.403595],[127.379538,35.403594]]]}},{"type":"Feature","properties":{"h":7.1,"src":"default","b":"yes","a":52,"name":"춘향사당"},"geometry":{"type":"Polygon","coordinates":[[[127.380475,35.404146],[127.38047,35.404088],[127.380558,35.404083],[127.380562,35.404142],[127.380475,35.404146]]]}},{"type":"Feature","properties":{"h":7.4,"src":"default","b":"yes","a":74},"geometry":{"type":"Polygon","coordinates":[[[127.38071,35.402808],[127.380707,35.402707],[127.380779,35.402705],[127.380783,35.402806],[127.38071,35.402808]]]}},{"type":"Feature","properties":{"h":7.6,"src":"default","b":"yes","a":95},"geometry":{"type":"Polygon","coordinates":[[[127.38035,35.402459],[127.380299,35.402432],[127.380251,35.402406],[127.380305,35.402339],[127.380354,35.402366],[127.380403,35.402392],[127.38035,35.402459]]]}},{"type":"Feature","properties":{"h":8.6,"src":"default","b":"yes","a":308},"geometry":{"type":"Polygon","coordinates":[[[127.378104,35.403757],[127.378229,35.403756],[127.378233,35.404001],[127.378107,35.404002],[127.378104,35.403757]]]}},{"type":"Feature","properties":{"h":17.7,"src":"default","b":"school","a":1167},"geometry":{"type":"Polygon","coordinates":[[[127.381316,35.408723],[127.381302,35.40829],[127.38157,35.408284],[127.381585,35.408717],[127.381316,35.408723]]]}},{"type":"Feature","properties":{"h":18.1,"src":"default","b":"school","a":1504},"geometry":{"type":"Polygon","coordinates":[[[127.380644,35.408906],[127.380641,35.408813],[127.381667,35.408789],[127.381673,35.40897],[127.381557,35.408973],[127.381555,35.408903],[127.381547,35.408903],[127.381549,35.408966],[127.381452,35.408968],[127.381449,35.408896],[127.381381,35.408898],[127.381384,35.408965],[127.381337,35.408966],[127.38133,35.408977],[127.381133,35.408981],[127.381131,35.408941],[127.381068,35.408943],[127.381066,35.408899],[127.380883,35.408904],[127.380886,35.409007],[127.380785,35.409009],[127.380781,35.408903],[127.380644,35.408906]]]}},{"type":"Feature","properties":{"h":8.8,"src":"default","b":"yes","a":413},"geometry":{"type":"Polygon","coordinates":[[[127.381214,35.409396],[127.38121,35.409202],[127.381422,35.409199],[127.381426,35.409393],[127.381214,35.409396]]]}},{"type":"Feature","properties":{"h":19.6,"src":"default","b":"school","a":4022},"geometry":{"type":"Polygon","coordinates":[[[127.395379,35.413693],[127.39506,35.413433],[127.394642,35.413774],[127.394533,35.413685],[127.394555,35.413667],[127.394204,35.413382],[127.394103,35.413465],[127.394205,35.413547],[127.394173,35.413573],[127.394279,35.413659],[127.394311,35.413632],[127.39434,35.413656],[127.394259,35.413723],[127.394481,35.413902],[127.394382,35.413984],[127.394439,35.414029],[127.394463,35.414009],[127.394583,35.414107],[127.394547,35.414136],[127.394666,35.414232],[127.394698,35.414205],[127.394797,35.414286],[127.3949,35.414201],[127.394844,35.414156],[127.394872,35.414133],[127.394656,35.413958],[127.394745,35.413885],[127.394779,35.413912],[127.394801,35.413894],[127.395046,35.414093],[127.395148,35.41401],[127.394851,35.413768],[127.394976,35.413665],[127.395195,35.413843],[127.395379,35.413693]]]}},{"type":"Feature","properties":{"h":8.6,"src":"default","b":"yes","a":309},"geometry":{"type":"Polygon","coordinates":[[[127.3781,35.403492],[127.378225,35.40349],[127.378229,35.403736],[127.378103,35.403737],[127.3781,35.403492]]]}},{"type":"Feature","properties":{"h":8.6,"src":"default","b":"yes","a":308},"geometry":{"type":"Polygon","coordinates":[[[127.378091,35.40323],[127.378217,35.403229],[127.37822,35.403474],[127.378095,35.403475],[127.378091,35.40323]]]}},{"type":"Feature","properties":{"h":8.6,"src":"default","b":"yes","a":308},"geometry":{"type":"Polygon","coordinates":[[[127.378078,35.402753],[127.378203,35.402752],[127.378207,35.402997],[127.378082,35.402999],[127.378078,35.402753]]]}},{"type":"Feature","properties":{"h":8.6,"src":"default","b":"yes","a":308},"geometry":{"type":"Polygon","coordinates":[[[127.378073,35.402489],[127.378198,35.402488],[127.378202,35.402733],[127.378077,35.402735],[127.378073,35.402489]]]}},{"type":"Feature","properties":{"h":8.6,"src":"default","b":"yes","a":309},"geometry":{"type":"Polygon","coordinates":[[[127.378067,35.402228],[127.378193,35.402227],[127.378196,35.402472],[127.378071,35.402474],[127.378067,35.402228]]]}},{"type":"Feature","properties":{"h":8.6,"src":"default","b":"yes","a":308},"geometry":{"type":"Polygon","coordinates":[[[127.378059,35.401967],[127.378184,35.401966],[127.378188,35.402211],[127.378062,35.402212],[127.378059,35.401967]]]}},{"type":"Feature","properties":{"h":17.9,"src":"default","b":"public","a":1283},"geometry":{"type":"Polygon","coordinates":[[[127.37239,35.414322],[127.372375,35.414352],[127.372372,35.414386],[127.37238,35.414419],[127.372395,35.414443],[127.372397,35.414484],[127.372447,35.414483],[127.372465,35.414491],[127.372506,35.414499],[127.372547,35.414497],[127.372587,35.414485],[127.372599,35.414478],[127.372654,35.414477],[127.372652,35.414426],[127.372662,35.414407],[127.372665,35.414373],[127.372657,35.414339],[127.372648,35.414325],[127.372647,35.414303],[127.372905,35.414295],[127.372902,35.414228],[127.372963,35.414226],[127.372962,35.414199],[127.372901,35.414201],[127.372898,35.414142],[127.372406,35.414156],[127.372411,35.414249],[127.372387,35.41425],[127.37239,35.414322]]]}},{"type":"Feature","properties":{"h":15.8,"src":"default","b":"public","a":298},"geometry":{"type":"Polygon","coordinates":[[[127.37342,35.414536],[127.373572,35.414531],[127.373564,35.414336],[127.373412,35.41434],[127.37342,35.414536]]]}},{"type":"Feature","properties":{"h":15.4,"src":"default","b":"public","a":230},"geometry":{"type":"Polygon","coordinates":[[[127.373221,35.414237],[127.373475,35.41423],[127.373471,35.41414],[127.373216,35.414147],[127.373221,35.414237]]]}},{"type":"Feature","properties":{"h":9.3,"src":"default","b":"yes","a":741,"name":"남원 항공우주 천문대"},"geometry":{"type":"Polygon","coordinates":[[[127.38721,35.399035],[127.387203,35.399017],[127.387202,35.399001],[127.387208,35.398985],[127.387219,35.398972],[127.387235,35.398963],[127.387254,35.398958],[127.387275,35.398958],[127.387294,35.398964],[127.38731,35.398975],[127.387571,35.399284],[127.387533,35.399305],[127.387538,35.399311],[127.387561,35.399315],[127.387581,35.399325],[127.387595,35.39934],[127.387603,35.399358],[127.387603,35.399377],[127.387595,35.399395],[127.387581,35.39941],[127.387561,35.39942],[127.387539,35.399424],[127.387517,35.399422],[127.387496,35.399415],[127.38748,35.399403],[127.387469,35.399386],[127.387465,35.399369],[127.387468,35.39935],[127.387458,35.399338],[127.387439,35.399349],[127.387185,35.399049],[127.38721,35.399035]]]}},{"type":"Feature","properties":{"h":19.6,"src":"default","b":"public","a":4082,"name":"본관"},"geometry":{"type":"Polygon","coordinates":[[[127.369888,35.421484],[127.370408,35.421364],[127.370509,35.421341],[127.370649,35.421309],[127.370899,35.421901],[127.370812,35.421926],[127.370908,35.422142],[127.37069,35.422196],[127.370603,35.421975],[127.370204,35.422063],[127.370145,35.421897],[127.370568,35.421801],[127.370473,35.421559],[127.36997,35.421684],[127.369888,35.421484]]]}},{"type":"Feature","properties":{"h":18.2,"src":"default","b":"public","a":1588,"name":"후생관"},"geometry":{"type":"Polygon","coordinates":[[[127.370137,35.421209],[127.369961,35.420776],[127.370195,35.420717],[127.370285,35.420933],[127.370477,35.420886],[127.370569,35.421099],[127.370137,35.421209]]]}},{"type":"Feature","properties":{"h":18.6,"src":"default","b":"public","a":2104,"name":"생활관"},"geometry":{"type":"Polygon","coordinates":[[[127.370245,35.420583],[127.370213,35.4205],[127.370172,35.420507],[127.370154,35.420455],[127.369837,35.420528],[127.369848,35.420555],[127.369767,35.420573],[127.369757,35.420551],[127.369556,35.420599],[127.369826,35.421287],[127.370019,35.421238],[127.369808,35.420691],[127.370245,35.420583]]]}},{"type":"Feature","properties":{"h":9.9,"src":"default","b":"yes","a":1705,"name":"전라북도 남원 노인요양병원"},"geometry":{"type":"Polygon","coordinates":[[[127.372752,35.420829],[127.372844,35.420716],[127.373064,35.420826],[127.373662,35.420837],[127.373623,35.420927],[127.373549,35.420938],[127.373453,35.421135],[127.373096,35.421062],[127.373096,35.42099],[127.372752,35.420829]]]}},{"type":"Feature","properties":{"h":10.3,"src":"default","b":"yes","a":2626,"name":"지리산 중앙하이츠콘도"},"geometry":{"type":"Polygon","coordinates":[[[127.373379,35.420209],[127.373379,35.420033],[127.373433,35.420033],[127.373433,35.419999],[127.373521,35.419999],[127.373522,35.419702],[127.373982,35.419702],[127.373982,35.42021],[127.373379,35.420209]]]}},{"type":"Feature","properties":{"h":15.8,"src":"default","b":"public","a":300,"name":"남원시 선거관리위원회"},"geometry":{"type":"Polygon","coordinates":[[[127.376308,35.4174],[127.376373,35.417327],[127.376597,35.417473],[127.376532,35.417572],[127.376397,35.417499],[127.376422,35.417456],[127.376308,35.4174]]]}},{"type":"Feature","properties":{"h":17.1,"src":"default","b":"public","a":733},"geometry":{"type":"Polygon","coordinates":[[[127.396447,35.42645],[127.396731,35.426579],[127.396868,35.42638],[127.396585,35.426256],[127.396447,35.42645]]]}},{"type":"Feature","properties":{"h":17,"src":"default","b":"public","a":722,"name":"한국도로공사 남원지사"},"geometry":{"type":"Polygon","coordinates":[[[127.396295,35.426917],[127.396044,35.426801],[127.39626,35.426502],[127.396585,35.426643],[127.396525,35.426726],[127.396282,35.42662],[127.396164,35.426781],[127.396338,35.426853],[127.396295,35.426917]]]}},{"type":"Feature","properties":{"h":17,"src":"default","b":"public","a":682},"geometry":{"type":"Polygon","coordinates":[[[127.395699,35.426702],[127.395837,35.426768],[127.396096,35.426386],[127.395963,35.426325],[127.395699,35.426702]]]}},{"type":"Feature","properties":{"h":15.3,"src":"default","b":"public","a":221},"geometry":{"type":"Polygon","coordinates":[[[127.395935,35.426295],[127.395977,35.426226],[127.396022,35.426245],[127.396043,35.426211],[127.396185,35.42627],[127.396106,35.426373],[127.395935,35.426295]]]}},{"type":"Feature","properties":{"h":17,"src":"default","b":"public","a":717},"geometry":{"type":"Polygon","coordinates":[[[127.396052,35.427141],[127.396033,35.427168],[127.395919,35.427113],[127.396036,35.42698],[127.396134,35.427022],[127.396129,35.427037],[127.39633,35.427132],[127.396346,35.427115],[127.396486,35.427181],[127.39643,35.427238],[127.396398,35.427238],[127.396353,35.427299],[127.396052,35.427141]]]}},{"type":"Feature","properties":{"h":16.5,"src":"default","b":"public","a":491,"name":"한국교통안전공단 남원검사소"},"geometry":{"type":"Polygon","coordinates":[[[127.396535,35.426067],[127.396575,35.425999],[127.396683,35.42604],[127.39672,35.425982],[127.396919,35.426059],[127.396884,35.426123],[127.39699,35.426164],[127.396943,35.426226],[127.396535,35.426067]]]}},{"type":"Feature","properties":{"h":16.1,"src":"default","b":"public","a":373},"geometry":{"type":"Polygon","coordinates":[[[127.398587,35.427476],[127.398679,35.42752],[127.398884,35.427217],[127.398792,35.427171],[127.398587,35.427476]]]}},{"type":"Feature","properties":{"h":10.7,"src":"default","b":"yes","a":4474,"name":"춘향골 체육관"},"geometry":{"type":"Polygon","coordinates":[[[127.402582,35.430576],[127.402558,35.430557],[127.402562,35.430507],[127.402531,35.430444],[127.402484,35.430384],[127.402428,35.430336],[127.402352,35.430308],[127.402336,35.430298],[127.402395,35.430263],[127.40236,35.430227],[127.402299,35.430262],[127.402281,35.430229],[127.402285,35.430202],[127.402285,35.43018],[127.402273,35.430167],[127.402255,35.430154],[127.402226,35.430177],[127.402208,35.430161],[127.402056,35.430242],[127.401997,35.430247],[127.401936,35.430264],[127.401895,35.430298],[127.401836,35.430358],[127.401809,35.430333],[127.401767,35.430359],[127.401793,35.430389],[127.401718,35.430431],[127.402188,35.430985],[127.402238,35.430961],[127.40221,35.430923],[127.402249,35.430906],[127.402301,35.430964],[127.402348,35.430944],[127.402332,35.430919],[127.402405,35.430888],[127.402476,35.430853],[127.402513,35.43082],[127.402545,35.430779],[127.402562,35.430797],[127.402688,35.430717],[127.402671,35.430697],[127.402704,35.430681],[127.402692,35.430664],[127.402702,35.430654],[127.402674,35.430621],[127.402625,35.430619],[127.402677,35.430595],[127.402631,35.430548],[127.402582,35.430576]]]}},{"type":"Feature","properties":{"h":10.6,"src":"default","b":"yes","a":4142,"name":"다목적구장"},"geometry":{"type":"Polygon","coordinates":[[[127.402616,35.431723],[127.402286,35.431339],[127.402583,35.431175],[127.402534,35.431118],[127.402539,35.431092],[127.402565,35.431072],[127.402597,35.431062],[127.402629,35.43107],[127.402681,35.431121],[127.402992,35.43095],[127.403334,35.431329],[127.402616,35.431723]]]}},{"type":"Feature","properties":{"h":8.2,"src":"default","b":"yes","a":202,"name":"남원 적십자 봉사관"},"geometry":{"type":"Polygon","coordinates":[[[127.407289,35.43047],[127.407423,35.430606],[127.407511,35.430547],[127.407376,35.430408],[127.407289,35.43047]]]}},{"type":"Feature","properties":{"h":24.8,"src":"default","b":"dormitory","a":498,"name":"의사숙소 나동"},"geometry":{"type":"Polygon","coordinates":[[[127.40833,35.432539],[127.408327,35.432436],[127.408375,35.432437],[127.408375,35.43242],[127.408452,35.43242],[127.408452,35.432439],[127.408476,35.432439],[127.408476,35.43239],[127.408542,35.43239],[127.408542,35.432402],[127.408642,35.432403],[127.408642,35.43239],[127.408722,35.43239],[127.408721,35.43244],[127.408747,35.43244],[127.408747,35.432431],[127.408795,35.432432],[127.408794,35.43247],[127.408807,35.43247],[127.408806,35.432497],[127.408782,35.432496],[127.408782,35.432532],[127.408709,35.432532],[127.408709,35.432467],[127.40869,35.432467],[127.408689,35.432524],[127.408647,35.432524],[127.408646,35.432472],[127.408608,35.432471],[127.408608,35.432505],[127.408509,35.432503],[127.408508,35.432522],[127.408461,35.432523],[127.40846,35.43254],[127.40833,35.432539]]]}},{"type":"Feature","properties":{"h":26.1,"src":"default","b":"dormitory","a":930,"name":"의사숙소 가동"},"geometry":{"type":"Polygon","coordinates":[[[127.407839,35.432831],[127.407945,35.432833],[127.407946,35.432815],[127.407984,35.432816],[127.407985,35.432801],[127.408181,35.432804],[127.408181,35.432818],[127.408239,35.432817],[127.40824,35.432834],[127.408457,35.432834],[127.408458,35.432823],[127.408536,35.432823],[127.408536,35.432794],[127.408676,35.432792],[127.408679,35.432693],[127.408614,35.432693],[127.408614,35.432681],[127.408533,35.432681],[127.408533,35.432714],[127.408446,35.432713],[127.408446,35.432725],[127.408358,35.432726],[127.408358,35.432712],[127.408273,35.432712],[127.408272,35.432732],[127.408244,35.432733],[127.408242,35.432688],[127.408153,35.432687],[127.408153,35.432703],[127.408061,35.432703],[127.408062,35.432691],[127.407971,35.432691],[127.407972,35.43272],[127.40788,35.432722],[127.40788,35.432734],[127.407834,35.432735],[127.407839,35.432831]]]}},{"type":"Feature","properties":{"h":8.8,"src":"default","b":"yes","a":442},"geometry":{"type":"Polygon","coordinates":[[[127.399021,35.427325],[127.399356,35.427453],[127.399294,35.427561],[127.398959,35.427433],[127.399021,35.427325]]]}},{"type":"Feature","properties":{"h":37.8,"src":"default","b":"apartments","a":2543,"name":"금호프라자아파트"},"geometry":{"type":"Polygon","coordinates":[[[127.37456,35.407407],[127.375204,35.40738],[127.375236,35.407893],[127.374853,35.407909],[127.374834,35.407612],[127.374574,35.407623],[127.37456,35.407407]]]}},{"type":"Feature","properties":{"h":16.7,"src":"default","b":"school","a":554},"geometry":{"type":"Polygon","coordinates":[[[127.401981,35.423991],[127.402282,35.424009],[127.402298,35.423826],[127.401997,35.423809],[127.401981,35.423991]]]}},{"type":"Feature","properties":{"h":16.2,"src":"default","b":"school","a":402},"geometry":{"type":"Polygon","coordinates":[[[127.402304,35.42401],[127.402446,35.424013],[127.402456,35.423731],[127.402314,35.423728],[127.402304,35.42401]]]}},{"type":"Feature","properties":{"h":16.2,"src":"default","b":"school","a":403},"geometry":{"type":"Polygon","coordinates":[[[127.402472,35.424013],[127.402614,35.424017],[127.402624,35.423734],[127.402482,35.423731],[127.402472,35.424013]]]}},{"type":"Feature","properties":{"h":18.3,"src":"default","b":"school","a":1746},"geometry":{"type":"Polygon","coordinates":[[[127.401852,35.423573],[127.402301,35.423597],[127.402295,35.423664],[127.402461,35.423673],[127.402465,35.423623],[127.402836,35.423643],[127.402832,35.423691],[127.402889,35.423694],[127.402879,35.423814],[127.402993,35.42382],[127.403017,35.423522],[127.401862,35.423459],[127.401852,35.423573]]]}},{"type":"Feature","properties":{"h":16.2,"src":"default","b":"school","a":418},"geometry":{"type":"Polygon","coordinates":[[[127.40305,35.423686],[127.403184,35.423741],[127.403215,35.423692],[127.403341,35.423744],[127.403396,35.423655],[127.403074,35.423523],[127.403039,35.42358],[127.4031,35.423605],[127.40305,35.423686]]]}},{"type":"Feature","properties":{"h":16.8,"src":"default","b":"school","a":628},"geometry":{"type":"Polygon","coordinates":[[[127.404188,35.424158],[127.40441,35.424244],[127.404545,35.424014],[127.404323,35.423928],[127.404188,35.424158]]]}},{"type":"Feature","properties":{"h":16.3,"src":"default","b":"school","a":419},"geometry":{"type":"Polygon","coordinates":[[[127.403421,35.423821],[127.403578,35.423877],[127.40361,35.423818],[127.40367,35.423839],[127.403718,35.42375],[127.403423,35.423644],[127.403379,35.423725],[127.403458,35.423753],[127.403421,35.423821]]]}},{"type":"Feature","properties":{"h":16.8,"src":"default","b":"school","a":604},"geometry":{"type":"Polygon","coordinates":[[[127.403705,35.423869],[127.40395,35.423967],[127.403964,35.423943],[127.404211,35.424042],[127.404276,35.423935],[127.403993,35.423822],[127.403965,35.423869],[127.403756,35.423786],[127.403705,35.423869]]]}},{"type":"Feature","properties":{"h":16.7,"src":"default","b":"school","a":589},"geometry":{"type":"Polygon","coordinates":[[[127.403151,35.42343],[127.40329,35.423484],[127.403492,35.423142],[127.403352,35.423087],[127.403151,35.42343]]]}},{"type":"Feature","properties":{"h":15.7,"src":"default","b":"school","a":294},"geometry":{"type":"Polygon","coordinates":[[[127.404361,35.423736],[127.404484,35.423783],[127.404596,35.423586],[127.404474,35.42354],[127.404361,35.423736]]]}},{"type":"Feature","properties":{"h":14.3,"src":"default","b":"school","a":111},"geometry":{"type":"Polygon","coordinates":[[[127.404537,35.423745],[127.404625,35.423776],[127.404681,35.42367],[127.404593,35.423639],[127.404537,35.423745]]]}},{"type":"Feature","properties":{"h":18,"src":"default","b":"school","a":1391,"name":"남원서진여자고등학교"},"geometry":{"type":"Polygon","coordinates":[[[127.406157,35.42561],[127.406319,35.42566],[127.406294,35.425714],[127.406409,35.425749],[127.406437,35.425716],[127.40676,35.425816],[127.406717,35.42591],[127.406974,35.425989],[127.407068,35.425785],[127.4062,35.425517],[127.406157,35.42561]]]}},{"type":"Feature","properties":{"h":17.6,"src":"default","b":"school","a":1090,"name":"남원국악예술고등학교"},"geometry":{"type":"Polygon","coordinates":[[[127.404639,35.425191],[127.405095,35.425332],[127.405057,35.425413],[127.405186,35.425453],[127.405221,35.425378],[127.405796,35.425556],[127.405831,35.42548],[127.404672,35.425121],[127.404639,35.425191]]]}},{"type":"Feature","properties":{"h":16.4,"src":"default","b":"school","a":457},"geometry":{"type":"Polygon","coordinates":[[[127.405083,35.425702],[127.405437,35.425807],[127.405488,35.425694],[127.405134,35.425588],[127.405083,35.425702]]]}},{"type":"Feature","properties":{"h":16.2,"src":"default","b":"school","a":406},"geometry":{"type":"Polygon","coordinates":[[[127.405212,35.426002],[127.405377,35.426049],[127.405472,35.425831],[127.405306,35.425784],[127.405212,35.426002]]]}},{"type":"Feature","properties":{"h":16.2,"src":"default","b":"school","a":405},"geometry":{"type":"Polygon","coordinates":[[[127.405432,35.426069],[127.405597,35.426116],[127.405691,35.425898],[127.405526,35.425851],[127.405432,35.426069]]]}},{"type":"Feature","properties":{"h":17.5,"src":"default","b":"school","a":1015},"geometry":{"type":"Polygon","coordinates":[[[127.405704,35.425856],[127.40596,35.425936],[127.406123,35.425591],[127.405868,35.425511],[127.405704,35.425856]]]}},{"type":"Feature","properties":{"h":16.5,"src":"default","b":"school","a":508},"geometry":{"type":"Polygon","coordinates":[[[127.406052,35.425911],[127.406475,35.42605],[127.406526,35.425947],[127.406103,35.425808],[127.406052,35.425911]]]}},{"type":"Feature","properties":{"h":12.3,"src":"default","b":"yes","a":36771,"name":"KT&G 남원원료공장"},"geometry":{"type":"Polygon","coordinates":[[[127.410956,35.433156],[127.411114,35.433212],[127.411196,35.433138],[127.410926,35.433058],[127.410956,35.432893],[127.411423,35.43296],[127.411788,35.433212],[127.411986,35.433586],[127.411934,35.433624],[127.412878,35.434366],[127.411582,35.435366],[127.409836,35.43396],[127.410192,35.433617],[127.410381,35.433708],[127.410956,35.433156]]]}},{"type":"Feature","properties":{"h":8.5,"src":"default","b":"yes","a":280,"name":"지리산동물병원"},"geometry":{"type":"Polygon","coordinates":[[[127.371442,35.403062],[127.371585,35.403062],[127.371593,35.402871],[127.371442,35.402873],[127.371442,35.403062]]]}},{"type":"Feature","properties":{"h":9.7,"src":"default","b":"yes","a":1241},"geometry":{"type":"Polygon","coordinates":[[[127.386728,35.436051],[127.387434,35.43624],[127.38747,35.436151],[127.387253,35.436092],[127.387299,35.43598],[127.386864,35.435864],[127.386816,35.435982],[127.386762,35.435967],[127.386728,35.436051]]]}},{"type":"Feature","properties":{"h":7.7,"src":"default","b":"yes","a":104},"geometry":{"type":"Polygon","coordinates":[[[127.416912,35.40891],[127.416989,35.408909],[127.416987,35.408774],[127.416911,35.408774],[127.416912,35.40891]]]}},{"type":"Feature","properties":{"h":7.7,"src":"default","b":"yes","a":105},"geometry":{"type":"Polygon","coordinates":[[[127.416793,35.408914],[127.416876,35.408915],[127.416877,35.408789],[127.416794,35.408788],[127.416793,35.408914]]]}},{"type":"Feature","properties":{"h":7.6,"src":"default","b":"yes","a":87},"geometry":{"type":"Polygon","coordinates":[[[127.416696,35.40891],[127.416766,35.408907],[127.416759,35.408783],[127.41669,35.408785],[127.416696,35.40891]]]}},{"type":"Feature","properties":{"h":7.6,"src":"default","b":"yes","a":90},"geometry":{"type":"Polygon","coordinates":[[[127.416568,35.4089],[127.416642,35.408908],[127.416661,35.408789],[127.416586,35.408781],[127.416568,35.4089]]]}},{"type":"Feature","properties":{"h":7.6,"src":"default","b":"yes","a":97},"geometry":{"type":"Polygon","coordinates":[[[127.416428,35.408859],[127.416499,35.408884],[127.416561,35.408769],[127.41649,35.408744],[127.416428,35.408859]]]}},{"type":"Feature","properties":{"h":7.6,"src":"default","b":"yes","a":89},"geometry":{"type":"Polygon","coordinates":[[[127.416325,35.408786],[127.416388,35.408822],[127.416469,35.408727],[127.416407,35.408691],[127.416325,35.408786]]]}},{"type":"Feature","properties":{"h":7.6,"src":"default","b":"yes","a":90},"geometry":{"type":"Polygon","coordinates":[[[127.416218,35.408698],[127.416254,35.408745],[127.416392,35.408675],[127.416356,35.408628],[127.416218,35.408698]]]}},{"type":"Feature","properties":{"h":7.6,"src":"default","b":"yes","a":93},"geometry":{"type":"Polygon","coordinates":[[[127.41618,35.408598],[127.416207,35.408653],[127.416352,35.408605],[127.416325,35.40855],[127.41618,35.408598]]]}},{"type":"Feature","properties":{"h":10.5,"src":"default","b":"yes","a":3545},"geometry":{"type":"Polygon","coordinates":[[[127.41449,35.408233],[127.4145,35.408412],[127.415416,35.40838],[127.415419,35.408437],[127.415608,35.408431],[127.415609,35.408451],[127.416032,35.408436],[127.416017,35.408133],[127.415587,35.408148],[127.415585,35.408107],[127.415403,35.408113],[127.415408,35.408202],[127.41449,35.408233]]]}},{"type":"Feature","properties":{"h":7.9,"src":"default","b":"yes","a":134},"geometry":{"type":"Polygon","coordinates":[[[127.391711,35.41557],[127.391787,35.415611],[127.391777,35.415623],[127.391828,35.41565],[127.391792,35.415695],[127.39174,35.415702],[127.391645,35.415651],[127.391711,35.41557]]]}},{"type":"Feature","properties":{"h":7.9,"src":"default","b":"yes","a":138},"geometry":{"type":"Polygon","coordinates":[[[127.391922,35.415695],[127.392035,35.415756],[127.391963,35.415845],[127.391881,35.415801],[127.391875,35.415753],[127.391922,35.415695]]]}},{"type":"Feature","properties":{"h":8.1,"src":"default","b":"yes","a":165},"geometry":{"type":"Polygon","coordinates":[[[127.391046,35.41518],[127.391172,35.415251],[127.39109,35.415347],[127.391009,35.4153],[127.391,35.415233],[127.391046,35.41518]]]}},{"type":"Feature","properties":{"h":7.9,"src":"default","b":"yes","a":142},"geometry":{"type":"Polygon","coordinates":[[[127.391241,35.415141],[127.391166,35.415225],[127.391056,35.41516],[127.391131,35.415076],[127.391241,35.415141]]]}},{"type":"Feature","properties":{"h":7.9,"src":"default","b":"yes","a":136},"geometry":{"type":"Polygon","coordinates":[[[127.391385,35.415229],[127.39132,35.415306],[127.3912,35.415239],[127.391264,35.415162],[127.391385,35.415229]]]}},{"type":"Feature","properties":{"h":7.9,"src":"default","b":"yes","a":141},"geometry":{"type":"Polygon","coordinates":[[[127.391403,35.415236],[127.391511,35.415305],[127.391434,35.415385],[127.391325,35.415315],[127.391403,35.415236]]]}},{"type":"Feature","properties":{"h":7.9,"src":"default","b":"yes","a":137},"geometry":{"type":"Polygon","coordinates":[[[127.391654,35.415397],[127.391596,35.415466],[127.391587,35.415467],[127.391468,35.415391],[127.391536,35.415321],[127.391654,35.415397]]]}},{"type":"Feature","properties":{"h":8,"src":"default","b":"yes","a":161},"geometry":{"type":"Polygon","coordinates":[[[127.391672,35.415387],[127.391798,35.415468],[127.391722,35.415546],[127.391596,35.415466],[127.391672,35.415387]]]}},{"type":"Feature","properties":{"h":8,"src":"default","b":"yes","a":153},"geometry":{"type":"Polygon","coordinates":[[[127.391758,35.415569],[127.391781,35.415542],[127.39177,35.415531],[127.391823,35.415469],[127.391939,35.415535],[127.39186,35.415627],[127.391758,35.415569]]]}},{"type":"Feature","properties":{"h":7.7,"src":"default","b":"yes","a":109},"geometry":{"type":"Polygon","coordinates":[[[127.391274,35.41534],[127.391213,35.415409],[127.39111,35.415348],[127.391171,35.415279],[127.391274,35.41534]]]}},{"type":"Feature","properties":{"h":7.8,"src":"default","b":"yes","a":125},"geometry":{"type":"Polygon","coordinates":[[[127.391438,35.415407],[127.39137,35.415485],[127.391263,35.415424],[127.391331,35.415346],[127.391438,35.415407]]]}},{"type":"Feature","properties":{"h":7.8,"src":"default","b":"yes","a":114},"geometry":{"type":"Polygon","coordinates":[[[127.391454,35.415443],[127.391383,35.415523],[127.391477,35.415578],[127.391548,35.415499],[127.391454,35.415443]]]}},{"type":"Feature","properties":{"h":7.9,"src":"default","b":"yes","a":134},"geometry":{"type":"Polygon","coordinates":[[[127.391629,35.415565],[127.391673,35.41559],[127.39162,35.415654],[127.3915,35.415587],[127.39157,35.415504],[127.391645,35.415546],[127.391629,35.415565]]]}},{"type":"Feature","properties":{"h":8.1,"src":"default","b":"yes","a":170},"geometry":{"type":"Polygon","coordinates":[[[127.39123,35.414951],[127.391373,35.415024],[127.391315,35.415106],[127.391306,35.415111],[127.3912,35.415057],[127.391183,35.415011],[127.39123,35.414951]]]}},{"type":"Feature","properties":{"h":7.8,"src":"default","b":"yes","a":119},"geometry":{"type":"Polygon","coordinates":[[[127.391393,35.414893],[127.391446,35.414927],[127.391423,35.414949],[127.391375,35.415002],[127.391374,35.415002],[127.391266,35.414933],[127.391325,35.414872],[127.391374,35.414903],[127.391393,35.414893]]]}},{"type":"Feature","properties":{"h":7.9,"src":"default","b":"yes","a":140},"geometry":{"type":"Polygon","coordinates":[[[127.392036,35.41524],[127.392111,35.415284],[127.392125,35.415325],[127.392073,35.41539],[127.39197,35.415335],[127.391954,35.415331],[127.392036,35.41524]]]}},{"type":"Feature","properties":{"h":8,"src":"default","b":"yes","a":147},"geometry":{"type":"Polygon","coordinates":[[[127.391766,35.415257],[127.39183,35.415294],[127.391818,35.415308],[127.391862,35.415332],[127.39185,35.415346],[127.391875,35.41536],[127.391827,35.415417],[127.391694,35.415342],[127.391766,35.415257]]]}},{"type":"Feature","properties":{"h":8,"src":"default","b":"yes","a":157},"geometry":{"type":"Polygon","coordinates":[[[127.391757,35.415242],[127.391684,35.41533],[127.391562,35.415263],[127.391635,35.415175],[127.391757,35.415242]]]}},{"type":"Feature","properties":{"h":7.9,"src":"default","b":"yes","a":129},"geometry":{"type":"Polygon","coordinates":[[[127.391727,35.415079],[127.391834,35.415142],[127.391765,35.41522],[127.391658,35.415158],[127.391658,35.415158],[127.391722,35.41508],[127.391727,35.415079]]]}},{"type":"Feature","properties":{"h":8.1,"src":"default","b":"yes","a":178},"geometry":{"type":"Polygon","coordinates":[[[127.391995,35.415235],[127.391912,35.415329],[127.391909,35.415311],[127.391782,35.415236],[127.391854,35.415153],[127.391995,35.415235]]]}},{"type":"Feature","properties":{"h":8.2,"src":"default","b":"yes","a":186},"geometry":{"type":"Polygon","coordinates":[[[127.39192,35.41538],[127.391875,35.41536],[127.391912,35.415329],[127.391953,35.415354],[127.39197,35.415335],[127.392083,35.415404],[127.392021,35.415472],[127.391958,35.415476],[127.391877,35.415427],[127.39192,35.41538]]]}},{"type":"Feature","properties":{"h":7.9,"src":"default","b":"yes","a":132},"geometry":{"type":"Polygon","coordinates":[[[127.391494,35.415105],[127.391608,35.415171],[127.391542,35.415247],[127.391428,35.41518],[127.39143,35.415173],[127.391494,35.415105]]]}},{"type":"Feature","properties":{"h":8,"src":"default","b":"yes","a":155},"geometry":{"type":"Polygon","coordinates":[[[127.391508,35.415086],[127.39143,35.415173],[127.391315,35.415106],[127.391394,35.415018],[127.391504,35.415081],[127.391508,35.415086]]]}},{"type":"Feature","properties":{"h":7.9,"src":"default","b":"yes","a":128},"geometry":{"type":"Polygon","coordinates":[[[127.391423,35.414949],[127.391454,35.414968],[127.391467,35.414954],[127.391565,35.415014],[127.391504,35.415081],[127.391375,35.415002],[127.391423,35.414949]]]}},{"type":"Feature","properties":{"h":8,"src":"default","b":"yes","a":155},"geometry":{"type":"Polygon","coordinates":[[[127.391722,35.41508],[127.391658,35.415158],[127.391521,35.415082],[127.391585,35.415005],[127.391722,35.41508]]]}},{"type":"Feature","properties":{"h":7.7,"src":"default","b":"yes","a":100},"geometry":{"type":"Polygon","coordinates":[[[127.392148,35.415098],[127.392209,35.415028],[127.392289,35.415075],[127.392274,35.415092],[127.392293,35.415103],[127.392246,35.415156],[127.392148,35.415098]]]}},{"type":"Feature","properties":{"h":8,"src":"default","b":"yes","a":157},"geometry":{"type":"Polygon","coordinates":[[[127.392079,35.415093],[127.39202,35.415178],[127.391891,35.415118],[127.391959,35.41502],[127.392025,35.415051],[127.392016,35.415064],[127.392079,35.415093]]]}},{"type":"Feature","properties":{"h":8,"src":"default","b":"yes","a":160},"geometry":{"type":"Polygon","coordinates":[[[127.391846,35.414956],[127.391779,35.415029],[127.391638,35.414952],[127.39171,35.414874],[127.391846,35.414956]]]}},{"type":"Feature","properties":{"h":7.7,"src":"default","b":"yes","a":103},"geometry":{"type":"Polygon","coordinates":[[[127.392043,35.414938],[127.392098,35.414967],[127.392089,35.414978],[127.392132,35.415],[127.392116,35.41502],[127.392132,35.415029],[127.392099,35.415071],[127.391986,35.41501],[127.392043,35.414938]]]}},{"type":"Feature","properties":{"h":7.1,"src":"default","b":"house","a":106},"geometry":{"type":"Polygon","coordinates":[[[127.391854,35.414957],[127.391901,35.414986],[127.391892,35.414996],[127.39194,35.415024],[127.391879,35.415091],[127.391784,35.415034],[127.391854,35.414957]]]}},{"type":"Feature","properties":{"h":7.3,"src":"default","b":"house","a":135},"geometry":{"type":"Polygon","coordinates":[[[127.391566,35.414633],[127.391505,35.414642],[127.391454,35.414702],[127.391562,35.414763],[127.391638,35.414673],[127.391566,35.414633]]]}},{"type":"Feature","properties":{"h":7.2,"src":"default","b":"house","a":114},"geometry":{"type":"Polygon","coordinates":[[[127.391399,35.414801],[127.391395,35.414764],[127.391444,35.414714],[127.391545,35.41478],[127.391475,35.414851],[127.391399,35.414801]]]}},{"type":"Feature","properties":{"h":7.4,"src":"default","b":"house","a":148},"geometry":{"type":"Polygon","coordinates":[[[127.391784,35.414762],[127.391708,35.414842],[127.391593,35.414769],[127.391669,35.414689],[127.391784,35.414762]]]}},{"type":"Feature","properties":{"h":7.3,"src":"default","b":"house","a":127},"geometry":{"type":"Polygon","coordinates":[[[127.391796,35.414775],[127.391728,35.414854],[127.391833,35.414916],[127.391904,35.414842],[127.391796,35.414775]]]}},{"type":"Feature","properties":{"h":7.3,"src":"default","b":"house","a":132},"geometry":{"type":"Polygon","coordinates":[[[127.391589,35.414802],[127.39152,35.414885],[127.39163,35.414945],[127.391698,35.414863],[127.391589,35.414802]]]}},{"type":"Feature","properties":{"h":7.4,"src":"default","b":"house","a":160},"geometry":{"type":"Polygon","coordinates":[[[127.391918,35.414852],[127.391845,35.414935],[127.391973,35.415009],[127.392045,35.414926],[127.391918,35.414852]]]}},{"type":"Feature","properties":{"h":7.2,"src":"default","b":"house","a":113},"geometry":{"type":"Polygon","coordinates":[[[127.39212,35.415122],[127.39222,35.415177],[127.392172,35.415238],[127.392124,35.41524],[127.392054,35.415192],[127.39212,35.415122]]]}},{"type":"Feature","properties":{"h":7.3,"src":"default","b":"house","a":133},"geometry":{"type":"Polygon","coordinates":[[[127.391033,35.415374],[127.39097,35.415337],[127.390911,35.415344],[127.390852,35.415411],[127.39095,35.415468],[127.391033,35.415374]]]}},{"type":"Feature","properties":{"h":7.2,"src":"default","b":"house","a":115},"geometry":{"type":"Polygon","coordinates":[[[127.390804,35.415474],[127.390801,35.415516],[127.390878,35.415565],[127.390949,35.415491],[127.39085,35.415427],[127.390804,35.415474]]]}},{"type":"Feature","properties":{"h":8,"src":"default","b":"yes","a":147},"geometry":{"type":"Polygon","coordinates":[[[127.391484,35.415798],[127.391374,35.415731],[127.391295,35.415815],[127.391405,35.415883],[127.391484,35.415798]]]}},{"type":"Feature","properties":{"h":7.9,"src":"default","b":"yes","a":141},"geometry":{"type":"Polygon","coordinates":[[[127.391261,35.41563],[127.391377,35.415705],[127.391449,35.41563],[127.391332,35.415555],[127.391261,35.41563]]]}},{"type":"Feature","properties":{"h":7.5,"src":"default","b":"house","a":166},"geometry":{"type":"Polygon","coordinates":[[[127.391168,35.415461],[127.391041,35.415392],[127.390967,35.415483],[127.391094,35.415551],[127.391168,35.415461]]]}},{"type":"Feature","properties":{"h":7.3,"src":"default","b":"house","a":134},"geometry":{"type":"Polygon","coordinates":[[[127.3913,35.415544],[127.391181,35.415479],[127.391117,35.415556],[127.391235,35.415622],[127.3913,35.415544]]]}},{"type":"Feature","properties":{"h":7.1,"src":"default","b":"house","a":103},"geometry":{"type":"Polygon","coordinates":[[[127.391252,35.415663],[127.391193,35.415732],[127.391293,35.415789],[127.391352,35.415721],[127.391252,35.415663]]]}},{"type":"Feature","properties":{"h":7.4,"src":"default","b":"house","a":150},"geometry":{"type":"Polygon","coordinates":[[[127.391083,35.415573],[127.391015,35.415656],[127.390891,35.415588],[127.390959,35.415505],[127.391083,35.415573]]]}},{"type":"Feature","properties":{"h":7,"src":"default","b":"house","a":90},"geometry":{"type":"Polygon","coordinates":[[[127.391197,35.415647],[127.391143,35.415706],[127.391045,35.415646],[127.391099,35.415587],[127.391197,35.415647]]]}},{"type":"Feature","properties":{"h":7.9,"src":"default","b":"yes","a":129},"geometry":{"type":"Polygon","coordinates":[[[127.391522,35.415815],[127.391646,35.415891],[127.391605,35.415936],[127.391553,35.415942],[127.391458,35.415884],[127.391522,35.415815]]]}},{"type":"Feature","properties":{"h":7.4,"src":"default","b":"house","a":156},"geometry":{"type":"Polygon","coordinates":[[[127.391616,35.415698],[127.391535,35.415792],[127.391404,35.415717],[127.391436,35.41568],[127.391456,35.415691],[127.391484,35.415658],[127.391516,35.415677],[127.391537,35.415653],[127.391616,35.415698]]]}},{"type":"Feature","properties":{"h":7.4,"src":"default","b":"house","a":150},"geometry":{"type":"Polygon","coordinates":[[[127.391626,35.415715],[127.391549,35.415795],[127.391565,35.415805],[127.391554,35.415816],[127.391629,35.415864],[127.391645,35.415847],[127.391665,35.41586],[127.391715,35.415808],[127.391708,35.415767],[127.391626,35.415715]]]}},{"type":"Feature","properties":{"h":7.2,"src":"default","b":"house","a":110},"geometry":{"type":"Polygon","coordinates":[[[127.392742,35.414416],[127.392808,35.414346],[127.392884,35.414394],[127.39289,35.414432],[127.392844,35.414481],[127.392742,35.414416]]]}},{"type":"Feature","properties":{"h":7.4,"src":"default","b":"house","a":150},"geometry":{"type":"Polygon","coordinates":[[[127.392719,35.414381],[127.392736,35.414393],[127.392758,35.414374],[127.39274,35.414361],[127.392782,35.414323],[127.392671,35.414241],[127.392592,35.414311],[127.392704,35.414394],[127.392719,35.414381]]]}},{"type":"Feature","properties":{"h":7.2,"src":"default","b":"house","a":118},"geometry":{"type":"Polygon","coordinates":[[[127.392445,35.414062],[127.392367,35.414139],[127.392458,35.4142],[127.392536,35.414122],[127.392445,35.414062]]]}},{"type":"Feature","properties":{"h":7.1,"src":"default","b":"house","a":102},"geometry":{"type":"Polygon","coordinates":[[[127.392544,35.414156],[127.392643,35.414225],[127.392581,35.414285],[127.392482,35.414215],[127.392544,35.414156]]]}},{"type":"Feature","properties":{"h":7.5,"src":"default","b":"house","a":182},"geometry":{"type":"Polygon","coordinates":[[[127.392211,35.41389],[127.392131,35.413905],[127.392083,35.413957],[127.392216,35.414039],[127.392303,35.413946],[127.392211,35.41389]]]}},{"type":"Feature","properties":{"h":7.2,"src":"default","b":"house","a":116},"geometry":{"type":"Polygon","coordinates":[[[127.392333,35.413992],[127.392259,35.414062],[127.392354,35.414128],[127.392428,35.414058],[127.392333,35.413992]]]}},{"type":"Feature","properties":{"h":7.2,"src":"default","b":"house","a":114},"geometry":{"type":"Polygon","coordinates":[[[127.392558,35.414302],[127.39251,35.414344],[127.392536,35.414352],[127.392491,35.414392],[127.3924,35.414323],[127.392486,35.414248],[127.392558,35.414302]]]}},{"type":"Feature","properties":{"h":7.1,"src":"default","b":"house","a":109},"geometry":{"type":"Polygon","coordinates":[[[127.392568,35.414362],[127.392619,35.414395],[127.392633,35.414381],[127.392687,35.414417],[127.392619,35.414486],[127.392514,35.414418],[127.392568,35.414362]]]}},{"type":"Feature","properties":{"h":6.9,"src":"default","b":"house","a":77},"geometry":{"type":"Polygon","coordinates":[[[127.392723,35.414439],[127.392673,35.414492],[127.392764,35.414549],[127.392814,35.414496],[127.392723,35.414439]]]}},{"type":"Feature","properties":{"h":7.2,"src":"default","b":"house","a":124},"geometry":{"type":"Polygon","coordinates":[[[127.392028,35.414046],[127.392033,35.414099],[127.392103,35.414138],[127.392176,35.414051],[127.392072,35.413993],[127.392028,35.414046]]]}},{"type":"Feature","properties":{"h":7.6,"src":"default","b":"house","a":199},"geometry":{"type":"Polygon","coordinates":[[[127.392223,35.414062],[127.392335,35.414142],[127.392226,35.414242],[127.392115,35.414161],[127.392223,35.414062]]]}},{"type":"Feature","properties":{"h":7.4,"src":"default","b":"house","a":152},"geometry":{"type":"Polygon","coordinates":[[[127.392448,35.414223],[127.39235,35.414312],[127.392256,35.414242],[127.392354,35.414154],[127.392448,35.414223]]]}},{"type":"Feature","properties":{"h":8.5,"src":"default","b":"yes","a":282},"geometry":{"type":"Polygon","coordinates":[[[127.364735,35.381541],[127.364908,35.381551],[127.364923,35.38139],[127.364749,35.38138],[127.364735,35.381541]]]}},{"type":"Feature","properties":{"h":9.2,"src":"default","b":"yes","a":652},"geometry":{"type":"Polygon","coordinates":[[[127.36455,35.38171],[127.364684,35.381756],[127.364697,35.381731],[127.364882,35.381795],[127.364869,35.381821],[127.364969,35.381856],[127.365043,35.381712],[127.364623,35.381568],[127.36455,35.38171]]]}},{"type":"Feature","properties":{"h":9.1,"src":"default","b":"yes","a":620,"name":"남원 시립 김병종 미술관"},"geometry":{"type":"MultiPolygon","coordinates":[[[[127.389718,35.398726],[127.389394,35.398637],[127.389314,35.398804],[127.389649,35.398894],[127.389718,35.398726]]],[[[127.389718,35.398726],[127.389828,35.398758],[127.389892,35.39859],[127.389786,35.398559],[127.389718,35.398726]]]]}}]}