{
  "type": "FeatureCollection",
  "features": [
    {
      "type": "Feature",
      "properties": {
        "id": "DET-001",
        "surveyId": "greenbelt",
        "cls": "불법 창고",
        "status": "found",
        "capturedAt": "2026-08-12"
      },
      "geometry": {
        "type": "Polygon",
        "coordinates": [
          [
            [
              127.39766,
              35.38225
            ],
            [
              127.39798,
              35.37867
            ],
            [
              127.40154,
              35.37806
            ],
            [
              127.4033,
              35.38117
            ],
            [
              127.40066,
              35.38278
            ],
            [
              127.39766,
              35.38225
            ]
          ]
        ]
      }
    },
    {
      "type": "Feature",
      "properties": {
        "id": "DET-002",
        "surveyId": "greenbelt",
        "cls": "무단 형질변경",
        "status": "found",
        "capturedAt": "2026-06-30"
      },
      "geometry": {
        "type": "Polygon",
        "coordinates": [
          [
            [
              127.43395,
              35.37468
            ],
            [
              127.43107,
              35.37341
            ],
            [
              127.43118,
              35.37001
            ],
            [
              127.43496,
              35.37111
            ],
            [
              127.43395,
              35.37468
            ]
          ]
        ]
      }
    },
    {
      "type": "Feature",
      "properties": {
        "id": "DET-003",
        "surveyId": "greenbelt",
        "cls": "무단 형질변경",
        "status": "found",
        "capturedAt": "2026-03-18"
      },
      "geometry": {
        "type": "Polygon",
        "coordinates": [
          [
            [
              127.40877,
              35.3779
            ],
            [
              127.4054,
              35.3766
            ],
            [
              127.40525,
              35.37294
            ],
            [
              127.40861,
              35.37264
            ],
            [
              127.41103,
              35.37493
            ],
            [
              127.40877,
              35.3779
            ]
          ]
        ]
      }
    },
    {
      "type": "Feature",
      "properties": {
        "id": "DET-004",
        "surveyId": "greenbelt",
        "cls": "불법 증축",
        "status": "doing",
        "capturedAt": "2026-08-12"
      },
      "geometry": {
        "type": "Polygon",
        "coordinates": [
          [
            [
              127.34565,
              35.37446
            ],
            [
              127.34542,
              35.37112
            ],
            [
              127.34852,
              35.37055
            ],
            [
              127.35061,
              35.37274
            ],
            [
              127.34852,
              35.37476
            ],
            [
              127.34565,
              35.37446
            ]
          ]
        ]
      }
    },
    {
      "type": "Feature",
      "properties": {
        "id": "DET-005",
        "surveyId": "greenbelt",
        "cls": "불법 증축",
        "status": "found",
        "capturedAt": "2026-03-02"
      },
      "geometry": {
        "type": "Polygon",
        "coordinates": [
          [
            [
              127.40646,
              35.39619
            ],
            [
              127.40427,
              35.39456
            ],
            [
              127.40563,
              35.39212
            ],
            [
              127.40826,
              35.39242
            ],
            [
              127.40876,
              35.39503
            ],
            [
              127.40646,
              35.39619
            ]
          ]
        ]
      }
    },
    {
      "type": "Feature",
      "properties": {
        "id": "DET-006",
        "surveyId": "greenbelt",
        "cls": "불법 창고",
        "status": "doing",
        "capturedAt": "2026-05-09"
      },
      "geometry": {
        "type": "Polygon",
        "coordinates": [
          [
            [
              127.39462,
              35.36661
            ],
            [
              127.39388,
              35.36367
            ],
            [
              127.39651,
              35.3631
            ],
            [
              127.39846,
              35.36614
            ],
            [
              127.39462,
              35.36661
            ]
          ]
        ]
      }
    },
    {
      "type": "Feature",
      "properties": {
        "id": "DET-007",
        "surveyId": "greenbelt",
        "cls": "불법 증축",
        "status": "done",
        "capturedAt": "2026-03-02"
      },
      "geometry": {
        "type": "Polygon",
        "coordinates": [
          [
            [
              127.39708,
              35.4312
            ],
            [
              127.39419,
              35.43263
            ],
            [
              127.39184,
              35.43057
            ],
            [
              127.39469,
              35.42849
            ],
            [
              127.39708,
              35.4312
            ]
          ]
        ]
      }
    },
    {
      "type": "Feature",
      "properties": {
        "id": "DET-008",
        "surveyId": "greenbelt",
        "cls": "불법 증축",
        "status": "found",
        "capturedAt": "2026-07-15"
      },
      "geometry": {
        "type": "Polygon",
        "coordinates": [
          [
            [
              127.36574,
              35.36215
            ],
            [
              127.36451,
              35.3593
            ],
            [
              127.36766,
              35.35846
            ],
            [
              127.36985,
              35.36048
            ],
            [
              127.36835,
              35.36327
            ],
            [
              127.36574,
              35.36215
            ]
          ]
        ]
      }
    },
    {
      "type": "Feature",
      "properties": {
        "id": "DET-009",
        "surveyId": "greenbelt",
        "cls": "무단 형질변경",
        "status": "done",
        "capturedAt": "2026-04-22"
      },
      "geometry": {
        "type": "Polygon",
        "coordinates": [
          [
            [
              127.36267,
              35.37595
            ],
            [
              127.36033,
              35.37387
            ],
            [
              127.36278,
              35.37118
            ],
            [
              127.36565,
              35.37399
            ],
            [
              127.36267,
              35.37595
            ]
          ]
        ]
      }
    },
    {
      "type": "Feature",
      "properties": {
        "id": "DET-010",
        "surveyId": "trash",
        "cls": "방치 쓰레기 소",
        "status": "hold",
        "capturedAt": "2026-07-15"
      },
      "geometry": {
        "type": "Polygon",
        "coordinates": [
          [
            [
              127.38474,
              35.39095
            ],
            [
              127.38194,
              35.3891
            ],
            [
              127.3845,
              35.38626
            ],
            [
              127.38652,
              35.38886
            ],
            [
              127.38474,
              35.39095
            ]
          ]
        ]
      }
    },
    {
      "type": "Feature",
      "properties": {
        "id": "DET-011",
        "surveyId": "trash",
        "cls": "방치 쓰레기 소",
        "status": "hold",
        "capturedAt": "2026-08-12"
      },
      "geometry": {
        "type": "Polygon",
        "coordinates": [
          [
            [
              127.36476,
              35.45952
            ],
            [
              127.36234,
              35.45933
            ],
            [
              127.36201,
              35.45707
            ],
            [
              127.36388,
              35.45519
            ],
            [
              127.36586,
              35.45724
            ],
            [
              127.36476,
              35.45952
            ]
          ]
        ]
      }
    },
    {
      "type": "Feature",
      "properties": {
        "id": "DET-012",
        "surveyId": "trash",
        "cls": "방치 쓰레기 소",
        "status": "doing",
        "capturedAt": "2026-02-14"
      },
      "geometry": {
        "type": "Polygon",
        "coordinates": [
          [
            [
              127.34312,
              35.45145
            ],
            [
              127.34047,
              35.45359
            ],
            [
              127.338,
              35.45143
            ],
            [
              127.34049,
              35.44879
            ],
            [
              127.34312,
              35.45145
            ]
          ]
        ]
      }
    },
    {
      "type": "Feature",
      "properties": {
        "id": "DET-013",
        "surveyId": "trash",
        "cls": "방치 쓰레기 대",
        "status": "doing",
        "capturedAt": "2026-04-22"
      },
      "geometry": {
        "type": "Polygon",
        "coordinates": [
          [
            [
              127.4029,
              35.40788
            ],
            [
              127.40267,
              35.40479
            ],
            [
              127.40619,
              35.40479
            ],
            [
              127.40754,
              35.40796
            ],
            [
              127.40479,
              35.40971
            ],
            [
              127.4029,
              35.40788
            ]
          ]
        ]
      }
    },
    {
      "type": "Feature",
      "properties": {
        "id": "DET-014",
        "surveyId": "trash",
        "cls": "방치 쓰레기 대",
        "status": "doing",
        "capturedAt": "2026-07-15"
      },
      "geometry": {
        "type": "Polygon",
        "coordinates": [
          [
            [
              127.35799,
              35.37356
            ],
            [
              127.35513,
              35.37498
            ],
            [
              127.3527,
              35.37398
            ],
            [
              127.35345,
              35.37143
            ],
            [
              127.35638,
              35.37024
            ],
            [
              127.35799,
              35.37356
            ]
          ]
        ]
      }
    },
    {
      "type": "Feature",
      "properties": {
        "id": "DET-015",
        "surveyId": "trash",
        "cls": "방치 쓰레기 대",
        "status": "hold",
        "capturedAt": "2026-07-15"
      },
      "geometry": {
        "type": "Polygon",
        "coordinates": [
          [
            [
              127.37341,
              35.43327
            ],
            [
              127.37165,
              35.431
            ],
            [
              127.3742,
              35.42881
            ],
            [
              127.37666,
              35.43077
            ],
            [
              127.37643,
              35.4341
            ],
            [
              127.37341,
              35.43327
            ]
          ]
        ]
      }
    },
    {
      "type": "Feature",
      "properties": {
        "id": "DET-016",
        "surveyId": "trash",
        "cls": "방치 쓰레기 대",
        "status": "doing",
        "capturedAt": "2026-04-05"
      },
      "geometry": {
        "type": "Polygon",
        "coordinates": [
          [
            [
              127.36604,
              35.38549
            ],
            [
              127.36575,
              35.38244
            ],
            [
              127.36873,
              35.38147
            ],
            [
              127.36919,
              35.38475
            ],
            [
              127.36604,
              35.38549
            ]
          ]
        ]
      }
    },
    {
      "type": "Feature",
      "properties": {
        "id": "DET-017",
        "surveyId": "trash",
        "cls": "방치 쓰레기 소",
        "status": "hold",
        "capturedAt": "2026-03-18"
      },
      "geometry": {
        "type": "Polygon",
        "coordinates": [
          [
            [
              127.41914,
              35.42789
            ],
            [
              127.41986,
              35.42496
            ],
            [
              127.42209,
              35.42319
            ],
            [
              127.42345,
              35.42576
            ],
            [
              127.4222,
              35.42775
            ],
            [
              127.41914,
              35.42789
            ]
          ]
        ]
      }
    },
    {
      "type": "Feature",
      "properties": {
        "id": "DET-018",
        "surveyId": "trash",
        "cls": "방치 쓰레기 대",
        "status": "hold",
        "capturedAt": "2026-07-15"
      },
      "geometry": {
        "type": "Polygon",
        "coordinates": [
          [
            [
              127.36083,
              35.45945
            ],
            [
              127.35817,
              35.4591
            ],
            [
              127.35787,
              35.45663
            ],
            [
              127.35995,
              35.45499
            ],
            [
              127.36164,
              35.45703
            ],
            [
              127.36083,
              35.45945
            ]
          ]
        ]
      }
    },
    {
      "type": "Feature",
      "properties": {
        "id": "DET-019",
        "surveyId": "trash",
        "cls": "방치 쓰레기 소",
        "status": "found",
        "capturedAt": "2026-08-12"
      },
      "geometry": {
        "type": "Polygon",
        "coordinates": [
          [
            [
              127.41807,
              35.43532
            ],
            [
              127.4153,
              35.43673
            ],
            [
              127.41257,
              35.43492
            ],
            [
              127.41458,
              35.43268
            ],
            [
              127.41733,
              35.43216
            ],
            [
              127.41807,
              35.43532
            ]
          ]
        ]
      }
    },
    {
      "type": "Feature",
      "properties": {
        "id": "DET-020",
        "surveyId": "trash",
        "cls": "방치 쓰레기 대",
        "status": "hold",
        "capturedAt": "2026-08-12"
      },
      "geometry": {
        "type": "Polygon",
        "coordinates": [
          [
            [
              127.40945,
              35.40659
            ],
            [
              127.40664,
              35.40745
            ],
            [
              127.40529,
              35.40551
            ],
            [
              127.40621,
              35.40354
            ],
            [
              127.40849,
              35.40391
            ],
            [
              127.40945,
              35.40659
            ]
          ]
        ]
      }
    },
    {
      "type": "Feature",
      "properties": {
        "id": "DET-021",
        "surveyId": "incinerator",
        "cls": "불법소각 흔적",
        "status": "doing",
        "capturedAt": "2026-03-18"
      },
      "geometry": {
        "type": "Polygon",
        "coordinates": [
          [
            [
              127.43308,
              35.39438
            ],
            [
              127.42966,
              35.39402
            ],
            [
              127.42951,
              35.39101
            ],
            [
              127.43172,
              35.3893
            ],
            [
              127.43419,
              35.3912
            ],
            [
              127.43308,
              35.39438
            ]
          ]
        ]
      }
    },
    {
      "type": "Feature",
      "properties": {
        "id": "DET-022",
        "surveyId": "incinerator",
        "cls": "불법소각 흔적",
        "status": "found",
        "capturedAt": "2026-06-30"
      },
      "geometry": {
        "type": "Polygon",
        "coordinates": [
          [
            [
              127.37626,
              35.42307
            ],
            [
              127.3737,
              35.42415
            ],
            [
              127.37195,
              35.42168
            ],
            [
              127.37387,
              35.41941
            ],
            [
              127.37647,
              35.42046
            ],
            [
              127.37626,
              35.42307
            ]
          ]
        ]
      }
    },
    {
      "type": "Feature",
      "properties": {
        "id": "DET-023",
        "surveyId": "incinerator",
        "cls": "소각 잔재물",
        "status": "done",
        "capturedAt": "2026-04-05"
      },
      "geometry": {
        "type": "Polygon",
        "coordinates": [
          [
            [
              127.43065,
              35.43267
            ],
            [
              127.42883,
              35.42896
            ],
            [
              127.4322,
              35.42746
            ],
            [
              127.4336,
              35.43038
            ],
            [
              127.43065,
              35.43267
            ]
          ]
        ]
      }
    },
    {
      "type": "Feature",
      "properties": {
        "id": "DET-024",
        "surveyId": "incinerator",
        "cls": "불법소각 흔적",
        "status": "done",
        "capturedAt": "2026-04-22"
      },
      "geometry": {
        "type": "Polygon",
        "coordinates": [
          [
            [
              127.36511,
              35.45098
            ],
            [
              127.36607,
              35.4479
            ],
            [
              127.36901,
              35.4492
            ],
            [
              127.369,
              35.45164
            ],
            [
              127.36699,
              35.45257
            ],
            [
              127.36511,
              35.45098
            ]
          ]
        ]
      }
    },
    {
      "type": "Feature",
      "properties": {
        "id": "DET-025",
        "surveyId": "incinerator",
        "cls": "소각 잔재물",
        "status": "doing",
        "capturedAt": "2026-05-27"
      },
      "geometry": {
        "type": "Polygon",
        "coordinates": [
          [
            [
              127.40884,
              35.4094
            ],
            [
              127.40625,
              35.41222
            ],
            [
              127.40351,
              35.40913
            ],
            [
              127.40655,
              35.4062
            ],
            [
              127.40884,
              35.4094
            ]
          ]
        ]
      }
    },
    {
      "type": "Feature",
      "properties": {
        "id": "DET-026",
        "surveyId": "incinerator",
        "cls": "소각 잔재물",
        "status": "doing",
        "capturedAt": "2026-06-11"
      },
      "geometry": {
        "type": "Polygon",
        "coordinates": [
          [
            [
              127.38465,
              35.40592
            ],
            [
              127.38173,
              35.40715
            ],
            [
              127.38111,
              35.4038
            ],
            [
              127.38343,
              35.40203
            ],
            [
              127.38656,
              35.40336
            ],
            [
              127.38465,
              35.40592
            ]
          ]
        ]
      }
    },
    {
      "type": "Feature",
      "properties": {
        "id": "DET-027",
        "surveyId": "incinerator",
        "cls": "소각 잔재물",
        "status": "done",
        "capturedAt": "2026-04-05"
      },
      "geometry": {
        "type": "Polygon",
        "coordinates": [
          [
            [
              127.42533,
              35.38482
            ],
            [
              127.42569,
              35.38236
            ],
            [
              127.42804,
              35.38214
            ],
            [
              127.4292,
              35.38413
            ],
            [
              127.4275,
              35.38563
            ],
            [
              127.42533,
              35.38482
            ]
          ]
        ]
      }
    },
    {
      "type": "Feature",
      "properties": {
        "id": "DET-028",
        "surveyId": "incinerator",
        "cls": "불법소각 흔적",
        "status": "doing",
        "capturedAt": "2026-04-22"
      },
      "geometry": {
        "type": "Polygon",
        "coordinates": [
          [
            [
              127.43179,
              35.37688
            ],
            [
              127.4298,
              35.37589
            ],
            [
              127.42998,
              35.37345
            ],
            [
              127.43298,
              35.37228
            ],
            [
              127.43368,
              35.37541
            ],
            [
              127.43179,
              35.37688
            ]
          ]
        ]
      }
    },
    {
      "type": "Feature",
      "properties": {
        "id": "DET-029",
        "surveyId": "pothole",
        "cls": "포트홀 소",
        "status": "doing",
        "capturedAt": "2026-05-27"
      },
      "geometry": {
        "type": "Polygon",
        "coordinates": [
          [
            [
              127.37876,
              35.4061
            ],
            [
              127.37546,
              35.40489
            ],
            [
              127.3759,
              35.40116
            ],
            [
              127.37916,
              35.40141
            ],
            [
              127.38076,
              35.40368
            ],
            [
              127.37876,
              35.4061
            ]
          ]
        ]
      }
    },
    {
      "type": "Feature",
      "properties": {
        "id": "DET-030",
        "surveyId": "pothole",
        "cls": "포트홀 대",
        "status": "found",
        "capturedAt": "2026-07-15"
      },
      "geometry": {
        "type": "Polygon",
        "coordinates": [
          [
            [
              127.35327,
              35.36421
            ],
            [
              127.35448,
              35.36144
            ],
            [
              127.35797,
              35.36158
            ],
            [
              127.35792,
              35.365
            ],
            [
              127.35523,
              35.36655
            ],
            [
              127.35327,
              35.36421
            ]
          ]
        ]
      }
    },
    {
      "type": "Feature",
      "properties": {
        "id": "DET-031",
        "surveyId": "pothole",
        "cls": "포트홀 대",
        "status": "found",
        "capturedAt": "2026-07-15"
      },
      "geometry": {
        "type": "Polygon",
        "coordinates": [
          [
            [
              127.36302,
              35.384
            ],
            [
              127.36209,
              35.38059
            ],
            [
              127.36527,
              35.38022
            ],
            [
              127.36767,
              35.38167
            ],
            [
              127.36621,
              35.38457
            ],
            [
              127.36302,
              35.384
            ]
          ]
        ]
      }
    },
    {
      "type": "Feature",
      "properties": {
        "id": "DET-032",
        "surveyId": "pothole",
        "cls": "포트홀 대",
        "status": "found",
        "capturedAt": "2026-03-18"
      },
      "geometry": {
        "type": "Polygon",
        "coordinates": [
          [
            [
              127.43501,
              35.39897
            ],
            [
              127.43104,
              35.39943
            ],
            [
              127.43072,
              35.3961
            ],
            [
              127.43426,
              35.39462
            ],
            [
              127.43501,
              35.39897
            ]
          ]
        ]
      }
    },
    {
      "type": "Feature",
      "properties": {
        "id": "DET-033",
        "surveyId": "pothole",
        "cls": "포트홀 소",
        "status": "done",
        "capturedAt": "2026-03-02"
      },
      "geometry": {
        "type": "Polygon",
        "coordinates": [
          [
            [
              127.41704,
              35.41037
            ],
            [
              127.4149,
              35.40837
            ],
            [
              127.41656,
              35.40593
            ],
            [
              127.41906,
              35.40791
            ],
            [
              127.41704,
              35.41037
            ]
          ]
        ]
      }
    },
    {
      "type": "Feature",
      "properties": {
        "id": "DET-034",
        "surveyId": "pothole",
        "cls": "포트홀 대",
        "status": "done",
        "capturedAt": "2026-06-11"
      },
      "geometry": {
        "type": "Polygon",
        "coordinates": [
          [
            [
              127.36401,
              35.39108
            ],
            [
              127.36243,
              35.3879
            ],
            [
              127.36615,
              35.38665
            ],
            [
              127.3673,
              35.39025
            ],
            [
              127.36401,
              35.39108
            ]
          ]
        ]
      }
    },
    {
      "type": "Feature",
      "properties": {
        "id": "DET-035",
        "surveyId": "pothole",
        "cls": "포트홀 대",
        "status": "doing",
        "capturedAt": "2026-04-05"
      },
      "geometry": {
        "type": "Polygon",
        "coordinates": [
          [
            [
              127.39756,
              35.45226
            ],
            [
              127.39845,
              35.44937
            ],
            [
              127.4019,
              35.44993
            ],
            [
              127.40139,
              35.45295
            ],
            [
              127.39911,
              35.45495
            ],
            [
              127.39756,
              35.45226
            ]
          ]
        ]
      }
    },
    {
      "type": "Feature",
      "properties": {
        "id": "DET-036",
        "surveyId": "pothole",
        "cls": "포트홀 대",
        "status": "found",
        "capturedAt": "2026-07-30"
      },
      "geometry": {
        "type": "Polygon",
        "coordinates": [
          [
            [
              127.43059,
              35.4194
            ],
            [
              127.42697,
              35.41844
            ],
            [
              127.42798,
              35.41484
            ],
            [
              127.43094,
              35.41617
            ],
            [
              127.43059,
              35.4194
            ]
          ]
        ]
      }
    },
    {
      "type": "Feature",
      "properties": {
        "id": "DET-037",
        "surveyId": "pothole",
        "cls": "포트홀 대",
        "status": "doing",
        "capturedAt": "2026-06-11"
      },
      "geometry": {
        "type": "Polygon",
        "coordinates": [
          [
            [
              127.41091,
              35.4347
            ],
            [
              127.40965,
              35.43166
            ],
            [
              127.41251,
              35.42977
            ],
            [
              127.41389,
              35.43304
            ],
            [
              127.41091,
              35.4347
            ]
          ]
        ]
      }
    },
    {
      "type": "Feature",
      "properties": {
        "id": "DET-038",
        "surveyId": "pothole",
        "cls": "포트홀 대",
        "status": "doing",
        "capturedAt": "2026-05-09"
      },
      "geometry": {
        "type": "Polygon",
        "coordinates": [
          [
            [
              127.40105,
              35.4095
            ],
            [
              127.3979,
              35.41117
            ],
            [
              127.39603,
              35.40885
            ],
            [
              127.3971,
              35.40677
            ],
            [
              127.39942,
              35.4067
            ],
            [
              127.40105,
              35.4095
            ]
          ]
        ]
      }
    },
    {
      "type": "Feature",
      "properties": {
        "id": "DET-039",
        "surveyId": "pothole",
        "cls": "포트홀 대",
        "status": "doing",
        "capturedAt": "2026-05-27"
      },
      "geometry": {
        "type": "Polygon",
        "coordinates": [
          [
            [
              127.37441,
              35.41012
            ],
            [
              127.37329,
              35.40709
            ],
            [
              127.37553,
              35.4055
            ],
            [
              127.37744,
              35.4081
            ],
            [
              127.37441,
              35.41012
            ]
          ]
        ]
      }
    },
    {
      "type": "Feature",
      "properties": {
        "id": "DET-040",
        "surveyId": "pothole",
        "cls": "포트홀 대",
        "status": "doing",
        "capturedAt": "2026-05-27"
      },
      "geometry": {
        "type": "Polygon",
        "coordinates": [
          [
            [
              127.41118,
              35.44009
            ],
            [
              127.41073,
              35.43719
            ],
            [
              127.41217,
              35.43568
            ],
            [
              127.41475,
              35.43624
            ],
            [
              127.41454,
              35.43943
            ],
            [
              127.41118,
              35.44009
            ]
          ]
        ]
      }
    },
    {
      "type": "Feature",
      "properties": {
        "id": "DET-041",
        "surveyId": "greenhouse",
        "cls": "비닐하우스 신축",
        "status": "done",
        "capturedAt": "2026-05-09"
      },
      "geometry": {
        "type": "Polygon",
        "coordinates": [
          [
            [
              127.35306,
              35.38392
            ],
            [
              127.34864,
              35.38369
            ],
            [
              127.34972,
              35.38009
            ],
            [
              127.35343,
              35.37952
            ],
            [
              127.35306,
              35.38392
            ]
          ]
        ]
      }
    },
    {
      "type": "Feature",
      "properties": {
        "id": "DET-042",
        "surveyId": "greenhouse",
        "cls": "비닐하우스 신축",
        "status": "found",
        "capturedAt": "2026-06-30"
      },
      "geometry": {
        "type": "Polygon",
        "coordinates": [
          [
            [
              127.40671,
              35.41829
            ],
            [
              127.40396,
              35.42012
            ],
            [
              127.40136,
              35.41914
            ],
            [
              127.40141,
              35.41597
            ],
            [
              127.40437,
              35.41607
            ],
            [
              127.40671,
              35.41829
            ]
          ]
        ]
      }
    },
    {
      "type": "Feature",
      "properties": {
        "id": "DET-043",
        "surveyId": "greenhouse",
        "cls": "비닐하우스 노후",
        "status": "done",
        "capturedAt": "2026-04-22"
      },
      "geometry": {
        "type": "Polygon",
        "coordinates": [
          [
            [
              127.43048,
              35.41757
            ],
            [
              127.42823,
              35.41998
            ],
            [
              127.42608,
              35.41746
            ],
            [
              127.42666,
              35.41438
            ],
            [
              127.42965,
              35.41507
            ],
            [
              127.43048,
              35.41757
            ]
          ]
        ]
      }
    },
    {
      "type": "Feature",
      "properties": {
        "id": "DET-044",
        "surveyId": "greenhouse",
        "cls": "비닐하우스 노후",
        "status": "found",
        "capturedAt": "2026-04-05"
      },
      "geometry": {
        "type": "Polygon",
        "coordinates": [
          [
            [
              127.37015,
              35.37105
            ],
            [
              127.36703,
              35.37418
            ],
            [
              127.36491,
              35.37103
            ],
            [
              127.36705,
              35.369
            ],
            [
              127.37015,
              35.37105
            ]
          ]
        ]
      }
    },
    {
      "type": "Feature",
      "properties": {
        "id": "DET-045",
        "surveyId": "greenhouse",
        "cls": "비닐하우스 노후",
        "status": "found",
        "capturedAt": "2026-05-27"
      },
      "geometry": {
        "type": "Polygon",
        "coordinates": [
          [
            [
              127.3769,
              35.38362
            ],
            [
              127.37421,
              35.38086
            ],
            [
              127.37736,
              35.37836
            ],
            [
              127.37958,
              35.38134
            ],
            [
              127.3769,
              35.38362
            ]
          ]
        ]
      }
    },
    {
      "type": "Feature",
      "properties": {
        "id": "DET-046",
        "surveyId": "greenhouse",
        "cls": "비닐하우스 노후",
        "status": "found",
        "capturedAt": "2026-06-11"
      },
      "geometry": {
        "type": "Polygon",
        "coordinates": [
          [
            [
              127.3677,
              35.41722
            ],
            [
              127.36475,
              35.4163
            ],
            [
              127.36575,
              35.4128
            ],
            [
              127.36898,
              35.41444
            ],
            [
              127.3677,
              35.41722
            ]
          ]
        ]
      }
    },
    {
      "type": "Feature",
      "properties": {
        "id": "DET-047",
        "surveyId": "greenhouse",
        "cls": "비닐하우스 노후",
        "status": "found",
        "capturedAt": "2026-07-30"
      },
      "geometry": {
        "type": "Polygon",
        "coordinates": [
          [
            [
              127.35843,
              35.39903
            ],
            [
              127.35577,
              35.39836
            ],
            [
              127.3566,
              35.3957
            ],
            [
              127.35935,
              35.39449
            ],
            [
              127.36077,
              35.39749
            ],
            [
              127.35843,
              35.39903
            ]
          ]
        ]
      }
    },
    {
      "type": "Feature",
      "properties": {
        "id": "DET-048",
        "surveyId": "greenhouse",
        "cls": "비닐하우스 노후",
        "status": "found",
        "capturedAt": "2026-07-30"
      },
      "geometry": {
        "type": "Polygon",
        "coordinates": [
          [
            [
              127.43605,
              35.40598
            ],
            [
              127.43814,
              35.40255
            ],
            [
              127.44137,
              35.40491
            ],
            [
              127.43927,
              35.40816
            ],
            [
              127.43605,
              35.40598
            ]
          ]
        ]
      }
    },
    {
      "type": "Feature",
      "properties": {
        "id": "DET-049",
        "surveyId": "greenhouse",
        "cls": "비닐하우스 노후",
        "status": "found",
        "capturedAt": "2026-03-02"
      },
      "geometry": {
        "type": "Polygon",
        "coordinates": [
          [
            [
              127.40435,
              35.42436
            ],
            [
              127.40467,
              35.42089
            ],
            [
              127.40754,
              35.42013
            ],
            [
              127.40928,
              35.42233
            ],
            [
              127.40777,
              35.42487
            ],
            [
              127.40435,
              35.42436
            ]
          ]
        ]
      }
    },
    {
      "type": "Feature",
      "properties": {
        "id": "DET-050",
        "surveyId": "greenhouse",
        "cls": "비닐하우스 노후",
        "status": "found",
        "capturedAt": "2026-07-15"
      },
      "geometry": {
        "type": "Polygon",
        "coordinates": [
          [
            [
              127.34913,
              35.41043
            ],
            [
              127.34766,
              35.41257
            ],
            [
              127.34567,
              35.41086
            ],
            [
              127.34544,
              35.40801
            ],
            [
              127.34852,
              35.40801
            ],
            [
              127.34913,
              35.41043
            ]
          ]
        ]
      }
    }
  ]
}