{
"type": "FeatureCollection",
"name": "detected_objects",
"crs": { "type": "name", "properties": { "name": "urn:ogc:def:crs:OGC:1.3:CRS84" } },
"xy_coordinate_resolution": 1e-05,
"features": [
{ "type": "Feature", "properties": { "FID": 0 }, "geometry": { "type": "Polygon", "coordinates": [ [ [ 126.8977, 33.51571 ], [ 126.89771, 33.51502 ], [ 126.89625, 33.51501 ], [ 126.89625, 33.5157 ], [ 126.8977, 33.51571 ] ] ] } },
{ "type": "Feature", "properties": { "FID": 1 }, "geometry": { "type": "Polygon", "coordinates": [ [ [ 126.89872, 33.51654 ], [ 126.89873, 33.51599 ], [ 126.89796, 33.51599 ], [ 126.89795, 33.51654 ], [ 126.89872, 33.51654 ] ] ] } }
]
}
