{
  "type": "FeatureCollection",
  "note": "simplified placeholder",
  "features": [
    {
      "type": "Feature",
      "properties": { "name": "대한민국" },
      "geometry": {
        "type": "Polygon",
        "coordinates": [
          [
            [126.5, 37.75],
            [126.3, 37.55],
            [126.45, 37.3],
            [126.3, 37.15],
            [126.5, 36.95],
            [126.35, 36.75],
            [126.5, 36.55],
            [126.35, 36.35],
            [126.45, 36.15],
            [126.35, 35.95],
            [126.5, 35.75],
            [126.35, 35.55],
            [126.4, 35.35],
            [126.55, 35.15],
            [126.6, 34.95],
            [126.85, 34.75],
            [127.15, 34.62],
            [127.35, 34.6],
            [127.5, 34.72],
            [127.6, 34.88],
            [127.75, 34.82],
            [127.95, 34.88],
            [128.15, 34.95],
            [128.4, 34.95],
            [128.6, 35.0],
            [128.85, 35.1],
            [129.05, 35.2],
            [129.35, 35.45],
            [129.45, 35.65],
            [129.4, 35.9],
            [129.5, 36.15],
            [129.42, 36.4],
            [129.5, 36.65],
            [129.35, 36.9],
            [129.25, 37.15],
            [129.15, 37.4],
            [129.3, 37.65],
            [129.2, 37.9],
            [129.0, 38.1],
            [128.6, 38.3],
            [128.1, 38.32],
            [127.65, 38.25],
            [127.2, 38.1],
            [126.9, 37.95],
            [126.65, 37.85],
            [126.5, 37.75]
          ]
        ]
      }
    }
  ]
}
