{"type":"FeatureCollection","name":"namwon-emd","features":[{"type":"Feature","properties":{"nm":"하정동","cd":"52190102","sido":"전북특별자치도","sgg":"남원시"},"geometry":{"type":"Polygon","coordinates":[[[127.38264,35.40912],[127.38254,35.40629],[127.37664,35.40647],[127.37641,35.40743],[127.3766,35.40933],[127.38264,35.40912]]]}},{"type":"Feature","properties":{"nm":"동충동","cd":"52190101","sido":"전북특별자치도","sgg":"남원시"},"geometry":{"type":"Polygon","coordinates":[[[127.38844,35.41216],[127.39113,35.41166],[127.3869,35.40899],[127.37669,35.40932],[127.37662,35.40984],[127.37699,35.41403],[127.3862,35.41394],[127.38612,35.41197],[127.38844,35.41216]]]}},{"type":"Feature","properties":{"nm":"죽항동","cd":"52190103","sido":"전북특별자치도","sgg":"남원시"},"geometry":{"type":"Polygon","coordinates":[[[127.39397,35.41058],[127.3878,35.40628],[127.38686,35.40683],[127.38254,35.40629],[127.38264,35.40912],[127.38474,35.40908],[127.38813,35.40958],[127.39208,35.41265],[127.39397,35.41058]]]}},{"type":"Feature","properties":{"nm":"쌍교동","cd":"52190104","sido":"전북특별자치도","sgg":"남원시"},"geometry":{"type":"Polygon","coordinates":[[[127.38254,35.40629],[127.38686,35.40683],[127.3878,35.40628],[127.38197,35.40232],[127.38097,35.40223],[127.38084,35.40377],[127.37962,35.40426],[127.37989,35.40637],[127.38254,35.40629]]]}},{"type":"Feature","properties":{"nm":"천거동","cd":"52190105","sido":"전북특별자치도","sgg":"남원시"},"geometry":{"type":"Polygon","coordinates":[[[127.38136,35.40195],[127.37481,35.39921],[127.37434,35.40058],[127.37789,35.40274],[127.37806,35.40424],[127.38008,35.40418],[127.38136,35.40195]]]}},{"type":"Feature","properties":{"nm":"금동","cd":"52190106","sido":"전북특별자치도","sgg":"남원시"},"geometry":{"type":"Polygon","coordinates":[[[127.37989,35.40637],[127.3796,35.40421],[127.37806,35.40424],[127.37801,35.40278],[127.37395,35.40031],[127.36671,35.3998],[127.36247,35.39845],[127.36154,35.39972],[127.36895,35.40499],[127.37016,35.4067],[127.37989,35.40637]]]}},{"type":"Feature","properties":{"nm":"조산동","cd":"52190107","sido":"전북특별자치도","sgg":"남원시"},"geometry":{"type":"Polygon","coordinates":[[[127.37481,35.39921],[127.37207,35.39608],[127.36441,35.39392],[127.3575,35.38954],[127.35634,35.38944],[127.35649,35.39345],[127.35739,35.39574],[127.35856,35.39833],[127.36154,35.39972],[127.3627,35.39847],[127.36778,35.40019],[127.3725,35.39978],[127.37434,35.40058],[127.37481,35.39921]]]}},{"type":"Feature","properties":{"nm":"왕정동","cd":"52190108","sido":"전북특별자치도","sgg":"남원시"},"geometry":{"type":"Polygon","coordinates":[[[127.36896,35.4189],[127.36984,35.41847],[127.36994,35.4162],[127.37149,35.41505],[127.37126,35.41296],[127.37253,35.41181],[127.37521,35.41422],[127.37681,35.41463],[127.37648,35.40778],[127.37639,35.40645],[127.37016,35.4067],[127.36895,35.40499],[127.36587,35.40337],[127.36516,35.40538],[127.36388,35.40626],[127.36344,35.40735],[127.36608,35.40993],[127.36557,35.412],[127.36656,35.4155],[127.36628,35.41789],[127.36896,35.4189]]]}},{"type":"Feature","properties":{"nm":"신정동","cd":"52190109","sido":"전북특별자치도","sgg":"남원시"},"geometry":{"type":"Polygon","coordinates":[[[127.35862,35.4236],[127.3619,35.42327],[127.3639,35.42202],[127.36548,35.41973],[127.36539,35.4187],[127.36645,35.41809],[127.36557,35.412],[127.36608,35.40993],[127.36344,35.40735],[127.36587,35.40337],[127.36167,35.39977],[127.35856,35.39833],[127.35739,35.39574],[127.35659,35.39593],[127.35656,35.39897],[127.3565,35.40042],[127.35573,35.40023],[127.35416,35.40182],[127.35373,35.40378],[127.35584,35.40587],[127.35602,35.40904],[127.35444,35.41129],[127.3568,35.41329],[127.35824,35.41768],[127.3574,35.42095],[127.35565,35.42301],[127.35437,35.4267],[127.35637,35.42625],[127.35862,35.4236]]]}},{"type":"Feature","properties":{"nm":"화정동","cd":"52190110","sido":"전북특별자치도","sgg":"남원시"},"geometry":{"type":"Polygon","coordinates":[[[127.3505,35.40448],[127.34666,35.40463],[127.34183,35.40923],[127.34221,35.4113],[127.34047,35.4125],[127.33812,35.41291],[127.33367,35.41212],[127.33617,35.41496],[127.33493,35.4157],[127.33663,35.41751],[127.34603,35.41756],[127.34678,35.4206],[127.34889,35.42297],[127.35437,35.4267],[127.35565,35.42301],[127.35772,35.42019],[127.35813,35.41629],[127.35669,35.41312],[127.35444,35.41129],[127.35602,35.40904],[127.35584,35.40587],[127.35456,35.40471],[127.3505,35.40448]]]}},{"type":"Feature","properties":{"nm":"향교동","cd":"52190111","sido":"전북특별자치도","sgg":"남원시"},"geometry":{"type":"Polygon","coordinates":[[[127.39377,35.42434],[127.39024,35.42044],[127.39005,35.41806],[127.38877,35.41683],[127.39124,35.41398],[127.38886,35.41343],[127.38835,35.41197],[127.38612,35.41197],[127.3862,35.41394],[127.37573,35.41432],[127.37253,35.41181],[127.37126,35.41296],[127.37149,35.41505],[127.36994,35.4162],[127.36984,35.41847],[127.36896,35.4189],[127.37025,35.41883],[127.37241,35.4203],[127.37392,35.41903],[127.37454,35.41955],[127.37386,35.42148],[127.37239,35.42226],[127.37499,35.42184],[127.37765,35.42482],[127.38405,35.42424],[127.38469,35.4223],[127.38748,35.42397],[127.38989,35.42402],[127.3912,35.42579],[127.39238,35.4244],[127.39377,35.42434]]]}},{"type":"Feature","properties":{"nm":"용정동","cd":"52190112","sido":"전북특별자치도","sgg":"남원시"},"geometry":{"type":"Polygon","coordinates":[[[127.3937,35.44281],[127.39535,35.43733],[127.39267,35.4349],[127.3909,35.4317],[127.39197,35.42725],[127.38989,35.42402],[127.38748,35.42397],[127.38469,35.4223],[127.38398,35.42426],[127.37261,35.42531],[127.36957,35.43278],[127.37176,35.43214],[127.37299,35.43472],[127.37297,35.43557],[127.36936,35.43732],[127.37091,35.43783],[127.3711,35.43929],[127.37344,35.44075],[127.37317,35.44142],[127.37542,35.43986],[127.37886,35.43888],[127.3787,35.44109],[127.3803,35.44271],[127.38126,35.44268],[127.38107,35.44033],[127.38338,35.43968],[127.38315,35.43838],[127.38503,35.439],[127.38744,35.43856],[127.3889,35.4405],[127.39274,35.44153],[127.3937,35.44281]]]}},{"type":"Feature","properties":{"nm":"광치동","cd":"52190113","sido":"전북특별자치도","sgg":"남원시"},"geometry":{"type":"Polygon","coordinates":[[[127.39976,35.46175],[127.3992,35.45931],[127.40193,35.45517],[127.39533,35.45326],[127.39383,35.45093],[127.39409,35.44956],[127.39204,35.44733],[127.39253,35.44446],[127.3937,35.44281],[127.39274,35.44153],[127.3889,35.4405],[127.38744,35.43856],[127.38503,35.439],[127.38347,35.4383],[127.38338,35.43968],[127.38107,35.44033],[127.38169,35.44254],[127.3803,35.44271],[127.3787,35.44109],[127.37886,35.43888],[127.37695,35.43953],[127.37344,35.44152],[127.37186,35.43922],[127.36867,35.43986],[127.36594,35.44288],[127.36681,35.44499],[127.36647,35.44621],[127.36113,35.44964],[127.3615,35.45146],[127.3597,35.45206],[127.35848,35.45391],[127.35846,35.45541],[127.36205,35.45652],[127.36312,35.45859],[127.36788,35.46013],[127.37155,35.4594],[127.37424,35.46022],[127.37551,35.46093],[127.37763,35.46531],[127.38414,35.46357],[127.38531,35.46067],[127.38682,35.46],[127.39065,35.46152],[127.39341,35.46677],[127.39699,35.46784],[127.39806,35.46371],[127.39976,35.46175]]]}},{"type":"Feature","properties":{"nm":"내척동","cd":"52190114","sido":"전북특별자치도","sgg":"남원시"},"geometry":{"type":"Polygon","coordinates":[[[127.35848,35.45391],[127.3597,35.45206],[127.3615,35.45146],[127.36113,35.44964],[127.36647,35.44621],[127.36681,35.44499],[127.36594,35.44288],[127.36672,35.44175],[127.36867,35.43986],[127.3711,35.43929],[127.37091,35.43783],[127.36936,35.43732],[127.37297,35.43557],[127.37158,35.43215],[127.36876,35.43275],[127.36601,35.43178],[127.36384,35.42976],[127.35751,35.43158],[127.35553,35.43167],[127.35208,35.43041],[127.34984,35.43218],[127.35007,35.43466],[127.34829,35.43585],[127.34825,35.43833],[127.34937,35.43912],[127.34993,35.44108],[127.34893,35.44422],[127.3497,35.45015],[127.35355,35.45147],[127.35333,35.45234],[127.35447,35.45358],[127.35848,35.45391]]]}},{"type":"Feature","properties":{"nm":"산곡동","cd":"52190115","sido":"전북특별자치도","sgg":"남원시"},"geometry":{"type":"Polygon","coordinates":[[[127.36957,35.43278],[127.37261,35.42531],[127.37765,35.42482],[127.37499,35.42184],[127.37239,35.42226],[127.37386,35.42148],[127.37454,35.41964],[127.37392,35.41903],[127.37241,35.4203],[127.37025,35.41883],[127.3684,35.41899],[127.36645,35.41809],[127.36539,35.4187],[127.36474,35.42118],[127.3619,35.42327],[127.35825,35.4237],[127.35637,35.42625],[127.35437,35.4267],[127.35299,35.42593],[127.35225,35.42894],[127.35125,35.42961],[127.35553,35.43167],[127.35974,35.43127],[127.36384,35.42976],[127.36602,35.43178],[127.36957,35.43278]]]}},{"type":"Feature","properties":{"nm":"도통동","cd":"52190116","sido":"전북특별자치도","sgg":"남원시"},"geometry":{"type":"Polygon","coordinates":[[[127.40128,35.41688],[127.39397,35.41058],[127.39216,35.41265],[127.39113,35.41166],[127.38844,35.41216],[127.38886,35.41343],[127.39124,35.41398],[127.38877,35.41683],[127.39005,35.4183],[127.39024,35.42044],[127.39377,35.42434],[127.39696,35.4227],[127.3979,35.4211],[127.3999,35.42123],[127.40221,35.4177],[127.40128,35.41688]]]}},{"type":"Feature","properties":{"nm":"월락동","cd":"52190117","sido":"전북특별자치도","sgg":"남원시"},"geometry":{"type":"Polygon","coordinates":[[[127.39535,35.43733],[127.39901,35.43489],[127.40131,35.4347],[127.40399,35.43576],[127.406,35.43467],[127.40772,35.43172],[127.40655,35.43013],[127.40714,35.42653],[127.40874,35.4256],[127.41018,35.42574],[127.41121,35.42418],[127.41249,35.4247],[127.41057,35.42125],[127.40821,35.4198],[127.40873,35.4193],[127.40296,35.41772],[127.40081,35.41693],[127.40221,35.4177],[127.3999,35.42123],[127.3979,35.4211],[127.39696,35.4227],[127.39467,35.42412],[127.39238,35.4244],[127.3912,35.42579],[127.39193,35.42914],[127.3909,35.4317],[127.39267,35.4349],[127.39535,35.43733]]]}},{"type":"Feature","properties":{"nm":"고죽동","cd":"52190118","sido":"전북특별자치도","sgg":"남원시"},"geometry":{"type":"Polygon","coordinates":[[[127.41051,35.44571],[127.41069,35.44435],[127.40872,35.44214],[127.40875,35.44107],[127.41273,35.43815],[127.41174,35.43593],[127.41495,35.43603],[127.41692,35.4334],[127.4187,35.4328],[127.41594,35.42718],[127.41382,35.42516],[127.41121,35.42418],[127.41018,35.42574],[127.40874,35.4256],[127.40795,35.4264],[127.40714,35.42653],[127.40729,35.42842],[127.40651,35.42968],[127.40772,35.43172],[127.406,35.43467],[127.40399,35.43576],[127.40131,35.4347],[127.39901,35.43489],[127.39486,35.43791],[127.39448,35.44119],[127.39253,35.44446],[127.39204,35.44733],[127.39409,35.44956],[127.39383,35.45093],[127.39533,35.45326],[127.40142,35.45512],[127.40243,35.45182],[127.40686,35.45035],[127.40858,35.44729],[127.41037,35.44655],[127.41051,35.44571]]]}},{"type":"Feature","properties":{"nm":"식정동","cd":"52190119","sido":"전북특별자치도","sgg":"남원시"},"geometry":{"type":"Polygon","coordinates":[[[127.43549,35.45749],[127.43502,35.45233],[127.4317,35.44641],[127.43205,35.44457],[127.43091,35.44133],[127.4261,35.43688],[127.42107,35.43446],[127.41928,35.43203],[127.41838,35.43204],[127.4187,35.4328],[127.41692,35.4334],[127.41591,35.43483],[127.41495,35.43603],[127.41174,35.43593],[127.41273,35.43815],[127.40875,35.44107],[127.40872,35.44214],[127.41069,35.44435],[127.41051,35.44571],[127.41214,35.4463],[127.41341,35.4454],[127.41522,35.44559],[127.41936,35.44314],[127.42156,35.44369],[127.42162,35.44446],[127.42313,35.4442],[127.42343,35.45013],[127.4224,35.45485],[127.42339,35.45579],[127.42397,35.46004],[127.43549,35.45749]]]}},{"type":"Feature","properties":{"nm":"갈치동","cd":"52190120","sido":"전북특별자치도","sgg":"남원시"},"geometry":{"type":"Polygon","coordinates":[[[127.41841,35.4681],[127.41957,35.46544],[127.42168,35.46506],[127.42513,35.46269],[127.42418,35.46145],[127.42339,35.45579],[127.4224,35.45485],[127.42343,35.45013],[127.42313,35.4442],[127.42162,35.44446],[127.42156,35.44369],[127.41936,35.44314],[127.41677,35.44456],[127.41214,35.4463],[127.41051,35.44571],[127.41037,35.44655],[127.40858,35.44729],[127.40686,35.45035],[127.40243,35.45182],[127.40147,35.45428],[127.40199,35.45572],[127.3992,35.45931],[127.39987,35.462],[127.40223,35.46462],[127.40429,35.46434],[127.41239,35.4684],[127.41606,35.46714],[127.41841,35.4681]]]}},{"type":"Feature","properties":{"nm":"노암동","cd":"52190121","sido":"전북특별자치도","sgg":"남원시"},"geometry":{"type":"Polygon","coordinates":[[[127.38271,35.40277],[127.38358,35.40195],[127.38356,35.39989],[127.38518,35.4004],[127.38878,35.39965],[127.38899,35.39862],[127.38805,35.3956],[127.38591,35.39528],[127.38602,35.3925],[127.38718,35.39064],[127.38563,35.38977],[127.38558,35.38732],[127.38421,35.38676],[127.38166,35.38177],[127.37909,35.38149],[127.37738,35.38037],[127.37627,35.38242],[127.37241,35.38254],[127.36991,35.38508],[127.37114,35.39181],[127.36853,35.39393],[127.36869,35.39477],[127.37222,35.39618],[127.37508,35.39945],[127.37865,35.40036],[127.38271,35.40277]]]}},{"type":"Feature","properties":{"nm":"어현동","cd":"52190122","sido":"전북특별자치도","sgg":"남원시"},"geometry":{"type":"Polygon","coordinates":[[[127.38861,35.40687],[127.38959,35.40608],[127.39392,35.40625],[127.39408,35.40501],[127.39608,35.40387],[127.39633,35.40255],[127.39897,35.40228],[127.40154,35.40022],[127.40299,35.40036],[127.40603,35.39659],[127.40397,35.39558],[127.40216,35.39335],[127.39807,35.39472],[127.39664,35.39404],[127.39509,35.39165],[127.39452,35.38336],[127.39592,35.37889],[127.39472,35.37553],[127.39015,35.37567],[127.38828,35.37447],[127.3858,35.37498],[127.3818,35.37391],[127.38125,35.37488],[127.37771,35.37637],[127.37589,35.37606],[127.37538,35.37731],[127.37742,35.37888],[127.37799,35.38089],[127.38166,35.38177],[127.38333,35.38586],[127.38558,35.38732],[127.38563,35.38977],[127.38718,35.39064],[127.38602,35.3925],[127.38591,35.39528],[127.38805,35.3956],[127.38878,35.39965],[127.38518,35.4004],[127.38356,35.39989],[127.38358,35.40195],[127.3827,35.40278],[127.38861,35.40687]]]}},{"type":"Feature","properties":{"nm":"신촌동","cd":"52190123","sido":"전북특별자치도","sgg":"남원시"},"geometry":{"type":"Polygon","coordinates":[[[127.40395,35.4179],[127.40436,35.41539],[127.40659,35.41526],[127.40836,35.41367],[127.41058,35.41406],[127.41252,35.41543],[127.41429,35.41188],[127.41146,35.41138],[127.40894,35.40908],[127.40686,35.40907],[127.40774,35.40457],[127.404,35.40064],[127.40154,35.40022],[127.39842,35.4022],[127.39633,35.40255],[127.39608,35.40387],[127.39408,35.40501],[127.39392,35.40625],[127.38959,35.40608],[127.38861,35.40687],[127.39278,35.40943],[127.40229,35.41767],[127.40395,35.4179]]]}},{"type":"Feature","properties":{"nm":"운봉읍","cd":"52190250","sido":"전북특별자치도","sgg":"남원시"},"geometry":{"type":"Polygon","coordinates":[[[127.51229,35.48006],[127.51897,35.47824],[127.5225,35.47603],[127.52253,35.47511],[127.52485,35.47318],[127.53079,35.47261],[127.53813,35.46974],[127.53729,35.47032],[127.5379,35.47116],[127.53947,35.47082],[127.53975,35.47185],[127.54164,35.4716],[127.54115,35.46996],[127.54272,35.46936],[127.54266,35.46832],[127.54605,35.46815],[127.54503,35.46781],[127.54851,35.46968],[127.55155,35.46974],[127.55366,35.47132],[127.55851,35.47114],[127.56174,35.47353],[127.56395,35.47254],[127.56592,35.47312],[127.56893,35.47232],[127.57162,35.47031],[127.5734,35.47055],[127.57354,35.46831],[127.57536,35.46743],[127.57699,35.46425],[127.57793,35.46396],[127.57815,35.46291],[127.57645,35.46193],[127.57581,35.45695],[127.57887,35.45889],[127.58027,35.45475],[127.58401,35.45299],[127.58349,35.44956],[127.5842,35.44736],[127.58218,35.4442],[127.58121,35.43732],[127.58154,35.43513],[127.58405,35.43309],[127.58346,35.43109],[127.58085,35.42884],[127.58006,35.42776],[127.58057,35.42669],[127.57613,35.42193],[127.5703,35.42024],[127.5678,35.41406],[127.56446,35.41142],[127.56403,35.40735],[127.56468,35.40159],[127.56004,35.39628],[127.55861,35.39238],[127.55351,35.38669],[127.55206,35.38362],[127.55233,35.38169],[127.54138,35.37712],[127.53514,35.37709],[127.5252,35.36978],[127.52223,35.37502],[127.52101,35.37892],[127.51584,35.38328],[127.51023,35.38403],[127.50859,35.38305],[127.50683,35.38366],[127.50566,35.38529],[127.50644,35.38615],[127.507,35.39],[127.50423,35.40125],[127.50016,35.40525],[127.49861,35.40599],[127.49684,35.40545],[127.4958,35.40746],[127.49807,35.41376],[127.50144,35.41603],[127.49976,35.42002],[127.49999,35.42103],[127.49838,35.42323],[127.49924,35.42508],[127.49835,35.4264],[127.49944,35.42885],[127.49919,35.43145],[127.49667,35.43242],[127.49521,35.43438],[127.49723,35.43717],[127.49738,35.43906],[127.4992,35.43993],[127.49918,35.44232],[127.5007,35.44449],[127.50093,35.44663],[127.50001,35.44723],[127.50004,35.44876],[127.49786,35.44845],[127.49672,35.4495],[127.4952,35.4494],[127.49358,35.45199],[127.49066,35.45117],[127.4879,35.45189],[127.48842,35.45408],[127.48714,35.45498],[127.48596,35.45757],[127.4897,35.45859],[127.49195,35.4621],[127.49692,35.46274],[127.49789,35.46351],[127.49699,35.47033],[127.49794,35.47168],[127.49751,35.47302],[127.50524,35.47424],[127.50535,35.47657],[127.51007,35.47808],[127.51098,35.48038],[127.51229,35.48006]]]}},{"type":"Feature","properties":{"nm":"주천면","cd":"52190310","sido":"전북특별자치도","sgg":"남원시"},"geometry":{"type":"Polygon","coordinates":[[[127.41479,35.41174],[127.41493,35.41043],[127.41889,35.41032],[127.42057,35.40904],[127.42123,35.40738],[127.42449,35.40717],[127.4259,35.40629],[127.42859,35.4076],[127.43137,35.4072],[127.43464,35.40939],[127.44145,35.40952],[127.44281,35.40776],[127.44563,35.40622],[127.44847,35.40578],[127.45022,35.40643],[127.4581,35.40367],[127.45877,35.40238],[127.46034,35.40228],[127.46046,35.40108],[127.46194,35.40044],[127.46313,35.40121],[127.46477,35.40076],[127.46849,35.39742],[127.46872,35.39638],[127.47269,35.39663],[127.47416,35.39537],[127.47688,35.39801],[127.47847,35.39815],[127.47947,35.40006],[127.48576,35.40284],[127.48654,35.40495],[127.48831,35.40638],[127.49252,35.40791],[127.49575,35.40778],[127.49684,35.40545],[127.49861,35.40599],[127.50016,35.40525],[127.50416,35.40133],[127.507,35.39],[127.50579,35.38505],[127.50683,35.38366],[127.50859,35.38305],[127.51023,35.38403],[127.51584,35.38328],[127.52101,35.37892],[127.52223,35.37502],[127.5252,35.36978],[127.52111,35.36358],[127.52019,35.35916],[127.5155,35.35225],[127.51399,35.35113],[127.50806,35.35318],[127.50319,35.35764],[127.49791,35.35989],[127.48571,35.35835],[127.48078,35.36163],[127.48027,35.36364],[127.47877,35.36419],[127.47416,35.36412],[127.47077,35.36534],[127.46594,35.36353],[127.45824,35.36354],[127.45747,35.36213],[127.45553,35.36198],[127.45411,35.36075],[127.44694,35.36148],[127.44646,35.36052],[127.44245,35.36128],[127.4414,35.36211],[127.44197,35.36347],[127.44136,35.36384],[127.43692,35.36271],[127.43598,35.36119],[127.4299,35.35758],[127.42864,35.35645],[127.42868,35.3554],[127.42438,35.3527],[127.42472,35.35206],[127.42141,35.35087],[127.41619,35.35372],[127.41368,35.35399],[127.40948,35.35743],[127.40112,35.35724],[127.39729,35.35876],[127.39597,35.36365],[127.39137,35.36654],[127.39135,35.36786],[127.39265,35.36918],[127.39047,35.37126],[127.39327,35.37357],[127.3958,35.37823],[127.39452,35.38336],[127.39487,35.39117],[127.39664,35.39404],[127.39807,35.39472],[127.40265,35.39347],[127.40397,35.39558],[127.40603,35.39659],[127.40299,35.40036],[127.40427,35.40082],[127.40507,35.40248],[127.40602,35.40227],[127.40774,35.40457],[127.40686,35.40907],[127.40955,35.40937],[127.41297,35.41205],[127.41479,35.41174]]]}},{"type":"Feature","properties":{"nm":"수지면","cd":"52190320","sido":"전북특별자치도","sgg":"남원시"},"geometry":{"type":"Polygon","coordinates":[[[127.39488,35.36396],[127.39597,35.36365],[127.3962,35.36107],[127.39757,35.35861],[127.40112,35.35724],[127.40948,35.35743],[127.41368,35.35399],[127.41619,35.35372],[127.42141,35.35087],[127.42017,35.34523],[127.41771,35.34145],[127.41654,35.34094],[127.41508,35.336],[127.4116,35.33329],[127.4088,35.32757],[127.40608,35.32442],[127.40116,35.32272],[127.39919,35.31986],[127.39911,35.31686],[127.39669,35.31426],[127.39277,35.31273],[127.3927,35.30735],[127.38952,35.306],[127.3889,35.30437],[127.38457,35.30246],[127.38193,35.30395],[127.38009,35.30368],[127.37664,35.31131],[127.37552,35.3122],[127.37067,35.31461],[127.36769,35.31416],[127.36564,35.31647],[127.36332,35.31639],[127.35911,35.32056],[127.35426,35.32236],[127.34841,35.31864],[127.34743,35.31934],[127.34341,35.31772],[127.33941,35.31785],[127.33646,35.31491],[127.33462,35.31553],[127.33069,35.3149],[127.33006,35.31391],[127.33039,35.31217],[127.32712,35.30962],[127.32639,35.30923],[127.32558,35.31047],[127.32689,35.31334],[127.3259,35.31695],[127.32813,35.32183],[127.32753,35.32332],[127.32769,35.32257],[127.32497,35.32216],[127.32293,35.32833],[127.32791,35.33675],[127.32999,35.3368],[127.33309,35.33829],[127.33306,35.34084],[127.3348,35.34485],[127.3377,35.34575],[127.34346,35.34319],[127.34819,35.34314],[127.35278,35.34113],[127.3593,35.34641],[127.36275,35.34638],[127.3659,35.34817],[127.36903,35.34578],[127.37125,35.34596],[127.37369,35.34828],[127.37359,35.34996],[127.37249,35.3509],[127.37356,35.35349],[127.37715,35.35315],[127.37848,35.35675],[127.38225,35.35732],[127.38472,35.35671],[127.38432,35.35877],[127.38874,35.36322],[127.39152,35.36463],[127.39317,35.36543],[127.39488,35.36396]]]}},{"type":"Feature","properties":{"nm":"송동면","cd":"52190330","sido":"전북특별자치도","sgg":"남원시"},"geometry":{"type":"Polygon","coordinates":[[[127.36882,35.39381],[127.37114,35.39181],[127.36991,35.38508],[127.37241,35.38254],[127.37627,35.38242],[127.37738,35.38037],[127.37742,35.37888],[127.37538,35.37731],[127.37589,35.37606],[127.37771,35.37637],[127.38125,35.37488],[127.3822,35.37363],[127.3858,35.37498],[127.38828,35.37447],[127.39015,35.37567],[127.39403,35.37547],[127.39327,35.37357],[127.39047,35.37126],[127.39265,35.36918],[127.39135,35.36786],[127.39137,35.36654],[127.39317,35.36543],[127.38874,35.36322],[127.38635,35.36099],[127.38588,35.35973],[127.38432,35.35877],[127.38472,35.35671],[127.38225,35.35732],[127.37848,35.35675],[127.37715,35.35315],[127.37356,35.35349],[127.37249,35.3509],[127.37359,35.34996],[127.37369,35.34828],[127.37125,35.34596],[127.36903,35.34578],[127.3659,35.34817],[127.36275,35.34638],[127.3593,35.34641],[127.35278,35.34113],[127.34819,35.34314],[127.34346,35.34319],[127.3377,35.34575],[127.3348,35.34485],[127.33306,35.34084],[127.33309,35.33829],[127.32999,35.3368],[127.32791,35.33675],[127.32536,35.33332],[127.32427,35.32966],[127.32309,35.32888],[127.32327,35.3263],[127.32431,35.32534],[127.32504,35.32217],[127.32769,35.32257],[127.32753,35.32332],[127.32813,35.32183],[127.3259,35.31695],[127.32689,35.31334],[127.32347,35.30741],[127.31972,35.30638],[127.31949,35.30837],[127.31811,35.30976],[127.31493,35.31066],[127.3058,35.33143],[127.3076,35.35306],[127.31168,35.36234],[127.31437,35.36413],[127.3144,35.36745],[127.32846,35.37499],[127.33145,35.37435],[127.33389,35.37663],[127.33849,35.37902],[127.33879,35.3818],[127.34167,35.38163],[127.35776,35.38964],[127.36441,35.39392],[127.36869,35.39477],[127.36882,35.39381]]]}},{"type":"Feature","properties":{"nm":"주생면","cd":"52190340","sido":"전북특별자치도","sgg":"남원시"},"geometry":{"type":"Polygon","coordinates":[[[127.2717,35.40516],[127.27565,35.40141],[127.27812,35.40078],[127.2805,35.3988],[127.28273,35.39852],[127.28287,35.3968],[127.28384,35.39615],[127.28903,35.39789],[127.28998,35.39684],[127.29537,35.39536],[127.29632,35.39386],[127.2984,35.39332],[127.30002,35.3941],[127.30313,35.39215],[127.3063,35.39361],[127.30424,35.3969],[127.30485,35.39772],[127.30797,35.39575],[127.31537,35.39415],[127.31658,35.39543],[127.31986,35.39579],[127.31963,35.39705],[127.32117,35.39901],[127.3244,35.4005],[127.32489,35.40186],[127.32636,35.40023],[127.32927,35.40079],[127.33332,35.40019],[127.33897,35.40358],[127.34263,35.40349],[127.34592,35.40486],[127.35414,35.40469],[127.35406,35.40199],[127.35573,35.40023],[127.3565,35.40042],[127.35656,35.39818],[127.35659,35.39593],[127.35739,35.39574],[127.35649,35.39345],[127.35634,35.38944],[127.3415,35.38156],[127.33879,35.3818],[127.33849,35.37902],[127.33389,35.37663],[127.33145,35.37435],[127.32846,35.37499],[127.3144,35.36745],[127.31437,35.36413],[127.31186,35.36261],[127.31073,35.35957],[127.30785,35.35991],[127.30746,35.36066],[127.30804,35.36196],[127.30712,35.36223],[127.30735,35.36362],[127.30944,35.36752],[127.30617,35.36877],[127.30562,35.37067],[127.30625,35.37293],[127.3035,35.37497],[127.2994,35.3724],[127.29902,35.37024],[127.29575,35.36879],[127.29501,35.36689],[127.29351,35.36598],[127.28851,35.36608],[127.28844,35.36532],[127.28642,35.3653],[127.28399,35.36697],[127.28065,35.36633],[127.27334,35.36932],[127.26628,35.36829],[127.26096,35.36898],[127.25655,35.37187],[127.25543,35.37425],[127.2558,35.3752],[127.26049,35.38017],[127.25933,35.38207],[127.26104,35.39066],[127.26348,35.3943],[127.26653,35.39531],[127.26729,35.39728],[127.26667,35.39977],[127.26514,35.40114],[127.26567,35.40249],[127.26885,35.40503],[127.2717,35.40516]]]}},{"type":"Feature","properties":{"nm":"금지면","cd":"52190350","sido":"전북특별자치도","sgg":"남원시"},"geometry":{"type":"Polygon","coordinates":[[[127.30617,35.36877],[127.30944,35.36752],[127.30712,35.36223],[127.30804,35.36196],[127.30785,35.35991],[127.31024,35.35963],[127.30736,35.35154],[127.3078,35.34945],[127.3058,35.33143],[127.31493,35.31066],[127.31811,35.30976],[127.31949,35.30837],[127.31972,35.30638],[127.31454,35.30602],[127.30923,35.30449],[127.30704,35.30452],[127.30701,35.30619],[127.30703,35.30452],[127.3061,35.30461],[127.2988,35.3096],[127.29095,35.31337],[127.28521,35.31399],[127.2721,35.31303],[127.26567,35.31371],[127.26162,35.31223],[127.25718,35.31246],[127.25312,35.31451],[127.25128,35.31693],[127.25287,35.318],[127.2509,35.32287],[127.2511,35.32691],[127.25335,35.3291],[127.25246,35.33077],[127.25266,35.33227],[127.254,35.33402],[127.25617,35.33499],[127.25343,35.33887],[127.25312,35.34278],[127.25431,35.34876],[127.25192,35.35206],[127.25034,35.35261],[127.24692,35.35602],[127.24892,35.3594],[127.24761,35.36094],[127.24827,35.36144],[127.24749,35.36741],[127.25079,35.37041],[127.25088,35.37143],[127.2532,35.37217],[127.25543,35.37425],[127.25703,35.3714],[127.26096,35.36898],[127.26628,35.36829],[127.27334,35.36932],[127.28065,35.36633],[127.28399,35.36697],[127.28642,35.3653],[127.28844,35.36532],[127.28851,35.36608],[127.29351,35.36598],[127.29501,35.36689],[127.29575,35.36879],[127.29902,35.37024],[127.2994,35.3724],[127.3035,35.37497],[127.30625,35.37293],[127.30562,35.37067],[127.30617,35.36877]]]}},{"type":"Feature","properties":{"nm":"대강면","cd":"52190360","sido":"전북특별자치도","sgg":"남원시"},"geometry":{"type":"Polygon","coordinates":[[[127.27371,35.42086],[127.27542,35.42089],[127.27637,35.42003],[127.2776,35.41854],[127.27699,35.41726],[127.27745,35.41658],[127.27533,35.4143],[127.27,35.41306],[127.27036,35.4088],[127.27261,35.40627],[127.2717,35.40516],[127.26885,35.40503],[127.26567,35.40249],[127.26514,35.40114],[127.26667,35.39977],[127.26729,35.39728],[127.26653,35.39531],[127.26348,35.3943],[127.26104,35.39066],[127.25933,35.38207],[127.26049,35.38017],[127.25543,35.37425],[127.2532,35.37217],[127.25088,35.37143],[127.25079,35.37041],[127.24749,35.36741],[127.24827,35.36144],[127.24761,35.36094],[127.24892,35.3594],[127.24692,35.35602],[127.25034,35.35261],[127.25192,35.35206],[127.25431,35.34876],[127.25312,35.34278],[127.25343,35.33887],[127.25617,35.33499],[127.254,35.33402],[127.25266,35.33227],[127.25246,35.33077],[127.25335,35.3291],[127.2511,35.32691],[127.2509,35.32287],[127.25287,35.318],[127.25118,35.3172],[127.24714,35.321],[127.24344,35.32284],[127.23868,35.32769],[127.23479,35.32992],[127.23277,35.33337],[127.22134,35.33489],[127.21922,35.33357],[127.21625,35.32984],[127.21568,35.32441],[127.21397,35.32045],[127.21308,35.32049],[127.21381,35.32013],[127.2123,35.31684],[127.20974,35.31557],[127.2071,35.31545],[127.19905,35.31665],[127.19677,35.3193],[127.18773,35.32258],[127.1881,35.32314],[127.18476,35.32611],[127.18411,35.33167],[127.18673,35.33618],[127.19457,35.33887],[127.19372,35.34012],[127.18911,35.34171],[127.1871,35.34248],[127.18806,35.3488],[127.19308,35.3564],[127.19622,35.35772],[127.20001,35.35765],[127.20092,35.35649],[127.20176,35.35699],[127.20462,35.3608],[127.20663,35.36164],[127.20717,35.36384],[127.20879,35.36567],[127.21416,35.36848],[127.217,35.37165],[127.21356,35.37252],[127.21426,35.37309],[127.21181,35.37312],[127.21431,35.37544],[127.21373,35.37663],[127.21993,35.38534],[127.22607,35.39877],[127.22992,35.39863],[127.23321,35.39749],[127.23665,35.40008],[127.24542,35.39826],[127.2471,35.39917],[127.24738,35.40163],[127.25061,35.40892],[127.24941,35.40955],[127.2517,35.41732],[127.2546,35.41876],[127.25506,35.42068],[127.2574,35.4212],[127.25748,35.4239],[127.26014,35.42697],[127.26274,35.42643],[127.27371,35.42086]]]}},{"type":"Feature","properties":{"nm":"대산면","cd":"52190370","sido":"전북특별자치도","sgg":"남원시"},"geometry":{"type":"Polygon","coordinates":[[[127.31551,35.46292],[127.31807,35.46152],[127.31897,35.46209],[127.32154,35.46158],[127.32625,35.45784],[127.33002,35.45698],[127.33139,35.45821],[127.33551,35.45854],[127.33777,35.45953],[127.34552,35.45486],[127.34642,35.4515],[127.34836,35.45184],[127.34993,35.44932],[127.34893,35.44422],[127.34993,35.44108],[127.34937,35.43912],[127.34825,35.43833],[127.34829,35.43585],[127.35003,35.43479],[127.34984,35.43218],[127.35208,35.43041],[127.35125,35.42961],[127.35225,35.42894],[127.35299,35.42593],[127.34678,35.4206],[127.34595,35.4174],[127.33663,35.41751],[127.33493,35.4157],[127.33617,35.41496],[127.33364,35.41234],[127.34047,35.4125],[127.34221,35.4113],[127.34183,35.40923],[127.34666,35.40463],[127.34263,35.40349],[127.33897,35.40358],[127.33332,35.40019],[127.32927,35.40079],[127.32636,35.40023],[127.32489,35.40186],[127.3244,35.4005],[127.32147,35.39929],[127.32107,35.39836],[127.31963,35.39705],[127.31986,35.39579],[127.31658,35.39543],[127.31537,35.39415],[127.30797,35.39575],[127.30485,35.39772],[127.30424,35.3969],[127.3063,35.39361],[127.30313,35.39215],[127.30002,35.3941],[127.2984,35.39332],[127.29632,35.39386],[127.29537,35.39536],[127.28998,35.39684],[127.28903,35.39789],[127.28384,35.39615],[127.28287,35.3968],[127.28273,35.39852],[127.2805,35.3988],[127.27812,35.40078],[127.27565,35.40141],[127.27384,35.40375],[127.27243,35.40421],[127.2717,35.40516],[127.27261,35.40627],[127.27222,35.40735],[127.27036,35.4088],[127.27,35.41306],[127.27533,35.4143],[127.27745,35.41658],[127.27699,35.41726],[127.2776,35.41854],[127.27542,35.42089],[127.27732,35.42423],[127.2881,35.4245],[127.28921,35.42572],[127.29159,35.4265],[127.2965,35.4334],[127.29729,35.43565],[127.29648,35.43953],[127.29788,35.44139],[127.2979,35.44471],[127.29997,35.44603],[127.30164,35.44904],[127.30647,35.45286],[127.30809,35.45548],[127.30773,35.45707],[127.31085,35.46128],[127.31103,35.46302],[127.31378,35.46369],[127.31551,35.46292]]]}},{"type":"Feature","properties":{"nm":"사매면","cd":"52190380","sido":"전북특별자치도","sgg":"남원시"},"geometry":{"type":"Polygon","coordinates":[[[127.36636,35.50537],[127.37183,35.50306],[127.37145,35.50211],[127.37233,35.5009],[127.37478,35.50092],[127.38157,35.49644],[127.38609,35.49574],[127.38765,35.49384],[127.38793,35.48958],[127.39101,35.48709],[127.39005,35.48321],[127.39159,35.4791],[127.39549,35.47689],[127.39626,35.47415],[127.39592,35.47244],[127.39458,35.47112],[127.3955,35.46891],[127.39682,35.46859],[127.39699,35.46784],[127.39341,35.46677],[127.39065,35.46152],[127.38682,35.46],[127.38531,35.46067],[127.38414,35.46357],[127.37763,35.46531],[127.37551,35.46093],[127.37424,35.46022],[127.37155,35.4594],[127.36788,35.46013],[127.36312,35.45859],[127.36205,35.45652],[127.35846,35.45541],[127.35848,35.45391],[127.35447,35.45358],[127.35333,35.45234],[127.35355,35.45147],[127.3497,35.45015],[127.34836,35.45184],[127.34642,35.4515],[127.34552,35.45486],[127.33777,35.45953],[127.33551,35.45854],[127.33139,35.45821],[127.33002,35.45698],[127.32542,35.4585],[127.32154,35.46158],[127.31748,35.46166],[127.31378,35.46369],[127.31427,35.46622],[127.31116,35.46933],[127.31015,35.47172],[127.31027,35.47607],[127.30892,35.47703],[127.30717,35.48063],[127.30821,35.48377],[127.3071,35.48411],[127.30705,35.48528],[127.3078,35.48896],[127.30954,35.49005],[127.31149,35.49567],[127.31392,35.49672],[127.31477,35.49565],[127.31433,35.49623],[127.31789,35.49515],[127.31964,35.49345],[127.32566,35.49571],[127.33122,35.49214],[127.33364,35.49189],[127.3363,35.49364],[127.33892,35.49392],[127.34169,35.4966],[127.34679,35.49645],[127.34911,35.49718],[127.35041,35.49666],[127.35286,35.4974],[127.355,35.50082],[127.35626,35.49994],[127.357,35.50095],[127.35615,35.50449],[127.35513,35.50562],[127.36302,35.50626],[127.36636,35.50537]]]}},{"type":"Feature","properties":{"nm":"덕과면","cd":"52190390","sido":"전북특별자치도","sgg":"남원시"},"geometry":{"type":"Polygon","coordinates":[[[127.36116,35.5573],[127.36229,35.55717],[127.3637,35.55822],[127.36546,35.55647],[127.36868,35.55559],[127.37031,35.55413],[127.36968,35.55367],[127.37024,35.55306],[127.37379,35.55155],[127.37404,35.55038],[127.37825,35.54795],[127.38409,35.54611],[127.38332,35.54236],[127.38496,35.53973],[127.3825,35.5357],[127.37946,35.53505],[127.37736,35.53193],[127.37967,35.52665],[127.38435,35.52397],[127.38649,35.52516],[127.39001,35.52448],[127.3919,35.52563],[127.39349,35.52547],[127.39244,35.52252],[127.39368,35.52018],[127.39307,35.51946],[127.39624,35.51901],[127.39592,35.51745],[127.40116,35.51751],[127.39737,35.51556],[127.39778,35.51453],[127.39709,35.51258],[127.40273,35.51095],[127.40651,35.51136],[127.40553,35.51118],[127.40581,35.50969],[127.4083,35.50903],[127.40776,35.50759],[127.40386,35.50589],[127.40068,35.5001],[127.3983,35.49873],[127.39843,35.49711],[127.39684,35.49774],[127.39427,35.49617],[127.39487,35.49546],[127.39295,35.49142],[127.39402,35.49023],[127.39343,35.48889],[127.39101,35.48709],[127.38891,35.48871],[127.38748,35.49085],[127.38765,35.49384],[127.38609,35.49574],[127.38157,35.49644],[127.37478,35.50092],[127.37233,35.5009],[127.37145,35.50211],[127.37183,35.50306],[127.37005,35.5043],[127.36302,35.50626],[127.35513,35.50562],[127.35481,35.51075],[127.35375,35.51304],[127.34765,35.51745],[127.346,35.51786],[127.33773,35.5255],[127.33774,35.52779],[127.34018,35.5275],[127.34061,35.52594],[127.3425,35.52591],[127.34546,35.52722],[127.34544,35.52838],[127.34701,35.5301],[127.34732,35.53414],[127.34843,35.53502],[127.34803,35.53538],[127.35013,35.5355],[127.35004,35.53733],[127.3497,35.54014],[127.34823,35.54215],[127.34687,35.54297],[127.34519,35.54236],[127.34079,35.54366],[127.33846,35.54649],[127.33649,35.54733],[127.33714,35.54766],[127.3344,35.54751],[127.33402,35.55127],[127.33463,35.55274],[127.33618,35.55417],[127.33883,35.55454],[127.34336,35.5511],[127.35017,35.55154],[127.35245,35.55261],[127.35882,35.55884],[127.36116,35.5573]]]}},{"type":"Feature","properties":{"nm":"보절면","cd":"52190400","sido":"전북특별자치도","sgg":"남원시"},"geometry":{"type":"Polygon","coordinates":[[[127.41185,35.56051],[127.41344,35.56028],[127.41875,35.55557],[127.41993,35.55295],[127.42413,35.55045],[127.43342,35.55016],[127.44021,35.55165],[127.44125,35.54719],[127.4428,35.546],[127.44717,35.54488],[127.44822,35.54332],[127.45278,35.54006],[127.44892,35.53177],[127.44982,35.52978],[127.44952,35.52638],[127.45013,35.52536],[127.4456,35.5227],[127.44519,35.52006],[127.44332,35.51736],[127.44478,35.51412],[127.44521,35.51029],[127.44443,35.50568],[127.44782,35.50269],[127.44724,35.49904],[127.4428,35.49789],[127.44148,35.49644],[127.43957,35.49591],[127.43877,35.49451],[127.43754,35.49434],[127.43282,35.48591],[127.43339,35.48514],[127.43309,35.48251],[127.43104,35.48076],[127.42408,35.47887],[127.42362,35.47731],[127.42052,35.47383],[127.41956,35.46845],[127.41606,35.46714],[127.41239,35.4684],[127.40429,35.46434],[127.40223,35.46462],[127.39976,35.46175],[127.39754,35.46492],[127.39682,35.46859],[127.3955,35.46891],[127.39458,35.47112],[127.39592,35.47244],[127.39626,35.47415],[127.39549,35.47689],[127.39159,35.4791],[127.39005,35.48321],[127.39056,35.48658],[127.39343,35.48889],[127.39402,35.49023],[127.39295,35.49142],[127.39419,35.49426],[127.39487,35.49546],[127.39427,35.49617],[127.39684,35.49774],[127.39843,35.49711],[127.3983,35.49873],[127.40068,35.5001],[127.40386,35.50589],[127.40776,35.50759],[127.4083,35.50903],[127.40581,35.50969],[127.40553,35.51118],[127.40651,35.51136],[127.40273,35.51095],[127.39709,35.51258],[127.39778,35.51453],[127.39737,35.51556],[127.40116,35.51751],[127.39592,35.51745],[127.39624,35.51901],[127.39307,35.51946],[127.39368,35.52018],[127.39244,35.52252],[127.39349,35.52547],[127.3919,35.52563],[127.39001,35.52448],[127.38649,35.52516],[127.38435,35.52397],[127.38205,35.52477],[127.37967,35.52665],[127.37736,35.53193],[127.37946,35.53505],[127.3825,35.5357],[127.38496,35.53973],[127.38332,35.54236],[127.38447,35.54674],[127.3853,35.54635],[127.38742,35.54724],[127.39142,35.5458],[127.39297,35.54727],[127.39683,35.54832],[127.39819,35.54705],[127.40264,35.54835],[127.40141,35.55033],[127.39812,35.55263],[127.40135,35.55363],[127.40559,35.56006],[127.41185,35.56051]]]}},{"type":"Feature","properties":{"nm":"산동면","cd":"52190410","sido":"전북특별자치도","sgg":"남원시"},"geometry":{"type":"Polygon","coordinates":[[[127.46698,35.54658],[127.46848,35.54532],[127.46813,35.5445],[127.46957,35.54189],[127.47095,35.54082],[127.4765,35.53842],[127.48259,35.53891],[127.48623,35.53654],[127.48794,35.53672],[127.48948,35.53585],[127.48961,35.53493],[127.49242,35.53413],[127.49188,35.53009],[127.49111,35.52995],[127.49131,35.52708],[127.49598,35.52261],[127.50053,35.5224],[127.50164,35.52172],[127.50108,35.51825],[127.50359,35.51458],[127.50619,35.51228],[127.51338,35.50889],[127.51296,35.50597],[127.51407,35.50404],[127.514,35.50189],[127.51321,35.50178],[127.51525,35.50144],[127.51594,35.49887],[127.517,35.49905],[127.51715,35.49846],[127.51511,35.49791],[127.51906,35.49828],[127.51903,35.49775],[127.51989,35.49839],[127.52203,35.49627],[127.52725,35.49577],[127.52709,35.4935],[127.52814,35.49181],[127.52827,35.49103],[127.52689,35.49006],[127.52672,35.48577],[127.52402,35.48388],[127.52033,35.48334],[127.51901,35.48169],[127.51533,35.48107],[127.51393,35.48009],[127.51098,35.48038],[127.51007,35.47808],[127.50535,35.47657],[127.50524,35.47424],[127.50439,35.47387],[127.49751,35.47302],[127.49794,35.47168],[127.49699,35.47033],[127.49789,35.46351],[127.49692,35.46274],[127.49195,35.4621],[127.4897,35.45859],[127.48462,35.45736],[127.48139,35.46081],[127.47258,35.46173],[127.47195,35.46424],[127.4684,35.46349],[127.46207,35.46602],[127.4579,35.46638],[127.45546,35.46894],[127.45463,35.46841],[127.45311,35.46892],[127.45374,35.46971],[127.44342,35.46338],[127.43776,35.46162],[127.4388,35.46011],[127.43623,35.45733],[127.42397,35.46004],[127.42513,35.46269],[127.42168,35.46506],[127.41957,35.46544],[127.41842,35.46807],[127.41988,35.46895],[127.42052,35.47383],[127.42362,35.47731],[127.42408,35.47887],[127.43104,35.48076],[127.43309,35.48251],[127.43339,35.48514],[127.43282,35.48591],[127.43754,35.49434],[127.43877,35.49451],[127.43957,35.49591],[127.44148,35.49644],[127.4428,35.49789],[127.44724,35.49904],[127.44782,35.50269],[127.44443,35.50568],[127.44521,35.51029],[127.44478,35.51412],[127.44332,35.51736],[127.44519,35.52006],[127.4456,35.5227],[127.45013,35.52536],[127.44952,35.52638],[127.44982,35.52978],[127.44892,35.53177],[127.45402,35.54303],[127.45529,35.54397],[127.45525,35.54582],[127.45683,35.54651],[127.45951,35.54529],[127.46149,35.5453],[127.46698,35.54658]]]}},{"type":"Feature","properties":{"nm":"이백면","cd":"52190420","sido":"전북특별자치도","sgg":"남원시"},"geometry":{"type":"Polygon","coordinates":[[[127.45399,35.46846],[127.45546,35.46894],[127.4579,35.46638],[127.46207,35.46602],[127.46629,35.46386],[127.46923,35.46349],[127.47226,35.46415],[127.47258,35.46173],[127.48139,35.46081],[127.48339,35.45918],[127.48411,35.45732],[127.48596,35.45757],[127.48714,35.45498],[127.48842,35.45408],[127.4879,35.45189],[127.49066,35.45117],[127.49358,35.45199],[127.4952,35.4494],[127.49672,35.4495],[127.49786,35.44845],[127.50004,35.44876],[127.5009,35.44536],[127.49918,35.44232],[127.4992,35.43993],[127.49738,35.43906],[127.49723,35.43717],[127.49521,35.43438],[127.49667,35.43242],[127.49919,35.43145],[127.49944,35.42885],[127.49835,35.4264],[127.49924,35.42508],[127.49838,35.42323],[127.49999,35.42103],[127.49976,35.42002],[127.50144,35.41603],[127.49807,35.41376],[127.4972,35.41012],[127.49575,35.40778],[127.49252,35.40791],[127.48831,35.40638],[127.48654,35.40495],[127.48576,35.40284],[127.47947,35.40006],[127.47847,35.39815],[127.47688,35.39801],[127.47439,35.39537],[127.47269,35.39663],[127.46872,35.39638],[127.46849,35.39742],[127.46477,35.40076],[127.46313,35.40121],[127.46194,35.40044],[127.46046,35.40108],[127.46034,35.40228],[127.45877,35.40238],[127.4581,35.40367],[127.45022,35.40643],[127.44847,35.40578],[127.44563,35.40622],[127.44281,35.40776],[127.44145,35.40952],[127.43739,35.40986],[127.43634,35.40905],[127.43464,35.40939],[127.43137,35.4072],[127.42859,35.4076],[127.4259,35.40629],[127.42503,35.4069],[127.42123,35.40738],[127.42057,35.40904],[127.41889,35.41032],[127.41493,35.41043],[127.41218,35.41559],[127.41058,35.41406],[127.40836,35.41367],[127.40659,35.41526],[127.40436,35.41539],[127.40395,35.4179],[127.40873,35.4193],[127.40821,35.4198],[127.41057,35.42125],[127.4123,35.4247],[127.41453,35.4256],[127.41594,35.42718],[127.41838,35.43204],[127.41928,35.43203],[127.42143,35.43472],[127.4261,35.43688],[127.43091,35.44133],[127.43205,35.44457],[127.4317,35.44641],[127.43502,35.45233],[127.43549,35.45749],[127.43623,35.45733],[127.4388,35.46011],[127.43776,35.46162],[127.44342,35.46338],[127.45374,35.46971],[127.45311,35.46892],[127.45399,35.46846]]]}},{"type":"Feature","properties":{"nm":"아영면","cd":"52190450","sido":"전북특별자치도","sgg":"남원시"},"geometry":{"type":"Polygon","coordinates":[[[127.59077,35.55365],[127.59341,35.55129],[127.59412,35.54799],[127.59863,35.54759],[127.60046,35.54505],[127.60362,35.54447],[127.60653,35.54286],[127.60926,35.54086],[127.6092,35.53902],[127.61207,35.53593],[127.61557,35.53548],[127.61698,35.5365],[127.61915,35.5366],[127.6207,35.53384],[127.62283,35.53367],[127.62473,35.53369],[127.62869,35.53598],[127.62881,35.53372],[127.62533,35.5314],[127.62521,35.52577],[127.62637,35.52452],[127.62841,35.52399],[127.62932,35.52193],[127.63108,35.52046],[127.63442,35.52021],[127.63457,35.51689],[127.63306,35.51527],[127.63428,35.51204],[127.6363,35.51174],[127.637,35.50905],[127.63509,35.50776],[127.63179,35.50734],[127.62972,35.50801],[127.62479,35.50743],[127.61964,35.50803],[127.61881,35.50716],[127.61377,35.50713],[127.6131,35.50299],[127.61149,35.50225],[127.61042,35.49808],[127.60736,35.49597],[127.60639,35.49058],[127.60226,35.48411],[127.60273,35.48135],[127.59949,35.4774],[127.59939,35.47469],[127.59666,35.47554],[127.59373,35.47548],[127.58882,35.47341],[127.58901,35.47151],[127.58733,35.4699],[127.58653,35.4675],[127.58777,35.46494],[127.58678,35.46406],[127.57942,35.46367],[127.57815,35.46291],[127.57536,35.46743],[127.57326,35.46874],[127.5734,35.47055],[127.57162,35.47031],[127.56893,35.47232],[127.56592,35.47312],[127.56395,35.47254],[127.56172,35.47321],[127.56234,35.47615],[127.56111,35.4767],[127.55969,35.47903],[127.55992,35.48121],[127.56227,35.48355],[127.56203,35.48523],[127.56386,35.48865],[127.56399,35.4902],[127.5627,35.49154],[127.56359,35.49262],[127.56771,35.49331],[127.569,35.49533],[127.57083,35.49538],[127.57181,35.49683],[127.57738,35.49888],[127.57769,35.50006],[127.58013,35.50201],[127.57935,35.50428],[127.57953,35.50722],[127.58026,35.50787],[127.58001,35.51393],[127.57863,35.51444],[127.57849,35.51603],[127.57394,35.5171],[127.57292,35.51836],[127.57112,35.51888],[127.57029,35.52002],[127.57013,35.52382],[127.5685,35.52479],[127.56863,35.53328],[127.56925,35.53431],[127.5715,35.53471],[127.57224,35.53804],[127.57162,35.54053],[127.57281,35.54614],[127.57852,35.54754],[127.58486,35.55391],[127.59077,35.55365]]]}},{"type":"Feature","properties":{"nm":"산내면","cd":"52190460","sido":"전북특별자치도","sgg":"남원시"},"geometry":{"type":"Polygon","coordinates":[[[127.65114,35.4515],[127.65339,35.45158],[127.65785,35.44866],[127.66116,35.44754],[127.66778,35.44908],[127.67045,35.44872],[127.67277,35.44779],[127.67407,35.44572],[127.67383,35.4447],[127.67164,35.44232],[127.67068,35.43962],[127.66747,35.43814],[127.66518,35.43565],[127.66623,35.43324],[127.66577,35.42743],[127.66355,35.42621],[127.66322,35.42113],[127.66141,35.41804],[127.66047,35.41443],[127.65684,35.41392],[127.65246,35.40981],[127.65064,35.40673],[127.64886,35.40624],[127.64645,35.40266],[127.64344,35.4016],[127.63692,35.40104],[127.6367,35.3994],[127.63281,35.39509],[127.6318,35.39229],[127.62733,35.3881],[127.62529,35.3847],[127.62488,35.38137],[127.62565,35.37691],[127.62129,35.37222],[127.61266,35.36893],[127.61076,35.36695],[127.6102,35.36592],[127.61167,35.36145],[127.61124,35.35929],[127.61224,35.35585],[127.61439,35.35388],[127.61584,35.34997],[127.6206,35.34725],[127.62333,35.34217],[127.62074,35.33249],[127.61514,35.33073],[127.61273,35.32799],[127.60769,35.32504],[127.60654,35.32066],[127.60478,35.31837],[127.59429,35.31243],[127.58567,35.30914],[127.57955,35.30959],[127.57748,35.3089],[127.5726,35.31208],[127.56783,35.31852],[127.56047,35.32104],[127.55485,35.32198],[127.55229,35.32481],[127.54228,35.3285],[127.54152,35.33365],[127.5398,35.33476],[127.53274,35.33526],[127.53096,35.33604],[127.52854,35.33888],[127.52649,35.3431],[127.52331,35.3455],[127.51999,35.34627],[127.51665,35.34729],[127.51399,35.35113],[127.51647,35.35334],[127.52019,35.35916],[127.52072,35.36268],[127.52436,35.36925],[127.53514,35.37709],[127.54138,35.37712],[127.55233,35.38169],[127.55206,35.38362],[127.55351,35.38669],[127.55861,35.39238],[127.56004,35.39628],[127.56468,35.40159],[127.56403,35.40735],[127.56446,35.41142],[127.5678,35.41406],[127.5703,35.42024],[127.57613,35.42193],[127.57741,35.42086],[127.58033,35.42044],[127.5845,35.41776],[127.58888,35.41851],[127.59518,35.41692],[127.59729,35.41785],[127.60513,35.42685],[127.6083,35.42803],[127.60976,35.42941],[127.61255,35.43404],[127.60803,35.43581],[127.60891,35.43662],[127.60936,35.43957],[127.61293,35.4417],[127.6141,35.44435],[127.61798,35.4474],[127.62209,35.44775],[127.62669,35.44643],[127.63896,35.44506],[127.64228,35.44849],[127.64461,35.44886],[127.64753,35.45092],[127.65114,35.4515]]]}},{"type":"Feature","properties":{"nm":"인월면","cd":"52190470","sido":"전북특별자치도","sgg":"남원시"},"geometry":{"type":"Polygon","coordinates":[[[127.63848,35.50785],[127.64182,35.50508],[127.64431,35.49902],[127.64674,35.49792],[127.65039,35.4979],[127.65093,35.49265],[127.65,35.49133],[127.65074,35.48902],[127.65311,35.48687],[127.6448,35.48195],[127.63739,35.47927],[127.63661,35.47821],[127.6378,35.47427],[127.63789,35.47024],[127.63573,35.46881],[127.63692,35.466],[127.63568,35.46224],[127.63669,35.45935],[127.64519,35.44913],[127.64228,35.44849],[127.63896,35.44506],[127.62669,35.44643],[127.62209,35.44775],[127.61798,35.4474],[127.6141,35.44435],[127.61293,35.4417],[127.60936,35.43957],[127.60891,35.43662],[127.60803,35.43581],[127.61255,35.43404],[127.60976,35.42941],[127.6083,35.42803],[127.60513,35.42685],[127.59729,35.41785],[127.59465,35.4168],[127.58888,35.41851],[127.5845,35.41776],[127.58033,35.42044],[127.57741,35.42086],[127.57613,35.42193],[127.58057,35.42669],[127.58006,35.42776],[127.58346,35.43109],[127.58405,35.43309],[127.58154,35.43513],[127.58121,35.43732],[127.58218,35.4442],[127.5842,35.44736],[127.58349,35.44956],[127.58401,35.45299],[127.58062,35.45455],[127.57927,35.45637],[127.57887,35.45889],[127.57581,35.45695],[127.57659,35.46221],[127.57942,35.46367],[127.58741,35.46451],[127.58653,35.4675],[127.58688,35.46895],[127.58901,35.47151],[127.58882,35.47341],[127.59028,35.47424],[127.59571,35.47561],[127.59939,35.47469],[127.59949,35.4774],[127.60273,35.48135],[127.60226,35.48411],[127.60639,35.49058],[127.60736,35.49597],[127.61042,35.49808],[127.61149,35.50225],[127.6131,35.50299],[127.61377,35.50713],[127.61881,35.50716],[127.61964,35.50803],[127.62479,35.50743],[127.62972,35.50801],[127.63179,35.50734],[127.63509,35.50776],[127.637,35.50905],[127.63848,35.50785]]]}}]}