{
  "type": "FeatureCollection",
  "features": [
    {
      "type": "Feature",
      "properties": {
        "pid": "P-001",
        "name": "도로안전 정사영상",
        "status": "대기"
      },
      "geometry": {
        "type": "Polygon",
        "coordinates": [
          [
            [
              127.375,
              35.4
            ],
            [
              127.405,
              35.4
            ],
            [
              127.405,
              35.42
            ],
            [
              127.375,
              35.42
            ],
            [
              127.375,
              35.4
            ]
          ]
        ]
      }
    },
    {
      "type": "Feature",
      "properties": {
        "pid": "P-002",
        "name": "도로안전 카메라",
        "status": "검토중"
      },
      "geometry": {
        "type": "Polygon",
        "coordinates": [
          [
            [
              127.1375,
              35.813
            ],
            [
              127.1625,
              35.813
            ],
            [
              127.1625,
              35.831
            ],
            [
              127.1375,
              35.831
            ],
            [
              127.1375,
              35.813
            ]
          ]
        ]
      }
    },
    {
      "type": "Feature",
      "properties": {
        "pid": "P-003",
        "name": "사료작물(생육기)",
        "status": "검토중"
      },
      "geometry": {
        "type": "Polygon",
        "coordinates": [
          [
            [
              126.8385,
              35.5575
            ],
            [
              126.8735,
              35.5575
            ],
            [
              126.8735,
              35.5825
            ],
            [
              126.8385,
              35.5825
            ],
            [
              126.8385,
              35.5575
            ]
          ]
        ]
      }
    },
    {
      "type": "Feature",
      "properties": {
        "pid": "P-004",
        "name": "사료작물(생산기)",
        "status": "대기"
      },
      "geometry": {
        "type": "Polygon",
        "coordinates": [
          [
            [
              126.8625,
              35.7905
            ],
            [
              126.8975,
              35.7905
            ],
            [
              126.8975,
              35.8155
            ],
            [
              126.8625,
              35.8155
            ],
            [
              126.8625,
              35.7905
            ]
          ]
        ]
      }
    },
    {
      "type": "Feature",
      "properties": {
        "pid": "P-005",
        "name": "곤포사일리지",
        "status": "승인"
      },
      "geometry": {
        "type": "Polygon",
        "coordinates": [
          [
            [
              127.511,
              35.638
            ],
            [
              127.531,
              35.638
            ],
            [
              127.531,
              35.656
            ],
            [
              127.511,
              35.656
            ],
            [
              127.511,
              35.638
            ]
          ]
        ]
      }
    },
    {
      "type": "Feature",
      "properties": {
        "pid": "P-006",
        "name": "비닐하우스 탐지",
        "status": "승인"
      },
      "geometry": {
        "type": "Polygon",
        "coordinates": [
          [
            [
              127.1505,
              35.895
            ],
            [
              127.1755,
              35.895
            ],
            [
              127.1755,
              35.915
            ],
            [
              127.1505,
              35.915
            ],
            [
              127.1505,
              35.895
            ]
          ]
        ]
      }
    },
    {
      "type": "Feature",
      "properties": {
        "pid": "P-007",
        "name": "농지 활용 분석",
        "status": "반려"
      },
      "geometry": {
        "type": "Polygon",
        "coordinates": [
          [
            [
              126.942,
              35.937
            ],
            [
              126.972,
              35.937
            ],
            [
              126.972,
              35.959
            ],
            [
              126.942,
              35.959
            ],
            [
              126.942,
              35.937
            ]
          ]
        ]
      }
    },
    {
      "type": "Feature",
      "properties": {
        "pid": "P-008",
        "name": "방치 쓰레기 탐지",
        "status": "비공개"
      },
      "geometry": {
        "type": "Polygon",
        "coordinates": [
          [
            [
              127.405,
              35.42
            ],
            [
              127.425,
              35.42
            ],
            [
              127.425,
              35.436
            ],
            [
              127.405,
              35.436
            ],
            [
              127.405,
              35.42
            ]
          ]
        ]
      }
    }
  ]
}