{
  "type": "FeatureCollection",
  "note": "simplified placeholder",
  "features": [
    {
      "type": "Feature",
      "properties": {
        "code": "52110",
        "name": "전주시",
        "coverage": 0.82,
        "done": [
          "pothole",
          "greenbelt",
          "trash"
        ]
      },
      "geometry": {
        "type": "Polygon",
        "coordinates": [
          [
            [
              127.22199,
              35.816
            ],
            [
              127.185,
              35.86796
            ],
            [
              127.111,
              35.86796
            ],
            [
              127.07401,
              35.816
            ],
            [
              127.111,
              35.76404
            ],
            [
              127.185,
              35.76404
            ],
            [
              127.22199,
              35.816
            ]
          ]
        ]
      }
    },
    {
      "type": "Feature",
      "properties": {
        "code": "52130",
        "name": "군산시",
        "coverage": 0.64,
        "done": [
          "marine",
          "pothole",
          "trash"
        ]
      },
      "geometry": {
        "type": "Polygon",
        "coordinates": [
          [
            [
              126.81113,
              35.967
            ],
            [
              126.77407,
              36.01896
            ],
            [
              126.69993,
              36.01896
            ],
            [
              126.66287,
              35.967
            ],
            [
              126.69993,
              35.91504
            ],
            [
              126.77407,
              35.91504
            ],
            [
              126.81113,
              35.967
            ]
          ]
        ]
      }
    },
    {
      "type": "Feature",
      "properties": {
        "code": "52140",
        "name": "익산시",
        "coverage": 0.71,
        "done": [
          "farmland",
          "pothole",
          "greenhouse"
        ]
      },
      "geometry": {
        "type": "Polygon",
        "coordinates": [
          [
            [
              127.03112,
              35.948
            ],
            [
              126.99406,
              35.99996
            ],
            [
              126.91994,
              35.99996
            ],
            [
              126.88288,
              35.948
            ],
            [
              126.91994,
              35.89604
            ],
            [
              126.99406,
              35.89604
            ],
            [
              127.03112,
              35.948
            ]
          ]
        ]
      }
    },
    {
      "type": "Feature",
      "properties": {
        "code": "52180",
        "name": "정읍시",
        "coverage": 0.55,
        "done": [
          "farmland",
          "greenhouse"
        ]
      },
      "geometry": {
        "type": "Polygon",
        "coordinates": [
          [
            [
              126.92976,
              35.57
            ],
            [
              126.89288,
              35.62196
            ],
            [
              126.81912,
              35.62196
            ],
            [
              126.78224,
              35.57
            ],
            [
              126.81912,
              35.51804
            ],
            [
              126.89288,
              35.51804
            ],
            [
              126.92976,
              35.57
            ]
          ]
        ]
      }
    },
    {
      "type": "Feature",
      "properties": {
        "code": "52190",
        "name": "남원시",
        "coverage": 0.93,
        "done": [
          "greenbelt",
          "trash",
          "incinerator",
          "pothole",
          "greenhouse"
        ]
      },
      "geometry": {
        "type": "Polygon",
        "coordinates": [
          [
            [
              127.46362,
              35.416
            ],
            [
              127.42681,
              35.46796
            ],
            [
              127.35319,
              35.46796
            ],
            [
              127.31638,
              35.416
            ],
            [
              127.35319,
              35.36404
            ],
            [
              127.42681,
              35.36404
            ],
            [
              127.46362,
              35.416
            ]
          ]
        ]
      }
    },
    {
      "type": "Feature",
      "properties": {
        "code": "52210",
        "name": "김제시",
        "coverage": 0.6,
        "done": [
          "farmland",
          "greenhouse"
        ]
      },
      "geometry": {
        "type": "Polygon",
        "coordinates": [
          [
            [
              126.95398,
              35.803
            ],
            [
              126.91699,
              35.85496
            ],
            [
              126.84301,
              35.85496
            ],
            [
              126.80602,
              35.803
            ],
            [
              126.84301,
              35.75104
            ],
            [
              126.91699,
              35.75104
            ],
            [
              126.95398,
              35.803
            ]
          ]
        ]
      }
    },
    {
      "type": "Feature",
      "properties": {
        "code": "52710",
        "name": "완주군",
        "coverage": 0.47,
        "done": [
          "greenbelt",
          "greenhouse"
        ]
      },
      "geometry": {
        "type": "Polygon",
        "coordinates": [
          [
            [
              127.23707,
              35.905
            ],
            [
              127.20004,
              35.95696
            ],
            [
              127.12596,
              35.95696
            ],
            [
              127.08893,
              35.905
            ],
            [
              127.12596,
              35.85304
            ],
            [
              127.20004,
              35.85304
            ],
            [
              127.23707,
              35.905
            ]
          ]
        ]
      }
    },
    {
      "type": "Feature",
      "properties": {
        "code": "52720",
        "name": "진안군",
        "coverage": 0.38,
        "done": [
          "trash",
          "incinerator"
        ]
      },
      "geometry": {
        "type": "Polygon",
        "coordinates": [
          [
            [
              127.49897,
              35.791
            ],
            [
              127.46198,
              35.84296
            ],
            [
              127.38802,
              35.84296
            ],
            [
              127.35103,
              35.791
            ],
            [
              127.38802,
              35.73904
            ],
            [
              127.46198,
              35.73904
            ],
            [
              127.49897,
              35.791
            ]
          ]
        ]
      }
    },
    {
      "type": "Feature",
      "properties": {
        "code": "52730",
        "name": "무주군",
        "coverage": 0.29,
        "done": [
          "trash"
        ]
      },
      "geometry": {
        "type": "Polygon",
        "coordinates": [
          [
            [
              127.73517,
              36.007
            ],
            [
              127.69809,
              36.05896
            ],
            [
              127.62391,
              36.05896
            ],
            [
              127.58683,
              36.007
            ],
            [
              127.62391,
              35.95504
            ],
            [
              127.69809,
              35.95504
            ],
            [
              127.73517,
              36.007
            ]
          ]
        ]
      }
    },
    {
      "type": "Feature",
      "properties": {
        "code": "52740",
        "name": "장수군",
        "coverage": 0.33,
        "done": [
          "incinerator",
          "greenhouse"
        ]
      },
      "geometry": {
        "type": "Polygon",
        "coordinates": [
          [
            [
              127.59483,
              35.647
            ],
            [
              127.55792,
              35.69896
            ],
            [
              127.48408,
              35.69896
            ],
            [
              127.44717,
              35.647
            ],
            [
              127.48408,
              35.59504
            ],
            [
              127.55792,
              35.59504
            ],
            [
              127.59483,
              35.647
            ]
          ]
        ]
      }
    },
    {
      "type": "Feature",
      "properties": {
        "code": "52750",
        "name": "임실군",
        "coverage": 0.41,
        "done": [
          "trash",
          "greenhouse"
        ]
      },
      "geometry": {
        "type": "Polygon",
        "coordinates": [
          [
            [
              127.35681,
              35.618
            ],
            [
              127.3199,
              35.66996
            ],
            [
              127.2461,
              35.66996
            ],
            [
              127.20919,
              35.618
            ],
            [
              127.2461,
              35.56604
            ],
            [
              127.3199,
              35.56604
            ],
            [
              127.35681,
              35.618
            ]
          ]
        ]
      }
    },
    {
      "type": "Feature",
      "properties": {
        "code": "52770",
        "name": "순창군",
        "coverage": 0.36,
        "done": [
          "incinerator",
          "pothole"
        ]
      },
      "geometry": {
        "type": "Polygon",
        "coordinates": [
          [
            [
              127.21158,
              35.374
            ],
            [
              127.17479,
              35.42596
            ],
            [
              127.10121,
              35.42596
            ],
            [
              127.06442,
              35.374
            ],
            [
              127.10121,
              35.32204
            ],
            [
              127.17479,
              35.32204
            ],
            [
              127.21158,
              35.374
            ]
          ]
        ]
      }
    },
    {
      "type": "Feature",
      "properties": {
        "code": "52790",
        "name": "고창군",
        "coverage": 0.58,
        "done": [
          "marine",
          "farmland"
        ]
      },
      "geometry": {
        "type": "Polygon",
        "coordinates": [
          [
            [
              126.77564,
              35.435
            ],
            [
              126.73882,
              35.48696
            ],
            [
              126.66518,
              35.48696
            ],
            [
              126.62836,
              35.435
            ],
            [
              126.66518,
              35.38304
            ],
            [
              126.73882,
              35.38304
            ],
            [
              126.77564,
              35.435
            ]
          ]
        ]
      }
    },
    {
      "type": "Feature",
      "properties": {
        "code": "52800",
        "name": "부안군",
        "coverage": 0.62,
        "done": [
          "marine",
          "farmland",
          "trash"
        ]
      },
      "geometry": {
        "type": "Polygon",
        "coordinates": [
          [
            [
              126.80691,
              35.732
            ],
            [
              126.76996,
              35.78396
            ],
            [
              126.69604,
              35.78396
            ],
            [
              126.65909,
              35.732
            ],
            [
              126.69604,
              35.68004
            ],
            [
              126.76996,
              35.68004
            ],
            [
              126.80691,
              35.732
            ]
          ]
        ]
      }
    }
  ]
}